Station;Long_DD;Lat_DD;Bot_depth;Bot_depth_GIS;Location;Survey;Site_Statu;Site_start;Site_end;note;Region;Program;DataAvaila;POINT_X;POINT_Y;workarea;Organization;CreationDate;Creator;EditDate;Editor;x;y
ALCOVE;-128.1162;51.6752000000001; ;8;Choked Pass; ; ;;; ;Central Coast;Oceanography; ;-128.1162;51.6752000000001;CALVERT;HAKAI;janvier 31, 2020;will.mcinnes;février 14, 2020;publisher_testing;-128.1162;51.675200000000075
BRK01;-127.889;51.9140000000001;150;141;Burke Channel;Burke Channel;Not Active;12/31/2013;; ;Central Coast;Oceanography; ;-127.889;51.9140000000001;CALVERT;HAKAI;janvier 31, 2020;will.mcinnes;janvier 31, 2020;will.mcinnes;-127.88899999999995;51.91400000000005
BRK02;-127.843;51.9300000000001;135;131;Burke Channel;Burke Channel;Not Active;12/31/2013;; ;Central Coast;Oceanography; ;-127.843;51.9300000000001;CALVERT;HAKAI;janvier 31, 2020;will.mcinnes;janvier 31, 2020;will.mcinnes;-127.84299999999996;51.930000000000064
BRK03;-127.8;51.946;140;117;Burke Channel;Burke Channel;Not Active;12/31/2013;; ;Central Coast;Oceanography; ;-127.8;51.946;CALVERT;HAKAI;janvier 31, 2020;will.mcinnes;janvier 31, 2020;will.mcinnes;-127.79999999999995;51.946000000000026
BRK04;-127.766;51.955;43;38;Burke Channel;Burke Channel;Not Active;12/31/2013;; ;Central Coast;Oceanography; ;-127.766;51.955;CALVERT;HAKAI;janvier 31, 2020;will.mcinnes;janvier 31, 2020;will.mcinnes;-127.76599999999996;51.95500000000004
BRK05;-127.698;51.958;208;204;Burke Channel;Burke Channel;Not Active;12/31/2013;; ;Central Coast;Oceanography; ;-127.698;51.958;CALVERT;HAKAI;janvier 31, 2020;will.mcinnes;janvier 31, 2020;will.mcinnes;-127.69799999999998;51.95800000000003
DAWSONS;-127.5923;51.5740000000001;30;57;Bickle Channel;Rivers Inlet V2;Active;12/31/2012;; ;Central Coast;Oceanography; ;-127.5923;51.5740000000001;CALVERT;HAKAI;janvier 31, 2020;will.mcinnes;janvier 31, 2020;will.mcinnes;-127.59229999999997;51.57400000000007
DFO1;-127.6055;51.4593;299;289;Rivers Inlet;Rivers Inlet V2;Active;;; ;Central Coast;Oceanography; ;-127.6055;51.4593;CALVERT;HAKAI;janvier 31, 2020;will.mcinnes;janvier 31, 2020;will.mcinnes;-127.60549999999996;51.45930000000004
DFO2;-127.5583;51.5208000000001;333;330;Rivers Inlet;Rivers Inlet;Active;12/31/2012;; ;Central Coast;Oceanography; ;-127.5583;51.5208000000001;CALVERT;HAKAI;janvier 31, 2020;will.mcinnes;janvier 31, 2020;will.mcinnes;-127.55829999999996;51.520800000000065
DFO3;-127.5313;51.6008;324;365;Rivers Inlet;Rivers Inlet V2;Active;;; ;Central Coast;Oceanography; ;-127.5313;51.6008;CALVERT;HAKAI;janvier 31, 2020;will.mcinnes;janvier 31, 2020;will.mcinnes;-127.5313;51.60080000000005
DFO4;-127.4493;51.6488000000001;300;313;Rivers Inlet;Rivers Inlet V2;Active;;; ;Central Coast;Oceanography; ;-127.4493;51.6488000000001;CALVERT;HAKAI;janvier 31, 2020;will.mcinnes;janvier 31, 2020;will.mcinnes;-127.4493;51.64880000000005
DFO5;-127.3122;51.6773000000001;198;201;Rivers Inlet;Rivers Inlet V2;Active;;; ;Central Coast;Oceanography; ;-127.3122;51.6773000000001;CALVERT;HAKAI;janvier 31, 2020;will.mcinnes;janvier 31, 2020;will.mcinnes;-127.31219999999996;51.67730000000006
FHE02;-127.754;51.6139000000001;180;40;Fish Egg Inlet;South Herring;Active;12/31/2012;; ;Central Coast;Oceanography; ;-127.754;51.6139000000001;CALVERT;HAKAI;janvier 31, 2020;will.mcinnes;janvier 31, 2020;will.mcinnes;-127.75399999999996;51.61390000000006
FHE04;-127.8275;51.6559;33;1;Illahie Inlet;South Herring;Active;12/31/2012;; ;Central Coast;Oceanography; ;-127.8275;51.6559;CALVERT;HAKAI;janvier 31, 2020;will.mcinnes;janvier 31, 2020;will.mcinnes;-127.8275;51.65590000000003
FZH01;-127.8958;51.6394000000001;290;299;Fitz Hugh Sound;Kwakshua;Active;12/31/2012;; ;Central Coast;Oceanography; ;-127.8958;51.6394000000001;CALVERT;HAKAI;janvier 31, 2020;will.mcinnes;janvier 31, 2020;will.mcinnes;-127.89579999999997;51.63940000000008
FZH02;-127.8714;51.6683;20;24;Fitz Hugh Sound;South Herring;Active;12/31/2012;; ;Central Coast;Oceanography; ;-127.8714;51.6683;CALVERT;HAKAI;janvier 31, 2020;will.mcinnes;janvier 31, 2020;will.mcinnes;-127.8714;51.668300000000045
FZH03;-127.884;51.6921;27;27;Fitz Hugh Sound;South Herring;Active;12/31/2012;; ;Central Coast;Oceanography; ;-127.884;51.6921;CALVERT;HAKAI;janvier 31, 2020;will.mcinnes;janvier 31, 2020;will.mcinnes;-127.88399999999996;51.69210000000004
FZH04;-127.955;51.821;310;311;Fitz Hugh Sound;Koeye;Not Active;12/31/2012;; ;Central Coast;Oceanography; ;-127.955;51.821;CALVERT;HAKAI;janvier 31, 2020;will.mcinnes;janvier 31, 2020;will.mcinnes;-127.95499999999998;51.821000000000026
FZH07;-127.9373;51.7034;374;329;Fitz Hugh Sound;Koeye;Active;12/31/2012;; ;Central Coast;Oceanography; ;-127.9373;51.7034;CALVERT;HAKAI;janvier 31, 2020;will.mcinnes;janvier 31, 2020;will.mcinnes;-127.9373;51.703400000000045
FZH08;-127.9436;51.7590000000001;420;384;Fitz Hugh Sound;Koeye;Active;12/31/2012;; ;Central Coast;Oceanography; ;-127.9436;51.7590000000001;CALVERT;HAKAI;janvier 31, 2020;will.mcinnes;janvier 31, 2020;will.mcinnes;-127.94359999999996;51.75900000000007
FZH09;-127.982;51.8960000000001;305;281;Fitz Hugh Sound;Burke Channel;Not Active;12/31/2013;; ;Central Coast;Oceanography; ;-127.982;51.8960000000001;CALVERT;HAKAI;janvier 31, 2020;will.mcinnes;janvier 31, 2020;will.mcinnes;-127.98199999999996;51.89600000000007
FZH10;-127.935;51.9020000000001;336;340;Fitz Hugh Sound;Burke Channel;Not Active;12/31/2013;; ;Central Coast;Oceanography; ;-127.935;51.9020000000001;CALVERT;HAKAI;janvier 31, 2020;will.mcinnes;janvier 31, 2020;will.mcinnes;-127.93499999999996;51.90200000000005
FZH11;-127.796333;51.4980800000001;190;0;Fitz Hugh Sound; ;Not Active;;; ;Central Coast;Oceanography; ;-127.796333;51.4980800000001;CALVERT;HAKAI;janvier 31, 2020;will.mcinnes;janvier 31, 2020;will.mcinnes;-127.79633299999996;51.49808000000007
FZH12;-127.89195;51.5278000000001;125;0;Fitz Hugh Sound; ;Not Active;;; ;Central Coast;Oceanography; ;-127.89195;51.5278000000001;CALVERT;HAKAI;janvier 31, 2020;will.mcinnes;janvier 31, 2020;will.mcinnes;-127.89194999999997;51.52780000000007
FZH13;-127.8524;51.5724000000001;226;248;Fitz Hugh Sound; ;Active;12/31/2014;; ;Central Coast;Oceanography; ;-127.8524;51.5724000000001;CALVERT;HAKAI;janvier 31, 2020;will.mcinnes;janvier 31, 2020;will.mcinnes;-127.8524;51.57240000000007
GOLDEN;-128.2131;51.9032; ;48;Golden Islands; ; ;;; ;Central Coast;Oceanography; ;-128.2131;51.9032;CALVERT;HAKAI;janvier 31, 2020;will.mcinnes;janvier 31, 2020;will.mcinnes;-128.21309999999994;51.90320000000003
GOOSE;-128.4602;51.9197; ;1;Goose Island; ; ;;; ;Central Coast;Oceanography; ;-128.4602;51.9197;CALVERT;HAKAI;janvier 31, 2020;will.mcinnes;janvier 31, 2020;will.mcinnes;-128.4602;51.919700000000034
HKP01;-128.079;51.7182000000001; ;300;Hakai Pass;Koeye;Active;;; ;Central Coast;Oceanography; ;-128.079;51.7182000000001;CALVERT;HAKAI;janvier 31, 2020;will.mcinnes;janvier 31, 2020;will.mcinnes;-128.07899999999995;51.71820000000008
HKP03;-128.1636;51.7015000000001;120;141;Hakai Pass;Queen Charlotte Sound, Ver.1;Active;12/31/2012;; ;Central Coast;Oceanography; ;-128.1636;51.7015000000001;CALVERT;HAKAI;janvier 31, 2020;will.mcinnes;janvier 31, 2020;will.mcinnes;-128.16359999999997;51.70150000000007
HKP04;-128.0068;51.7425000000001;470;401;Hakai Pass;Koeye;Active;12/31/2012;; ;Central Coast;Oceanography; ;-128.0068;51.7425000000001;CALVERT;HAKAI;janvier 31, 2020;will.mcinnes;janvier 31, 2020;will.mcinnes;-128.00679999999994;51.742500000000064
INNERSAN;-128.114898;51.678342; ;0; ; ; ;;; ; ; ; ;-128.114898;51.678342;CALVERT;HAKAI;janvier 31, 2020;will.mcinnes;janvier 31, 2020;will.mcinnes;-128.11489799999998;51.67834200000004
JEN SITE;-128.12647;51.679878; ;0; ; ; ;;; ; ; ; ;-128.12647;51.679878;CALVERT;HAKAI;janvier 31, 2020;will.mcinnes;janvier 31, 2020;will.mcinnes;-128.12646999999998;51.67987800000003
IA;-128.1182;51.6727000000001; ;7;Choked Pass; ; ;;;a.k.a. Inner Ang;Central Coast;Oceanography; ;-128.1182;51.6727000000001;CALVERT;HAKAI;janvier 31, 2020;will.mcinnes;janvier 31, 2020;will.mcinnes;-128.11819999999994;51.67270000000008
ID;-128.1178;51.6745000000001; ;7;Choked Pass; ; ;;;a.k.a. Inner Derek;Central Coast;Oceanography; ;-128.1178;51.6745000000001;CALVERT;HAKAI;janvier 31, 2020;will.mcinnes;janvier 31, 2020;will.mcinnes;-128.1178;51.67450000000008
IS;-128.1145;51.6783; ;9;Choked Pass; ; ;;;a.k.a. Inner Sandspit;Central Coast;Oceanography; ;-128.1145;51.6783;CALVERT;HAKAI;janvier 31, 2020;will.mcinnes;janvier 31, 2020;will.mcinnes;-128.11449999999996;51.67830000000003
IT;-128.1195;51.6753000000001; ;6;Choked Pass; ; ;;;a.k.a. Inner Tristan;Central Coast;Oceanography; ;-128.1195;51.6753000000001;CALVERT;HAKAI;janvier 31, 2020;will.mcinnes;janvier 31, 2020;will.mcinnes;-128.11949999999996;51.67530000000005
KC1;-128.1289;51.6545;8;6;Kwakshua Channel;Kwakshua;Active;12/31/2012;; ;Central Coast;Oceanography; ;-128.1289;51.6545;CALVERT;HAKAI;janvier 31, 2020;will.mcinnes;janvier 31, 2020;will.mcinnes;-128.1289;51.65450000000004
KC10;-127.9516;51.6505000000001;345;283;Fitz Hugh Sound;Kwakshua;Active;12/31/2012;; ;Central Coast;Oceanography; ;-127.9516;51.6505000000001;CALVERT;HAKAI;janvier 31, 2020;will.mcinnes;janvier 31, 2020;will.mcinnes;-127.95159999999998;51.65050000000008
KC11;-128.0253;51.6507;78;88;Kwakshua Channel;SOMS;Active;12/31/2012;; ;Central Coast;Oceanography; ;-128.0253;51.6507;CALVERT;HAKAI;janvier 31, 2020;will.mcinnes;janvier 31, 2020;will.mcinnes;-128.02529999999996;51.65070000000003
KC12;-128.07;51.6504;22;51;Kwakshua Channel;SOMS;Active;12/31/2012;; ;Central Coast;Oceanography; ;-128.07;51.6504;CALVERT;HAKAI;janvier 31, 2020;will.mcinnes;janvier 31, 2020;will.mcinnes;-128.07;51.65040000000005
KC13;-128.1199;51.6472000000001;9;7;Kwakshua Channel;SOMS;Active;12/31/2012;; ;Central Coast;Oceanography; ;-128.1199;51.6472000000001;CALVERT;HAKAI;janvier 31, 2020;will.mcinnes;janvier 31, 2020;will.mcinnes;-128.11989999999997;51.647200000000055
KC14;-127.9961;51.6487000000001;44;34;Kwakshua Channel;SOMS;Active;12/31/2012;; ;Central Coast;Oceanography; ;-127.9961;51.6487000000001;CALVERT;HAKAI;janvier 31, 2020;will.mcinnes;janvier 31, 2020;will.mcinnes;-127.99609999999996;51.64870000000008
KC15;-128.0034;51.6569000000001;28;49;Kwakshua Channel;SOMS;Active;12/31/2012;; ;Central Coast;Oceanography; ;-128.0034;51.6569000000001;CALVERT;HAKAI;janvier 31, 2020;will.mcinnes;janvier 31, 2020;will.mcinnes;-128.00339999999994;51.656900000000064
KC16;-128.0419;51.6563000000001;35;65;Kwakshua Channel;SOMS;Active;12/31/2012;; ;Central Coast;Oceanography; ;-128.0419;51.6563000000001;CALVERT;HAKAI;janvier 31, 2020;will.mcinnes;janvier 31, 2020;will.mcinnes;-128.04189999999994;51.65630000000005
KC17;-128.10295;51.6521500000001; ;38;Kwakshua Channel;Primary Production;Active;;; ;Central Coast;Oceanography; ;-128.10295;51.6521500000001;CALVERT;HAKAI;janvier 31, 2020;will.mcinnes;janvier 31, 2020;will.mcinnes;-128.10294999999996;51.65215000000006
KC4;-128.1149;51.6545;25;22;Kwakshua Channel;Kwakshua;Active;12/31/2012;; ;Central Coast;Oceanography; ;-128.1149;51.6545;CALVERT;HAKAI;janvier 31, 2020;will.mcinnes;janvier 31, 2020;will.mcinnes;-128.11489999999998;51.65450000000004
KC7;-128.0464;51.6535000000001;168;144;Kwakshua Channel;Kwakshua;Active;12/31/2012;; ;Central Coast;Oceanography; ;-128.0464;51.6535000000001;CALVERT;HAKAI;janvier 31, 2020;will.mcinnes;janvier 31, 2020;will.mcinnes;-128.04639999999995;51.653500000000065
KC8;-128.0017;51.6517000000001;212;147;Kwakshua Channel;Kwakshua;Active;12/31/2012;; ;Central Coast;Oceanography; ;-128.0017;51.6517000000001;CALVERT;HAKAI;janvier 31, 2020;will.mcinnes;janvier 31, 2020;will.mcinnes;-128.00169999999997;51.65170000000006
KFPC01;-128.4319;51.9002170000001;25;35;South Tip of Gosling Island;Outer Shores;Not Active;12/31/2012;; ;Central Coast;Oceanography; ;-128.4319;51.9002170000001;CALVERT;HAKAI;janvier 31, 2020;will.mcinnes;janvier 31, 2020;will.mcinnes;-128.43189999999998;51.900217000000055
KFPC04;-128.258567;51.806317;20;35;Queens Sound;Outer Shores;Not Active;12/31/2012;; ;Central Coast;Oceanography; ;-128.258567;51.806317;CALVERT;HAKAI;janvier 31, 2020;will.mcinnes;janvier 31, 2020;will.mcinnes;-128.25856699999997;51.806317000000035
KFPC06;-128.233617;51.811267;20;33;Lyte Group;Outer Shores;Not Active;12/31/2012;; ;Central Coast;Oceanography; ;-128.233617;51.811267;CALVERT;HAKAI;janvier 31, 2020;will.mcinnes;janvier 31, 2020;will.mcinnes;-128.23361699999998;51.81126700000004
KFPN03;-128.399067;52.0450000000001;20;12;Golby Passage;Outer Shores;Not Active;12/31/2012;; ;Central Coast;Oceanography; ;-128.399067;52.0450000000001;CALVERT;HAKAI;janvier 31, 2020;will.mcinnes;janvier 31, 2020;will.mcinnes;-128.39906699999997;52.04500000000007
KFPN07;-128.261;51.9610000000001;16;50;Queens Sound;Outer Shores;Not Active;12/31/2012;; ;Central Coast;Oceanography; ;-128.261;51.9610000000001;CALVERT;HAKAI;janvier 31, 2020;will.mcinnes;janvier 31, 2020;will.mcinnes;-128.26099999999997;51.96100000000007
KFPS01;-128.143;51.6820000000001;125;138;Starfish Island, off west side;Queen Charlotte Sound;Not Active;12/31/2012;; ;Central Coast;Oceanography; ;-128.143;51.6820000000001;CALVERT;HAKAI;janvier 31, 2020;will.mcinnes;janvier 31, 2020;will.mcinnes;-128.14299999999997;51.68200000000007
KFPS04;-128.1171;51.6796000000001;13;9;Choked Pass;Queen Charlotte Sound, Ver. 2;Active;12/31/2012;; ;Central Coast;Oceanography; ;-128.1171;51.6796000000001;CALVERT;HAKAI;janvier 31, 2020;will.mcinnes;janvier 31, 2020;will.mcinnes;-128.1171;51.67960000000005
KFPS05;-128.113;51.6850000000001;29;17; ;Queen Charlotte Sound;Not Active;12/31/2012;; ;Central Coast;Oceanography; ;-128.113;51.6850000000001;CALVERT;HAKAI;janvier 31, 2020;will.mcinnes;janvier 31, 2020;will.mcinnes;-128.11299999999994;51.68500000000006
KFPS06;-128.1136;51.6944;84;59; ;Queen Charlotte Sound, Ver. 2;Active;12/31/2012;; ;Central Coast;Oceanography; ;-128.1136;51.6944;CALVERT;HAKAI;janvier 31, 2020;will.mcinnes;septembre 9, 2020;will.mcinnes;-128.11359999999996;51.69440000000003
KFPS08;-128.1243;51.6803;14;14; ;Queen Charlotte Sound, Ver. 2;Active;12/31/2012;; ;Central Coast;Oceanography; ;-128.1243;51.6803;CALVERT;HAKAI;janvier 31, 2020;will.mcinnes;janvier 31, 2020;will.mcinnes;-128.12429999999995;51.680300000000045
KIL03;-128.1542;51.8694;65;55;Entrance to Goodlad Bay;North Herring;Active;12/31/2012;; ;Central Coast;Oceanography; ;-128.1542;51.8694;CALVERT;HAKAI;janvier 31, 2020;will.mcinnes;janvier 31, 2020;will.mcinnes;-128.15419999999995;51.86940000000004
KIL07;-128.129;51.8409;100;106;Watt Bay;North Herring;Active;12/31/2012;; ;Central Coast;Oceanography; ;-128.129;51.8409;CALVERT;HAKAI;janvier 31, 2020;will.mcinnes;janvier 31, 2020;will.mcinnes;-128.12899999999996;51.84090000000003
Kildidt Sound;-128.079;51.7180000000001;300;302;Hakai Pass;Koeye; ;12/31/2012;; ;Central Coast;Oceanography; ;-128.079;51.7180000000001;CALVERT;HAKAI;janvier 31, 2020;will.mcinnes;janvier 31, 2020;will.mcinnes;-128.07899999999995;51.718000000000075
KME03;-127.8784;51.7044000000001;17;10;?;South Herring;Active;12/31/2012;; ;Central Coast;Oceanography; ;-127.8784;51.7044000000001;CALVERT;HAKAI;janvier 31, 2020;will.mcinnes;janvier 31, 2020;will.mcinnes;-127.87839999999994;51.70440000000008
KWY01;-127.8801;51.7747000000001;12;24;Koeye River;Koeye;Active;12/31/2012;; ;Central Coast;Oceanography; ;-127.8801;51.7747000000001;CALVERT;HAKAI;janvier 31, 2020;will.mcinnes;janvier 31, 2020;will.mcinnes;-127.88009999999996;51.77470000000005
KWY02;-127.8904;51.7724000000001;218;253;Fitz Hugh Sound;Koeye;Active;12/31/2012;; ;Central Coast;Oceanography; ;-127.8904;51.7724000000001;CALVERT;HAKAI;janvier 31, 2020;will.mcinnes;janvier 31, 2020;will.mcinnes;-127.89039999999994;51.77240000000006
KWY03;-127.9144;51.7663000000001;405;366;Fitz Hugh Sound;Koeye;Active;12/31/2012;; ;Central Coast;Oceanography; ;-127.9144;51.7663000000001;CALVERT;HAKAI;janvier 31, 2020;will.mcinnes;janvier 31, 2020;will.mcinnes;-127.91439999999994;51.76630000000006
MACRO1;-128.2545;51.8035;8;29;Triquet Island, north west side;Macro Survey;Active;;; ;Central Coast;Oceanography; ;-128.2545;51.8035;CALVERT;HAKAI;janvier 31, 2020;will.mcinnes;janvier 31, 2020;will.mcinnes;-128.25449999999995;51.80350000000004
MACRO2;-128.0955;51.6645;8;42;Meay Channel;Macro Survey;Active;;; ;Central Coast;Oceanography; ;-128.0955;51.6645;CALVERT;HAKAI;janvier 31, 2020;will.mcinnes;janvier 31, 2020;will.mcinnes;-128.09549999999996;51.66450000000003
MACRO3;-128.2654;51.8414000000001;8;30;Spider Island, south west side;Macro Survey;Active;;; ;Central Coast;Oceanography; ;-128.2654;51.8414000000001;CALVERT;HAKAI;janvier 31, 2020;will.mcinnes;janvier 31, 2020;will.mcinnes;-128.26539999999994;51.84140000000008
MACRO4;-128.2126;51.9030000000001;8;48;Golden Islands;Macro Survey;Active;;; ;Central Coast;Oceanography; ;-128.2126;51.9030000000001;CALVERT;HAKAI;janvier 31, 2020;will.mcinnes;janvier 31, 2020;will.mcinnes;-128.21259999999995;51.90300000000008
MACRO5;-128.262;51.9590000000001;8;50;Simmonds Group;Macro Survey;Active;;; ;Central Coast;Oceanography; ;-128.262;51.9590000000001;CALVERT;HAKAI;janvier 31, 2020;will.mcinnes;janvier 31, 2020;will.mcinnes;-128.26199999999994;51.95900000000006
MACRO6;-128.3646;52.0836;8;20;Stryker Group;Macro Survey;Active;;; ;Central Coast;Oceanography; ;-128.3646;52.0836;CALVERT;HAKAI;janvier 31, 2020;will.mcinnes;janvier 31, 2020;will.mcinnes;-128.3646;52.08360000000005
MACRO7;-128.3685;52.1497000000001;8;46;Thompson Bay;Macro Survey;Active;;; ;Central Coast;Oceanography; ;-128.3685;52.1497000000001;CALVERT;HAKAI;janvier 31, 2020;will.mcinnes;janvier 31, 2020;will.mcinnes;-128.36849999999998;52.14970000000005
MACRO8;-128.4037;52.0579000000001;8;18;McMullins Group;Macro Survey;Active;;; ;Central Coast;Oceanography; ;-128.4037;52.0579000000001;CALVERT;HAKAI;janvier 31, 2020;will.mcinnes;janvier 31, 2020;will.mcinnes;-128.40369999999996;52.057900000000075
MACRO9;-128.4599;51.9204;8;1;South end of Goose Island;Macro Survey;Active;;; ;Central Coast;Oceanography; ;-128.4599;51.9204;CALVERT;HAKAI;janvier 31, 2020;will.mcinnes;janvier 31, 2020;will.mcinnes;-128.45989999999995;51.92040000000003
MEA01;-128.0912;51.6626000000001;40;48;Meay Channel;Kwakshua;Active;12/31/2012;; ;Central Coast;Oceanography; ;-128.0912;51.6626000000001;CALVERT;HAKAI;janvier 31, 2020;will.mcinnes;janvier 31, 2020;will.mcinnes;-128.09119999999996;51.662600000000054
MEA02;-128.0876;51.6754000000001;54;49;Meay Channel;Kwakshua;Active;12/31/2012;; ;Central Coast;Oceanography; ;-128.0876;51.6754000000001;CALVERT;HAKAI;janvier 31, 2020;will.mcinnes;janvier 31, 2020;will.mcinnes;-128.08759999999995;51.67540000000008
MEA03;-128.0873;51.6847000000001;55;49;Meay Channel;Kwakshua;Active;12/31/2012;; ;Central Coast;Oceanography; ;-128.0873;51.6847000000001;CALVERT;HAKAI;janvier 31, 2020;will.mcinnes;janvier 31, 2020;will.mcinnes;-128.08729999999997;51.68470000000008
MEA04;-128.0693;51.6928;8;52;Meay Channel;SOMS;Active;12/31/2012;; ;Central Coast;Oceanography; ;-128.0693;51.6928;CALVERT;HAKAI;janvier 31, 2020;will.mcinnes;janvier 31, 2020;will.mcinnes;-128.06929999999994;51.692800000000034
MEA05;-128.0688;51.6909333300001;8;0;Meay Channel;SOMS;Not Active;;;Discontinued;Central Coast;Oceanography; ;-128.0688;51.6909333300001;CALVERT;HAKAI;janvier 31, 2020;will.mcinnes;janvier 31, 2020;will.mcinnes;-128.06879999999995;51.690933330000064
MEAY KK;-128.0954;51.6645; ;42; ; ; ;;; ;Central Coast;Oceanography; ;-128.0954;51.6645;CALVERT;HAKAI;janvier 31, 2020;will.mcinnes;janvier 31, 2020;will.mcinnes;-128.09539999999998;51.66450000000003
NBCH01;-128.1433;51.6678000000001;15;9;North East of Surf Island;Queen Charlotte Sound, Ver. 2;Active;;; ;Central Coast;Oceanography; ;-128.1433;51.6678000000001;CALVERT;HAKAI;janvier 31, 2020;will.mcinnes;janvier 31, 2020;will.mcinnes;-128.14329999999995;51.66780000000006
NLU02;-128.0509;51.8161000000001;59;50;Nalau Passage;North Herring;Active;12/31/2012;; ;Central Coast;Oceanography; ;-128.0509;51.8161000000001;CALVERT;HAKAI;janvier 31, 2020;will.mcinnes;janvier 31, 2020;will.mcinnes;-128.05089999999996;51.81610000000006
NLU03;-128.0512;51.7937000000001;55;98;Nalau Passage;North Herring;Active;12/31/2012;; ;Central Coast;Oceanography; ;-128.0512;51.7937000000001;CALVERT;HAKAI;janvier 31, 2020;will.mcinnes;janvier 31, 2020;will.mcinnes;-128.0512;51.79370000000006
NMU01;-127.883;51.8365000000001;80;49;Warrior Cove;North Herring;Active;12/31/2012;; ;Central Coast;Oceanography; ;-127.883;51.8365000000001;CALVERT;HAKAI;janvier 31, 2020;will.mcinnes;janvier 31, 2020;will.mcinnes;-127.88299999999998;51.83650000000006
NMU03;-127.8627;51.8672000000001;18;10;Namu Harbour;North Herring;Active;12/31/2012;; ;Central Coast;Oceanography; ;-127.8627;51.8672000000001;CALVERT;HAKAI;janvier 31, 2020;will.mcinnes;janvier 31, 2020;will.mcinnes;-127.86269999999996;51.86720000000008
NMU04;-127.8629;51.8842000000001;42;39;Harlequin Basin;North Herring;Active;12/31/2012;; ;Central Coast;Oceanography; ;-127.8629;51.8842000000001;CALVERT;HAKAI;janvier 31, 2020;will.mcinnes;janvier 31, 2020;will.mcinnes;-127.86289999999995;51.88420000000008
NP;-128.1222;51.6769; ;6;Choked Pass; ; ;;; ;Central Coast;Oceanography; ;-128.1222;51.6769;CALVERT;HAKAI;janvier 31, 2020;will.mcinnes;janvier 31, 2020;will.mcinnes;-128.12219999999996;51.676900000000046
PRUTH;-128.0913;51.6554;75;51;Kwakshua Channel;Kwakshua, Primary Productivity;Active;12/31/2009;; ;Central Coast;Oceanography; ;-128.0913;51.6554;CALVERT;HAKAI;janvier 31, 2020;will.mcinnes;janvier 31, 2020;will.mcinnes;-128.0913;51.65540000000004
QCS01;-128.2384;51.705;125;138;Hakai Pass/ Queen Charlotte Sound;Queen Charlotte Sound, Ver. 1, West Coast Survey;Active;12/31/2012;; ;Central Coast;Oceanography; ;-128.2384;51.705;CALVERT;HAKAI;janvier 31, 2020;will.mcinnes;janvier 31, 2020;will.mcinnes;-128.23839999999996;51.70500000000004
QCS02;-128.2931;51.6948;143;129;Hakai Pass/ Queen Charlotte Sound;Queen Charlotte Sound, Ver. 1, West Coast Survey;Active;12/31/2012;; ;Central Coast;Oceanography; ;-128.2931;51.6948;CALVERT;HAKAI;janvier 31, 2020;will.mcinnes;janvier 31, 2020;will.mcinnes;-128.29309999999998;51.69480000000004
QCS03;-128.2634;51.6342000000001;130;134;West side of Calvert;West Coast Survey;Active;12/31/2014;; ;Central Coast;Oceanography; ;-128.2634;51.6342000000001;CALVERT;HAKAI;janvier 31, 2020;will.mcinnes;janvier 31, 2020;will.mcinnes;-128.2634;51.63420000000008
QCS04;-128.2397;51.5677000000001;128;123;West side of Calvert;West Coast Survey;Active;12/31/2014;; ;Central Coast;Oceanography; ;-128.2397;51.5677000000001;CALVERT;HAKAI;janvier 31, 2020;will.mcinnes;janvier 31, 2020;will.mcinnes;-128.23969999999997;51.56770000000006
QCS05;-128.2058;51.4735000000001;110;109;West side of Calvert;West Coast Survey;Active;12/31/2014;; ;Central Coast;Oceanography; ;-128.2058;51.4735000000001;CALVERT;HAKAI;janvier 31, 2020;will.mcinnes;janvier 31, 2020;will.mcinnes;-128.20579999999995;51.47350000000006
QCS06;-128.0568;51.4186;123;124;West side of Calvert;West Coast Survey;Active;12/31/2014;; ;Central Coast;Oceanography; ;-128.0568;51.4186;CALVERT;HAKAI;janvier 31, 2020;will.mcinnes;janvier 31, 2020;will.mcinnes;-128.05679999999995;51.418600000000026
QCS07;-127.907733;51.3813170000001;134;132;West side of Calvert;West Coast Survey;Active;12/31/2014;; ;Central Coast;Oceanography; ;-127.907733;51.3813170000001;CALVERT;HAKAI;janvier 31, 2020;will.mcinnes;janvier 31, 2020;will.mcinnes;-127.90773299999996;51.38131700000008
QSD01;-128.360883;51.85355;160;160;Queens Sound;Outer Shores;Not Active;12/31/2012;; ;Central Coast;Oceanography; ;-128.360883;51.85355;CALVERT;HAKAI;janvier 31, 2020;will.mcinnes;janvier 31, 2020;will.mcinnes;-128.36088299999994;51.85355000000004
QSD02;-128.3504;51.9581000000001;180;183;Queens Sound;Outer Shores;Not Active;12/31/2012;; ;Central Coast;Oceanography; ;-128.3504;51.9581000000001;CALVERT;HAKAI;janvier 31, 2020;will.mcinnes;janvier 31, 2020;will.mcinnes;-128.35039999999998;51.95810000000006
QSD03;-128.417267;52.019433;35;40;Golby Passage;Outer Shores;Not Active;12/31/2012;; ;Central Coast;Oceanography; ;-128.417267;52.019433;CALVERT;HAKAI;janvier 31, 2020;will.mcinnes;janvier 31, 2020;will.mcinnes;-128.41726699999998;52.01943300000005
QSD04;-128.47215;52.0338;38;41;Golby Passage;Outer Shores;Not Active;12/31/2012;; ;Central Coast;Oceanography; ;-128.47215;52.0338;CALVERT;HAKAI;janvier 31, 2020;will.mcinnes;janvier 31, 2020;will.mcinnes;-128.47214999999994;52.03380000000004
QSD05;-128.5126;52.0625000000001;60;75;Golby Passage;Outer Shores;Not Active;12/31/2012;; ;Central Coast;Oceanography; ;-128.5126;52.0625000000001;CALVERT;HAKAI;janvier 31, 2020;will.mcinnes;janvier 31, 2020;will.mcinnes;-128.51259999999996;52.06250000000006
RVRS01;-127.8044;51.4414000000001;115;116;Fitz Hugh Sound;Rivers Inlet, Ver. 2, West Coast Survey;Active;12/31/2012;; ;Central Coast;Oceanography; ;-127.8044;51.4414000000001;CALVERT;HAKAI;janvier 31, 2020;will.mcinnes;janvier 31, 2020;will.mcinnes;-127.8044;51.44140000000005
SP;-128.1225;51.676; ;6;Choked Pass; ; ;;; ;Central Coast;Oceanography; ;-128.1225;51.676;CALVERT;HAKAI;janvier 31, 2020;will.mcinnes;janvier 31, 2020;will.mcinnes;-128.12249999999997;51.676000000000045
UBC7;-127.8182;51.5003;163;140;Fitz Hugh Sound;Rivers Inlet, Fitz Hugh Sound, West Coast Survey;Active;12/31/2012;; ;Central Coast;Oceanography; ;-127.8182;51.5003;CALVERT;HAKAI;janvier 31, 2020;will.mcinnes;janvier 31, 2020;will.mcinnes;-127.8182;51.50030000000004
UBC8;-127.2668;51.6737000000001;20;56;Rivers Inlet;Rivers Inlet, Ver. 2;Active;12/31/2012;; ;Central Coast;Oceanography; ;-127.2668;51.6737000000001;CALVERT;HAKAI;janvier 31, 2020;will.mcinnes;janvier 31, 2020;will.mcinnes;-127.2668;51.67370000000005
WBCH01;-128.1493;51.6535000000001;8;10;West Beach;Queen Charlotte Sound, Ver. 2;Active;12/31/2013;; ;Central Coast;Oceanography; ;-128.1493;51.6535000000001;CALVERT;HAKAI;janvier 31, 2020;will.mcinnes;janvier 31, 2020;will.mcinnes;-128.14929999999998;51.653500000000065
WBCH02;-128.1657;51.6524000000001;29;30;West Beach;Queen Charlotte Sound, Ver. 2;Active;12/31/2013;; ;Central Coast;Oceanography; ;-128.1657;51.6524000000001;CALVERT;HAKAI;janvier 31, 2020;will.mcinnes;janvier 31, 2020;will.mcinnes;-128.16569999999996;51.65240000000006
WEST BEA;-128.151;51.6482; ;9; ; ; ;;; ;Central Coast;Oceanography; ;-128.151;51.6482;CALVERT;HAKAI;janvier 31, 2020;will.mcinnes;janvier 31, 2020;will.mcinnes;-128.15099999999995;51.64820000000003
YSI;-128.1201;51.6749; ;6; ; ; ;;; ;Central Coast;Oceanography; ;-128.1201;51.6749;CALVERT;HAKAI;janvier 31, 2020;will.mcinnes;janvier 31, 2020;will.mcinnes;-128.12009999999998;51.67490000000003
DI6;-125.1856;50.3974000000001;125;129;Dent;F;Not Active;12/31/2014;; ;Discovery Islands;Oceanography; ;-125.1856;50.3974000000001;QUADRA;HAKAI;janvier 31, 2020;will.mcinnes;janvier 31, 2020;will.mcinnes;-125.18559999999997;50.39740000000006
DI7;-125.3006;50.4476000000001;300;301;Nodales;F;Not Active;12/31/2014;; ;Discovery Islands;Oceanography; ;-125.3006;50.4476000000001;QUADRA;HAKAI;janvier 31, 2020;will.mcinnes;janvier 31, 2020;will.mcinnes;-125.30059999999996;50.44760000000008
DI8;-125.3567;50.3726;210;234;Nodales;F;Not Active;12/31/2014;; ;Discovery Islands;Oceanography; ;-125.3567;50.3726;QUADRA;HAKAI;janvier 31, 2020;will.mcinnes;janvier 31, 2020;will.mcinnes;-125.3567;50.372600000000034
DI10;-125.3274;50.3036000000001;85;78;Okisollo;F;Not Active;12/31/2014;; ;Discovery Islands;Oceanography; ;-125.3274;50.3036000000001;QUADRA;HAKAI;janvier 31, 2020;will.mcinnes;janvier 31, 2020;will.mcinnes;-125.32739999999995;50.303600000000074
DI11;-125.4309;50.3453000000001;300;348;Johnstone Strait;F;Not Active;12/31/2014;; ;Discovery Islands;Oceanography; ;-125.4309;50.3453000000001;QUADRA;HAKAI;janvier 31, 2020;will.mcinnes;janvier 31, 2020;will.mcinnes;-125.43089999999997;50.345300000000066
DI12;-125.383;50.2397;220;259;Discovery Passage;F;Not Active;12/31/2014;; ;Discovery Islands;Oceanography; ;-125.383;50.2397;QUADRA;HAKAI;janvier 31, 2020;will.mcinnes;janvier 31, 2020;will.mcinnes;-125.38299999999998;50.239700000000035
DI13;-125.2351;50.0445;70;51;Discovery Passage;F;Active;12/31/2014;; ;Discovery Islands;Oceanography; ;-125.2351;50.0445;QUADRA;HAKAI;janvier 31, 2020;will.mcinnes;janvier 31, 2020;will.mcinnes;-125.2351;50.044500000000035
QU2;-125.1631;50.0929;120;101;South Sutil Ch.;C;Not Active;12/31/2011;4/21/2016;Was formerly QS 3 (2012);Discovery Islands;Oceanography; ;-125.1631;50.0929;QUADRA;HAKAI;janvier 31, 2020;will.mcinnes;janvier 31, 2020;will.mcinnes;-125.1631;50.09290000000004
QU3;-125.185;50.1154000000001;125;126;Hyacinthe Bay;A, C;Active;12/31/2011;;Was formerly QS 4 (2012);Discovery Islands;Oceanography; ;-125.185;50.1154000000001;QUADRA;HAKAI;janvier 31, 2020;will.mcinnes;janvier 31, 2020;will.mcinnes;-125.18499999999996;50.11540000000008
QU5;-125.2122;50.1183;70;50;Hyacinthe Bay;A, B, C;Active;12/31/2011;;Was formerly QS 5 (2012);Discovery Islands;Oceanography; ;-125.2122;50.1183;QUADRA;HAKAI;janvier 31, 2020;will.mcinnes;janvier 31, 2020;will.mcinnes;-125.21219999999994;50.11830000000003
QU6;-125.2258;50.1232000000001;25;40;Hyacinthe Bay;A, C;Active;12/31/2011;;Was formerly QS 6 (2012);Discovery Islands;Oceanography; ;-125.2258;50.1232000000001;QUADRA;HAKAI;janvier 31, 2020;will.mcinnes;janvier 31, 2020;will.mcinnes;-125.2258;50.123200000000054
QU8;-125.1748;50.1463000000001;145;142;Hoskyn Channel;D;Active;12/31/2011;;Was formerly QS 8 (2012);Discovery Islands;Oceanography; ;-125.1748;50.1463000000001;QUADRA;HAKAI;janvier 31, 2020;will.mcinnes;janvier 31, 2020;will.mcinnes;-125.17479999999996;50.14630000000005
QU9;-125.1371;50.1804000000001;115;102;Hoskyn Channel;D, F;Active;12/31/2011;;Was formerly QS 9 (2012);Discovery Islands;Oceanography; ;-125.1371;50.1804000000001;QUADRA;HAKAI;janvier 31, 2020;will.mcinnes;janvier 31, 2020;will.mcinnes;-125.13709999999998;50.18040000000008
QU10;-125.121;50.232;75;52;Surge Narrows;D;Not Active;12/31/2011;;Was formerly QS 10 (2012);Discovery Islands;Oceanography; ;-125.121;50.232;QUADRA;HAKAI;janvier 31, 2020;will.mcinnes;janvier 31, 2020;will.mcinnes;-125.12099999999998;50.232000000000035
QU11;-125.0948;50.2578;40;36;Whiterock Passage;E;Active;12/31/2011;; ;Discovery Islands;Oceanography; ;-125.0948;50.2578;QUADRA;HAKAI;janvier 31, 2020;will.mcinnes;janvier 31, 2020;will.mcinnes;-125.09479999999996;50.25780000000003
QU12;-125.0814;50.2773000000001;100;105;Whiterock Passage;E;Active;12/31/2011;; ;Discovery Islands;Oceanography; ;-125.0814;50.2773000000001;QUADRA;HAKAI;janvier 31, 2020;will.mcinnes;janvier 31, 2020;will.mcinnes;-125.08139999999996;50.27730000000008
QU16;-125.16;50.1200000000001;160;155;South Sutil Ch.;A, C;Active;12/31/2013;; ;Discovery Islands;Oceanography; ;-125.16;50.1200000000001;QUADRA;HAKAI;janvier 31, 2020;will.mcinnes;janvier 31, 2020;will.mcinnes;-125.15999999999995;50.12000000000006
QU17;-125.13;50.1200000000001;170;239;South Sutil Ch.;A, B, C;Active;12/31/2013;; ;Discovery Islands;Oceanography; ;-125.13;50.1200000000001;QUADRA;HAKAI;janvier 31, 2020;will.mcinnes;janvier 31, 2020;will.mcinnes;-125.13;50.12000000000006
QU18;-125.16;50.08;95;90;South Sutil Ch.;C;Not Active;12/31/2013;4/21/2016; ;Discovery Islands;Oceanography; ;-125.16;50.08;QUADRA;HAKAI;janvier 31, 2020;will.mcinnes;janvier 31, 2020;will.mcinnes;-125.15999999999995;50.08000000000004
QU19;-125.13;50.08;250;249;South Sutil Ch.;C;Not Active;12/31/2013;4/21/2016; ;Discovery Islands;Oceanography; ;-125.13;50.08;QUADRA;HAKAI;janvier 31, 2020;will.mcinnes;janvier 31, 2020;will.mcinnes;-125.13;50.08000000000004
QU20;-125.1;50.08;235;248;South Sutil Ch.;A, C;Active;12/31/2013;; ;Discovery Islands;Oceanography; ;-125.1;50.08;QUADRA;HAKAI;janvier 31, 2020;will.mcinnes;janvier 31, 2020;will.mcinnes;-125.09999999999997;50.08000000000004
QU21;-125.08;50.08;90;58;South Sutil Ch.;C;Not Active;12/31/2013;4/21/2016; ;Discovery Islands;Oceanography; ;-125.08;50.08;QUADRA;HAKAI;janvier 31, 2020;will.mcinnes;janvier 31, 2020;will.mcinnes;-125.07999999999998;50.08000000000004
QU22;-125.15;50.03;135;117;South Sutil Ch.;C;Not Active;12/31/2013;4/21/2016; ;Discovery Islands;Oceanography; ;-125.15;50.03;QUADRA;HAKAI;janvier 31, 2020;will.mcinnes;janvier 31, 2020;will.mcinnes;-125.14999999999998;50.03000000000003
QU23;-125.12;50.03;250;270;South Sutil Ch.;C;Not Active;12/31/2013;4/21/2016; ;Discovery Islands;Oceanography; ;-125.12;50.03;QUADRA;HAKAI;janvier 31, 2020;will.mcinnes;janvier 31, 2020;will.mcinnes;-125.11999999999996;50.03000000000003
QU24;-125.08;50.03;240;230;South Sutil Ch.;C;Not Active;12/31/2013;4/21/2016;Station was Core Station November 2014 - July 2015;Discovery Islands;Oceanography; ;-125.08;50.03;QUADRA;HAKAI;janvier 31, 2020;will.mcinnes;janvier 31, 2020;will.mcinnes;-125.07999999999998;50.03000000000003
QU25;-125.05;50.03;20;38;South Sutil Ch.;C;Not Active;12/31/2013;4/21/2016; ;Discovery Islands;Oceanography; ;-125.05;50.03;QUADRA;HAKAI;janvier 31, 2020;will.mcinnes;janvier 31, 2020;will.mcinnes;-125.04999999999995;50.03000000000003
QU26;-125.01;50.03;75;51;South Sutil Ch.;C;Not Active;12/31/2013;4/21/2016; ;Discovery Islands;Oceanography; ;-125.01;50.03;QUADRA;HAKAI;janvier 31, 2020;will.mcinnes;janvier 31, 2020;will.mcinnes;-125.01;50.03000000000003
QU27;-125.23;50.1250000000001;12;36;Hyacinthe Bay;C;Not Active;12/31/2013;4/21/2016; ;Discovery Islands;Oceanography; ;-125.23;50.1250000000001;QUADRA;HAKAI;janvier 31, 2020;will.mcinnes;janvier 31, 2020;will.mcinnes;-125.22999999999996;50.12500000000006
QU28;-125.1374;50.2169000000001;90;89;Hoskyn Channel;D;Active;12/31/2013;; ;Discovery Islands;Oceanography; ;-125.1374;50.2169000000001;QUADRA;HAKAI;janvier 31, 2020;will.mcinnes;janvier 31, 2020;will.mcinnes;-125.13739999999996;50.21690000000007
QU29;-125.1885;50.2536000000001;140;118;Lower Okisollo;D, F;Active;12/31/2013;;CO2 sampling ended Dec 2016;Discovery Islands;Oceanography; ;-125.1885;50.2536000000001;QUADRA;HAKAI;janvier 31, 2020;will.mcinnes;janvier 31, 2020;will.mcinnes;-125.18849999999998;50.25360000000006
QU31;-125.209;50.2690000000001;90;70;Octopus Islands;D;Not Active;12/31/2013;; ;Discovery Islands;Oceanography; ;-125.209;50.2690000000001;QUADRA;HAKAI;janvier 31, 2020;will.mcinnes;janvier 31, 2020;will.mcinnes;-125.20899999999996;50.26900000000006
QU32;-125.2492;50.3119;108;106;Upper Okisollo;D;Active;12/31/2013;; ;Discovery Islands;Oceanography; ;-125.2492;50.3119;QUADRA;HAKAI;janvier 31, 2020;will.mcinnes;janvier 31, 2020;will.mcinnes;-125.24919999999996;50.31190000000004
QU33;-125.089;50.3151;340;342;Calm Channel;E;Active;12/31/2013;; ;Discovery Islands;Oceanography; ;-125.089;50.3151;QUADRA;HAKAI;janvier 31, 2020;will.mcinnes;janvier 31, 2020;will.mcinnes;-125.08899999999994;50.31510000000003
QU34;-125.1;50.1200000000001;125;162;South Sutil Ch.;A, C, E;Active;12/31/2013;; ;Discovery Islands;Oceanography; ;-125.1;50.1200000000001;QUADRA;HAKAI;janvier 31, 2020;will.mcinnes;janvier 31, 2020;will.mcinnes;-125.09999999999997;50.12000000000006
QU35;-125.02;50.241;490;491;North Sutil Ch.;E;Active;12/31/2014;; ;Discovery Islands;Oceanography; ;-125.02;50.241;QUADRA;HAKAI;janvier 31, 2020;will.mcinnes;janvier 31, 2020;will.mcinnes;-125.01999999999998;50.24100000000004
QU36;-124.996;50.1900000000001;500;551;North Sutil Ch.;E;Active;12/31/2014;; ;Discovery Islands;Oceanography; ;-124.996;50.1900000000001;QUADRA;HAKAI;janvier 31, 2020;will.mcinnes;janvier 31, 2020;will.mcinnes;-124.99599999999998;50.190000000000055
QU37;-125.052;50.1510000000001;50;332;North Sutil Ch.;E;Active;12/31/2014;; ;Discovery Islands;Oceanography; ;-125.052;50.1510000000001;QUADRA;HAKAI;janvier 31, 2020;will.mcinnes;janvier 31, 2020;will.mcinnes;-125.05199999999996;50.15100000000007
QU38;-125.2226;50.1172;10;41;Hyacinthe Bay;Raft;Active;12/31/2014;; ;Discovery Islands;Oceanography; ;-125.2226;50.1172;QUADRA;HAKAI;janvier 31, 2020;will.mcinnes;janvier 31, 2020;will.mcinnes;-125.22259999999994;50.117200000000025
QU39;-125.0992;50.0307000000001;265;262;South Sutil Ch.;A, B, C;Active;12/31/2014;;Added as Core Station March 2015, DO started Sept 2016;Discovery Islands;Oceanography; ;-125.0992;50.0307000000001;QUADRA;HAKAI;janvier 31, 2020;will.mcinnes;janvier 31, 2020;will.mcinnes;-125.09919999999994;50.03070000000008
QU40;-125.164;50.092;50;95;South Sutil Ch.;A (PP);Not Active;12/31/2014;9/20/2016;Location for Primary Production incubations;Discovery Islands;Oceanography; ;-125.164;50.092;QUADRA;HAKAI;janvier 31, 2020;will.mcinnes;janvier 31, 2020;will.mcinnes;-125.164;50.09200000000004
QU41;-125.092;50.3656;> 400;584;Bute Inlet;not assigned;Not Active;12/31/2014;;Sampled during Exploratory survey 5/11/2015;Discovery Islands;Oceanography; ;-125.092;50.3656;QUADRA;HAKAI;janvier 31, 2020;will.mcinnes;janvier 31, 2020;will.mcinnes;-125.09199999999998;50.36560000000003
QU42;-125.2111;50.2577000000001; ;49;Hoskyn Channel;QOM D;Active;2/16/2016;;Location of PP incubations for QOM D;Discovery Islands;Oceanography; ;-125.2111;50.2577000000001;QUADRA;HAKAI;janvier 31, 2020;will.mcinnes;janvier 31, 2020;will.mcinnes;-125.2111;50.25770000000006
QS1;-125.111;50.0498000000001;275;253;South Sutil Ch.;QUADS14;Not Active;12/31/2011;; ;Discovery Islands;Oceanography; ;-125.111;50.0498000000001;QUADRA;HAKAI;janvier 31, 2020;will.mcinnes;janvier 31, 2020;will.mcinnes;-125.111;50.04980000000006
QU1;-125.141;50.0790000000001; ;244;Sutil Channel; ;Not Active;;;Was QS2 from 2012;Discovery Islands;Oceanography; ;-125.141;50.0790000000001;QUADRA;HAKAI;janvier 31, 2020;will.mcinnes;janvier 31, 2020;will.mcinnes;-125.14099999999996;50.079000000000065
QU4;-125.199;50.1270000000001; ;49;Open Bay; ;Not Active;;;Need to check when stopped sampling this sampling;Discovery Islands;Oceanography; ;-125.199;50.1270000000001;QUADRA;HAKAI;janvier 31, 2020;will.mcinnes;janvier 31, 2020;will.mcinnes;-125.19899999999996;50.127000000000066
QU7;-125.231;50.126; ;35;Hyacinthe Bay; ;Not Active;;;Was QS7 - need to check when stopped sampling;Discovery Islands;Oceanography; ;-125.231;50.126;QUADRA;HAKAI;janvier 31, 2020;will.mcinnes;janvier 31, 2020;will.mcinnes;-125.231;50.12600000000003
JS1;-126.76469;50.6204000000001;145;148;Queen Charlotte Sound;Johnstone Strait;Active;12/31/2014;; ;North Johnstone Strait;Oceanography; ;-126.76469;50.6204000000001;JOHNSTONE STRAIT;HAKAI;janvier 31, 2020;will.mcinnes;janvier 31, 2020;will.mcinnes;-126.76468999999996;50.620400000000075
JS2;-126.696;50.5480000000001;345;314;Blackney Pass;Johnstone Strait;Active;12/31/2014;;Year Round Survey Station;North Johnstone Strait;Oceanography; ;-126.696;50.5480000000001;JOHNSTONE STRAIT;HAKAI;janvier 31, 2020;will.mcinnes;janvier 31, 2020;will.mcinnes;-126.69599999999996;50.54800000000006
JS3;-126.338;50.501;305;299;Johnstone Stait;Johnstone Strait;Active;12/31/2014;; ;North Johnstone Strait;Oceanography; ;-126.338;50.501;JOHNSTONE STRAIT;HAKAI;janvier 31, 2020;will.mcinnes;janvier 31, 2020;will.mcinnes;-126.33799999999997;50.50100000000003
JS4;-126.137;50.47;315;314;Johnstone Stait;Johnstone Strait;Not Active;12/31/2014;; ;North Johnstone Strait;Oceanography; ;-126.137;50.47;JOHNSTONE STRAIT;HAKAI;janvier 31, 2020;will.mcinnes;janvier 31, 2020;will.mcinnes;-126.13699999999994;50.47000000000003
JS5;-126.69857;50.5845200000001;140;146;Johnstone Stait;Johnstone Strait;Active;12/31/2014;; ;North Johnstone Strait;Oceanography; ;-126.69857;50.5845200000001;JOHNSTONE STRAIT;HAKAI;janvier 31, 2020;will.mcinnes;janvier 31, 2020;will.mcinnes;-126.69856999999996;50.584520000000055
JS6;-126.70714;50.5279600000001;390;300;Johnstone Stait;Johnstone Strait;Not Active;12/31/2014;; ;North Johnstone Strait;Oceanography; ;-126.70714;50.5279600000001;JOHNSTONE STRAIT;HAKAI;janvier 31, 2020;will.mcinnes;janvier 31, 2020;will.mcinnes;-126.70713999999998;50.527960000000064
JS7;-126.50446;50.5000000000001;385;399;Johnstone Stait;Johnstone Strait;Active;12/31/2014;; ;North Johnstone Strait;Oceanography; ;-126.50446;50.5000000000001;JOHNSTONE STRAIT;HAKAI;janvier 31, 2020;will.mcinnes;janvier 31, 2020;will.mcinnes;-126.50446;50.50000000000006
JS8;-126.338;50.5091200000001;230;251;Johnstone Stait;Johnstone Strait;Not Active;12/31/2014;; ;North Johnstone Strait;Oceanography; ;-126.338;50.5091200000001;JOHNSTONE STRAIT;HAKAI;janvier 31, 2020;will.mcinnes;janvier 31, 2020;will.mcinnes;-126.33799999999997;50.50912000000005
JS9;-126.338;50.4928800000001;365;361;Johnstone Stait;Johnstone Strait;Not Active;12/31/2014;; ;North Johnstone Strait;Oceanography; ;-126.338;50.4928800000001;JOHNSTONE STRAIT;HAKAI;janvier 31, 2020;will.mcinnes;janvier 31, 2020;will.mcinnes;-126.33799999999997;50.49288000000007
JS10;-126.338;50.4847600000001;220;240;Johnstone Stait;Johnstone Strait;Not Active;12/31/2014;; ;North Johnstone Strait;Oceanography; ;-126.338;50.4847600000001;JOHNSTONE STRAIT;HAKAI;janvier 31, 2020;will.mcinnes;janvier 31, 2020;will.mcinnes;-126.33799999999997;50.48476000000005
JS11;-126.23723;50.4863800000001;360;362;Johnstone Stait;Johnstone Strait;Not Active;12/31/2014;; ;North Johnstone Strait;Oceanography; ;-126.23723;50.4863800000001;JOHNSTONE STRAIT;HAKAI;janvier 31, 2020;will.mcinnes;janvier 31, 2020;will.mcinnes;-126.23722999999995;50.486380000000054
JS12;-126.59595;50.5110300000001;?;425;Johnstone Stait;Johnstone Strait;Active;12/31/2014;; ;North Johnstone Strait;Oceanography; ;-126.59595;50.5110300000001;JOHNSTONE STRAIT;HAKAI;janvier 31, 2020;will.mcinnes;janvier 31, 2020;will.mcinnes;-126.59594999999996;50.51103000000006
SPYDER;-128.265;51.84135; ;0; ; ; ;;; ; ; ; ;-128.265;51.84135;CALVERT;HAKAI;janvier 31, 2020;will.mcinnes;janvier 31, 2020;will.mcinnes;-128.265;51.841350000000034
MCMULLINS;-128.404;52.0579300000001; ;0; ; ; ;;; ; ; ; ;-128.404;52.0579300000001;CALVERT;HAKAI;janvier 31, 2020;will.mcinnes;janvier 31, 2020;will.mcinnes;-128.40399999999994;52.057930000000056
SIMMONDS;-128.262;51.9590000000001; ;0; ; ; ;;; ; ; ; ;-128.262;51.9590000000001;CALVERT;HAKAI;janvier 31, 2020;will.mcinnes;janvier 31, 2020;will.mcinnes;-128.26199999999994;51.95900000000006
STRYKER;-128.365;52.08358; ;0; ; ; ;;; ; ; ; ;-128.365;52.08358;CALVERT;HAKAI;janvier 31, 2020;will.mcinnes;janvier 31, 2020;will.mcinnes;-128.36499999999995;52.08358000000004
THOMPSON;-128.369;52.1497200000001; ;0; ; ; ;;; ; ; ; ;-128.369;52.1497200000001;CALVERT;HAKAI;janvier 31, 2020;will.mcinnes;janvier 31, 2020;will.mcinnes;-128.36899999999997;52.14972000000006
TRIQUET;-128.254;51.8035; ;0; ; ; ;;; ; ; ; ;-128.254;51.8035;CALVERT;HAKAI;janvier 31, 2020;will.mcinnes;janvier 31, 2020;will.mcinnes;-128.25399999999996;51.80350000000004
MEAY;-128.096;51.6645; ;0; ; ; ;;; ; ; ; ;-128.096;51.6645;CALVERT;HAKAI;janvier 31, 2020;will.mcinnes;janvier 31, 2020;will.mcinnes;-128.09599999999995;51.66450000000003
1015 OUTLET;-128.067788;51.690527; ;0; ; ;Active;;; ; ;KWP; ;-128.067788;51.690527;CALVERT;HAKAI;janvier 31, 2020;will.mcinnes;janvier 31, 2020;will.mcinnes;-128.06778799999995;51.69052700000003
844 OUTLET;-128.002068;51.6581830000001; ;0; ; ;Active;;; ;Calvert; ; ;-128.002068;51.6581830000001;CALVERT;HAKAI;janvier 31, 2020;will.mcinnes;janvier 31, 2020;will.mcinnes;-128.00206799999995;51.658183000000065
708 OUTLET;-128.068516;51.6491990000001; ;0; ; ;Active;;; ;Calvert; ; ;-128.068516;51.6491990000001;CALVERT;HAKAI;janvier 31, 2020;will.mcinnes;janvier 31, 2020;will.mcinnes;-128.068516;51.64919900000007
693 OUTLET;-127.996399;51.647923; ;0; ; ;Active;;; ;Calvert; ; ;-127.996399;51.647923;CALVERT;HAKAI;janvier 31, 2020;will.mcinnes;janvier 31, 2020;will.mcinnes;-127.99639899999994;51.64792300000005
626 OUTLET;-128.120582;51.641718; ;0; ; ;Active;;; ;Calvert; ; ;-128.120582;51.641718;CALVERT;HAKAI;janvier 31, 2020;will.mcinnes;janvier 31, 2020;will.mcinnes;-128.12058199999996;51.641718000000026
819 OUTLET;-128.042222;51.6573750000001; ;0; ; ;Active;;; ;Calvert; ; ;-128.042222;51.6573750000001;CALVERT;HAKAI;janvier 31, 2020;will.mcinnes;janvier 31, 2020;will.mcinnes;-128.04222199999998;51.65737500000006
JSPP;-126.635219998;50.5376399990001; ;0;Johnstone Strait;Johnstone Strait;Active;12/31/2014;; ;North Johnstone Strait;Oceanography; ;-126.635219998;50.5376399990001;JOHNSTONE STRAIT;HAKAI;janvier 31, 2020;will.mcinnes;janvier 31, 2020;will.mcinnes;-126.63521999799995;50.53763999900008
QU45;-125.219883305;50.117266401;20;20;Hyacinthe Bay;QRAFT; ;4/25/2016;; This is the Limpet Node;Discovery Islands;Oceanography Sensors; ;-125.219883305;50.117266401;QUADRA;HAKAI;janvier 31, 2020;will.mcinnes;janvier 31, 2020;will.mcinnes;-125.21988330499994;50.117266401000045
QU30;-125.172007254;50.2409969890001; ;0; ; ; ;;; ;Discovery Islands;Oceanography; ;-125.172007254;50.2409969890001;QUADRA;HAKAI;janvier 31, 2020;will.mcinnes;janvier 31, 2020;will.mcinnes;-125.172007254;50.24099698900005
QU43;-125.117637517;50.339210371;520;0;Calm Channel;QOM E;Active;5/2/2016;;Deep water station for CO2 and DO sampling;Discovery Islands;Oceanography; ;-125.117637517;50.339210371;QUADRA;HAKAI;janvier 31, 2020;will.mcinnes;janvier 31, 2020;will.mcinnes;-125.117637517;50.33921037100003
Sentry Shoal;-124.985;49.906666666;15;0;Northern Strait of Georgia; ;Active;7/4/2016;;Environment Canada weather station, location of Hakai SeaFET pH sensor;Discovery Islands;Oceanography Sensors; ;-124.985;49.906666666;QUADRA;HAKAI;janvier 31, 2020;will.mcinnes;janvier 31, 2020;will.mcinnes;-124.98499999999996;49.906666666000035
DI18;-125.293333;50.1000000000001;70;0; ;QOM F;Active;;; ;Discovery Islands;Oceanography; ;-125.293333;50.1000000000001;QUADRA;HAKAI;janvier 31, 2020;will.mcinnes;janvier 31, 2020;will.mcinnes;-125.29333299999996;50.10000000000008
DI24;-125.400802498;50.2818844250001; ;0; ;QOM F;Active;6/13/2016;; ;Discovery Islands;Oceanography; ;-125.400802498;50.2818844250001;QUADRA;HAKAI;janvier 31, 2020;will.mcinnes;janvier 31, 2020;will.mcinnes;-125.40080249799996;50.28188442500005
RVRS02;-127.717988977;51.4302613250001;;152;;Rivers Inlet V1;Active;7/26/2016;;;Central Coast;Oceanography;;-127.717988977125;51.430261325016;CALVERT;HAKAI;janvier 31, 2020;will.mcinnes;février 13, 2020;will.mcinnes;-127.71798897699996;51.43026132500006
QU44;-125.1231615;50.0740327;240;260;;QOM F;Active;;;aka SutChan2;Discovery Islands;Oceanography;;-125.1231615;50.0740327;QUADRA;HAKAI;janvier 31, 2020;will.mcinnes;février 13, 2020;will.mcinnes;-125.12316149999998;50.07403270000003
DI19;-125.367;50.1972000000001;200;201;;QOM F;Active;;;;Discovery Islands;Oceanography;;-125.367;50.1972000000001;QUADRA;HAKAI;janvier 31, 2020;will.mcinnes;février 13, 2020;will.mcinnes;-125.36699999999996;50.197200000000066
DI20;-125.38489;50.2614904000001;247;245;;QOM F;Active;;;aka DFO23;Discovery Islands;Oceanography;;-125.38489;50.2614904000001;QUADRA;HAKAI;janvier 31, 2020;will.mcinnes;février 13, 2020;will.mcinnes;-125.38488999999998;50.26149040000007
DI21;-125.3306;50.2946855000001;109;105;;QOM F;Active;;;aka OkChan;Discovery Islands;Oceanography;;-125.3306;50.2946855000001;QUADRA;HAKAI;janvier 31, 2020;will.mcinnes;février 13, 2020;will.mcinnes;-125.33059999999996;50.29468550000007
SEA5;-128.4247;52.0018000000001;;0;;MarineGEO;Active;;;;Central Coast;MarineGEO;;-128.4247;52.0018000000001;CALVERT;HAKAI;janvier 31, 2020;will.mcinnes;février 13, 2020;will.mcinnes;-128.42469999999997;52.00180000000006
SEA6;-128.4501;51.9275000000001;;0;;MarineGEO;Active;;;;Central Coast;MarineGEO;;-128.4501;51.9275000000001;CALVERT;HAKAI;janvier 31, 2020;will.mcinnes;février 13, 2020;will.mcinnes;-128.45009999999996;51.927500000000066
SEA7;-128.4645;51.9222;;2;;MarineGEO;Active;;;;Central Coast;MarineGEO;;-128.4645;51.9222;CALVERT;HAKAI;janvier 31, 2020;will.mcinnes;février 13, 2020;will.mcinnes;-128.4645;51.92220000000003
SEA8;-128.4119;52.0626;;3;;MarineGEO;Active;;;;Central Coast;MarineGEO;;-128.4119;52.0626;CALVERT;HAKAI;janvier 31, 2020;will.mcinnes;février 13, 2020;will.mcinnes;-128.41189999999995;52.06260000000003
SEA9;-128.4029;52.0506;;6;;MarineGEO;Active;;;;Central Coast;MarineGEO;;-128.4029;52.0506;CALVERT;HAKAI;janvier 31, 2020;will.mcinnes;février 13, 2020;will.mcinnes;-128.4029;52.05060000000003
SEA11;-128.2476;51.8091000000001;;0;;MarineGEO;Active;;;;Central Coast;MarineGEO;;-128.2476;51.8091000000001;CALVERT;HAKAI;janvier 31, 2020;will.mcinnes;février 13, 2020;will.mcinnes;-128.24759999999998;51.80910000000006
MG1;-128.41;52.0700000000001;;18;;MarineGEO;Active;;;;Central Coast;MarineGEO;;-128.41;52.0700000000001;CALVERT;HAKAI;janvier 31, 2020;will.mcinnes;février 13, 2020;will.mcinnes;-128.40999999999997;52.07000000000005
MG2;-128.3;52.02;;36;;MarineGEO;Active;;;;Central Coast;MarineGEO;;-128.3;52.02;CALVERT;HAKAI;janvier 31, 2020;will.mcinnes;février 13, 2020;will.mcinnes;-128.29999999999995;52.02000000000004
MG3;-128;51.7300000000001;;;;MarineGEO;Active;;;;Central Coast;MarineGEO;;-128;51.7300000000001;CALVERT;HAKAI;janvier 31, 2020;will.mcinnes;février 13, 2020;will.mcinnes;-127.99999999999994;51.730000000000075
MG4;-128.07;51.7400000000001;;56;;MarineGEO;Active;;;;Central Coast;MarineGEO;;-128.07;51.7400000000001;CALVERT;HAKAI;janvier 31, 2020;will.mcinnes;février 13, 2020;will.mcinnes;-128.07;51.740000000000066
Manley Pt.;-128.1996;51.80103;;;;MarineGEO;Active;;;;Central Coast;MarineGEO;;-128.1996;51.80103;CALVERT;HAKAI;janvier 31, 2020;will.mcinnes;février 13, 2020;will.mcinnes;-128.19959999999998;51.801030000000026
SEA2;-128.118;51.6746000000001;;0;;Queen Charlotte Sound V2;Active;;;;Central Coast;MarineGEO;;-128.118;51.6746000000001;CALVERT;HAKAI;janvier 31, 2020;will.mcinnes;février 13, 2020;will.mcinnes;-128.118;51.674600000000055
WR1;-127.23437;51.67904;;;;;Inactive;9/9/2016;;Wannock River in Rivers Inlet  UTM: 9 U 622072 5726817;Central Coast;;;-127.23437;51.67904;CALVERT;HAKAI;janvier 31, 2020;will.mcinnes;février 13, 2020;will.mcinnes;-127.23436999999996;51.67904000000004
QU46;-125.1749667;50.09745;55;71;Northern Strait Of Georgia;QOM A.2;Active;9/20/2016;;"Formerly known as ""PP drop"" and ""QUPP""";Discovery Islands/Quadra;Oceanography;;-125.1749667;50.09745;QUADRA;HAKAI;janvier 31, 2020;will.mcinnes;février 13, 2020;will.mcinnes;-125.17496669999996;50.09745000000004
SC10;-128.04146;51.6596000000001;;;;;;10/22/2016;;Subcatchment sampling location;;;;-128.04146;51.6596;CALVERT;HAKAI;janvier 31, 2020;will.mcinnes;février 13, 2020;will.mcinnes;-128.04145999999997;51.65960000000007
ECP01;-128.069224;51.647074;;;;ECP;;7/17/2013;;;;KWP;;-128.069224;51.647074;CALVERT;HAKAI;janvier 31, 2020;will.mcinnes;février 13, 2020;will.mcinnes;-128.06922399999996;51.64707400000003
ECP02;-128.06456;51.6467240000001;;;;ECP;;7/17/2013;;;;KWP;;-128.06456;51.6467240000001;CALVERT;HAKAI;janvier 31, 2020;will.mcinnes;février 13, 2020;will.mcinnes;-128.06455999999997;51.64672400000006
ECP03;-128.040436;51.6663040000001;;;;ECP;;7/18/2013;;;;KWP;;-128.040436;51.6663040000001;CALVERT;HAKAI;janvier 31, 2020;will.mcinnes;février 13, 2020;will.mcinnes;-128.04043599999994;51.66630400000008
ECP04;-128.041509;51.6604;;;;ECP;;9/10/2013;;;;KWP;;-128.041509;51.6604;CALVERT;HAKAI;janvier 31, 2020;will.mcinnes;février 13, 2020;will.mcinnes;-128.04150899999996;51.66040000000004
ECP05;-127.990747;51.6421720000001;;;;ECP;;7/19/2013;;;;KWP;;-127.990747;51.6421720000001;CALVERT;HAKAI;janvier 31, 2020;will.mcinnes;février 13, 2020;will.mcinnes;-127.99074699999994;51.64217200000007
ECP06;-127.992834;51.6408260000001;;;;ECP;;7/19/2013;;;;KWP;;-127.992834;51.6408260000001;CALVERT;HAKAI;janvier 31, 2020;will.mcinnes;février 13, 2020;will.mcinnes;-127.99283399999996;51.64082600000006
ECP07;-128.039157;51.679284;;;;ECP;;7/20/2013;;;;KWP;;-128.039157;51.679284;CALVERT;HAKAI;janvier 31, 2020;will.mcinnes;février 13, 2020;will.mcinnes;-128.039157;51.679284000000045
ECP08;-128.096622;51.6346330000001;;;;ECP;;7/20/2013;;;;KWP;;-128.096622;51.6346330000001;CALVERT;HAKAI;janvier 31, 2020;will.mcinnes;février 13, 2020;will.mcinnes;-128.09662199999997;51.634633000000065
ECP09;-128.061291;51.642549;;;;ECP;;7/21/2013;;;;KWP;;-128.061291;51.642549;CALVERT;HAKAI;janvier 31, 2020;will.mcinnes;février 13, 2020;will.mcinnes;-128.06129099999998;51.64254900000003
ECP10;-128.058904;51.6429200000001;;;;ECP;;7/21/2013;;;;KWP;;-128.058904;51.6429200000001;CALVERT;HAKAI;janvier 31, 2020;will.mcinnes;février 13, 2020;will.mcinnes;-128.05890399999998;51.64292000000006
ECP11;-128.129337;51.6525;;;;ECP;;7/22/2013;;;;KWP;;-128.129337;51.6525;CALVERT;HAKAI;janvier 31, 2020;will.mcinnes;février 13, 2020;will.mcinnes;-128.12933699999996;51.65250000000003
ECP12;-128.038843;51.6640650000001;;;;ECP;;9/10/2013;;;;KWP;;-128.038843;51.6640650000001;CALVERT;HAKAI;janvier 31, 2020;will.mcinnes;février 13, 2020;will.mcinnes;-128.038843;51.66406500000005
ECP13;-128.038265;51.6640600000001;;;;ECP;;6/12/2014;;;;KWP;;-128.038265;51.6640600000001;CALVERT;HAKAI;janvier 31, 2020;will.mcinnes;février 13, 2020;will.mcinnes;-128.03826499999997;51.66406000000006
ECP14;-128.041852;51.657649;;;;ECP;;9/4/2013;;;;KWP;;-128.041852;51.657649;CALVERT;HAKAI;janvier 31, 2020;will.mcinnes;février 13, 2020;will.mcinnes;-128.04185199999995;51.65764900000005
ECP15;-128.119943;51.6407130000001;;;;ECP;;9/4/2013;;;;KWP;;-128.119943;51.6407130000001;CALVERT;HAKAI;janvier 31, 2020;will.mcinnes;février 13, 2020;will.mcinnes;-128.11994299999998;51.64071300000006
ECP16;-128.11833;51.6399250000001;;;;ECP;;9/5/2013;;;;KWP;;-128.11833;51.6399250000001;CALVERT;HAKAI;janvier 31, 2020;will.mcinnes;février 13, 2020;will.mcinnes;-128.11832999999996;51.63992500000006
ECP17;-128.11669;51.6399650000001;;;;ECP;;9/6/2013;;;;KWP;;-128.11669;51.6399650000001;CALVERT;HAKAI;janvier 31, 2020;will.mcinnes;février 13, 2020;will.mcinnes;-128.11668999999995;51.639965000000075
ECP18;-128.117752;51.638064;;;;ECP;;9/6/2013;;;;KWP;;-128.117752;51.638064;CALVERT;HAKAI;janvier 31, 2020;will.mcinnes;février 13, 2020;will.mcinnes;-128.117752;51.63806400000004
ECP19;-128.12979;51.6522840000001;;;;ECP;;9/11/2013;;;;KWP;;-128.12979;51.6522840000001;CALVERT;HAKAI;janvier 31, 2020;will.mcinnes;février 13, 2020;will.mcinnes;-128.12978999999996;51.652284000000066
ECP20;-128.128806;51.6514940000001;;;;ECP;;7/8/2014;;;;KWP;;-128.128806;51.6514940000001;CALVERT;HAKAI;janvier 31, 2020;will.mcinnes;février 13, 2020;will.mcinnes;-128.12880599999994;51.65149400000007
ECP21;-128.130376;51.653424;;;;ECP;;7/11/2014;;;;KWP;;-128.130376;51.653424;CALVERT;HAKAI;janvier 31, 2020;will.mcinnes;février 13, 2020;will.mcinnes;-128.13037599999996;51.65342400000003
ECP22;-128.037359;51.6662140000001;;;;ECP;;7/9/2014;;;;KWP;;-128.037359;51.6662140000001;CALVERT;HAKAI;janvier 31, 2020;will.mcinnes;février 13, 2020;will.mcinnes;-128.03735899999998;51.66621400000008
ECP23;-128.041448;51.6610410000001;;;;ECP;;7/9/2014;;;;KWP;;-128.041448;51.6610410000001;CALVERT;HAKAI;janvier 31, 2020;will.mcinnes;février 13, 2020;will.mcinnes;-128.04144799999997;51.66104100000006
ECP24;-128.04209;51.6620740000001;;;;ECP;;8/28/2015;;;;KWP;;-128.04209;51.6620740000001;CALVERT;HAKAI;janvier 31, 2020;will.mcinnes;février 13, 2020;will.mcinnes;-128.04208999999997;51.662074000000075
ECP25;-128.064061;51.6448290000001;;;;ECP;;7/10/2014;;;;KWP;;-128.064061;51.6448290000001;CALVERT;HAKAI;janvier 31, 2020;will.mcinnes;février 13, 2020;will.mcinnes;-128.06406099999998;51.64482900000007
ECP26;-128.064181;51.6479360000001;;;;ECP;;7/10/2014;;;;KWP;;-128.064181;51.6479360000001;CALVERT;HAKAI;janvier 31, 2020;will.mcinnes;février 13, 2020;will.mcinnes;-128.06418099999996;51.64793600000007
ECP27;-128.113705;51.638721;;;;ECP;;7/12/2014;;;;KWP;;-128.113705;51.638721;CALVERT;HAKAI;janvier 31, 2020;will.mcinnes;février 13, 2020;will.mcinnes;-128.11370499999998;51.63872100000003
ECP28;-128.115299;51.6414070000001;;;;ECP;;7/12/2014;;;;KWP;;-128.115299;51.6414070000001;CALVERT;HAKAI;janvier 31, 2020;will.mcinnes;février 13, 2020;will.mcinnes;-128.115299;51.64140700000007
ECP29;-128.122358;51.6410240000001;;;;ECP;;7/27/2015;;;;KWP;;-128.122358;51.6410240000001;CALVERT;HAKAI;janvier 31, 2020;will.mcinnes;février 13, 2020;will.mcinnes;-128.12235799999996;51.64102400000007
ECP30;-128.022838;51.643384;;;;ECP;;9/18/2015;;;;KWP;;-128.022838;51.643384;CALVERT;HAKAI;janvier 31, 2020;will.mcinnes;février 13, 2020;will.mcinnes;-128.02283799999998;51.643384000000026
BS1;-124.866666667;49.6083333330001;;37;Baynes Sound;;;7/26/2016;10/17/2016;Pacific Salmon Foundation's Citizen Science Program, pCO2, TCO2 , Salinity, PSF CTD;;Ocean Acidification;;-124.866666666667;49.6083333333333;QUADRA;HAKAI;janvier 31, 2020;will.mcinnes;février 13, 2020;will.mcinnes;-124.86666666699996;49.60833333300008
BS3;-124.666666667;49.6916666670001;;229;Baynes Sound;;;7/26/2016;10/17/2016;Pacific Salmon Foundation's Citizen Science Program pCO2, TCO2, salinity, PSF CTD;;Ocean Acidification;;-124.666666666667;49.6916666666667;QUADRA;HAKAI;janvier 31, 2020;will.mcinnes;juillet 21, 2020;will.mcinnes;-124.66666666699996;49.69166666700005
BS6;-124.60499976;49.4850006840001;;71;Baynes Sound;;;7/26/2016;10/17/2016;Pacific Salmon Foundation's Citizen Science Program pCO2, TCO2, salinity, PSF CTD;;Ocean Acidification;;-124.604999760082;49.485000684485;QUADRA;HAKAI;janvier 31, 2020;will.mcinnes;juillet 21, 2020;will.mcinnes;-124.60499975999994;49.485000684000056
BS7;-124.766668;49.483331257;;62;Baynes Sound;;;7/26/2016;10/17/2016;Pacific Salmon Foundation's Citizen Science Program pCO2, TCO2, salinity, PSF CTD;;Ocean Acidification;;-124.766668;49.4833312574513;QUADRA;HAKAI;janvier 31, 2020;will.mcinnes;juillet 21, 2020;will.mcinnes;-124.76666799999998;49.48333125700003
LD1;-124.821666696;49.996666121;;122;Lund;;;8/9/2016;10/17/2016;Pacific Salmon Foundation's Citizen Science Program oCO2, TCO2, salinity, PSF CTD;;Ocean Acidification;;-124.82166669585;49.9966661211162;QUADRA;HAKAI;janvier 31, 2020;will.mcinnes;février 13, 2020;will.mcinnes;-124.82166669599997;49.99666612100003
LD2;-124.856666659;49.9633332160001;;165;Lund;;;8/9/2016;10/17/2016;Pacific Salmon Foundation's Citizen Science Program oCO2, TCO2, salinity, PSF CTD;;Ocean Acidification;;-124.856666658896;49.9633332156757;QUADRA;HAKAI;janvier 31, 2020;will.mcinnes;février 13, 2020;will.mcinnes;-124.85666665899998;49.96333321600008
LD3;-124.881666659;50.019999785;;273;Lund;;;8/9/2016;10/17/2016;Pacific Salmon Foundation's Citizen Science Program oCO2, TCO2, salinity, PSF CTD;;Ocean Acidification;;-124.881666658896;50.0199997845783;QUADRA;HAKAI;janvier 31, 2020;will.mcinnes;février 13, 2020;will.mcinnes;-124.88166665899996;50.01999978500004
PR6;-125.026666667;49.8600000000001;;129;Powell River;;;8/9/2016;10/17/2016;Pacific Salmon Foundation's Citizen Science Program oCO2, TCO2, salinity, PSF CTD;;Ocean Acidification;;-125.026666666667;49.86;QUADRA;HAKAI;janvier 31, 2020;will.mcinnes;février 13, 2020;will.mcinnes;-125.02666666699996;49.86000000000007
PR7;-124.988333361;49.904999928;;20;Powell River;;;8/9/2016;10/17/2016;Pacific Salmon Foundation's Citizen Science Program oCO2, TCO2, salinity, PSF CTD;;Ocean Acidification;;-124.98833336114;49.904999928144;QUADRA;HAKAI;janvier 31, 2020;will.mcinnes;février 13, 2020;will.mcinnes;-124.98833336099996;49.904999928000045
PR8;-124.92;49.9216666670001;;240;Powell River;;;8/9/2016;10/17/2016;Pacific Salmon Foundation's Citizen Science Program oCO2, TCO2, salinity, PSF CTD;;Ocean Acidification;;-124.92;49.9216666666667;QUADRA;HAKAI;janvier 31, 2020;will.mcinnes;février 13, 2020;will.mcinnes;-124.91999999999996;49.92166666700006
HAK1;-128.2313;51.7112000000001;;140;;;Active;7/6/2016;;DFO mooring deployed July 6, 2016;Central Coast;Oceanography Sensors;;-128.2313;51.7112;CALVERT;HAKAI;janvier 31, 2020;will.mcinnes;février 13, 2020;will.mcinnes;-128.23129999999998;51.71120000000008
KC10 BUOY;-127.967334159;51.6497606960001;283.4;284;;;;;;Proposed location as of October 2017;;Oceanography Sensors;;-127.95192755;51.6533818980001;CALVERT;HAKAI;janvier 31, 2020;will.mcinnes;février 13, 2020;will.mcinnes;-127.96733415899996;51.64976069600005
BU1;-125.08;50.3700000000001;604;605;Bute Inlet;;;;;Pacific Salmon Foundation's Citizen Science Program pCO2, TCO2, salinity, PSF CTD;;Oceanography;;-125.08;50.37;QUADRA;HAKAI;janvier 31, 2020;will.mcinnes;juillet 21, 2020;will.mcinnes;-125.07999999999998;50.37000000000006
BU2;-125.0767;50.4683000000001;658;650;Bute Inlet;;;;;DFO + Achiever 2019;;Oceanography;;-125.0767;50.4683;QUADRA;HAKAI;janvier 31, 2020;will.mcinnes;février 13, 2020;will.mcinnes;-125.07669999999996;50.468300000000056
BU3;-124.9667;50.5283000000001;658;648;Bute Inlet;;;;;DFO + Achiever 2019;;Oceanography;;-124.9667;50.5283;QUADRA;HAKAI;janvier 31, 2020;will.mcinnes;février 13, 2020;will.mcinnes;-124.96669999999996;50.52830000000006
BU4;-124.9033;50.5883000000001;640;638;Bute Inlet;;;;;DFO + Achiever 2019;;Oceanography;;-124.9033;50.5883;QUADRA;HAKAI;janvier 31, 2020;will.mcinnes;février 13, 2020;will.mcinnes;-124.90329999999994;50.58830000000006
BU5;-124.888827095;50.6776914120001;567;566;Bute Inlet;;;;;DFO + Achiever 2019;;Oceanography;;-124.888827094725;50.6776914117072;QUADRA;HAKAI;janvier 31, 2020;will.mcinnes;février 13, 2020;will.mcinnes;-124.88882709499995;50.67769141200006
BU6;-124.9;50.755;485;473;Bute Inlet;;;;;DFO + Achiever 2019;;Oceanography;;-124.9;50.755;QUADRA;HAKAI;janvier 31, 2020;will.mcinnes;février 13, 2020;will.mcinnes;-124.89999999999998;50.755000000000045
BU7;-124.8917;50.83;366;353;Bute Inlet;;;;;DFO + Achiever 2019;;Oceanography;;-124.8917;50.83;QUADRA;HAKAI;janvier 31, 2020;will.mcinnes;février 13, 2020;will.mcinnes;-124.89169999999996;50.83000000000004
BU8;-124.8467;50.8883000000001;256;265;Bute Inlet;;;;;DFO + Achiever 2019;;Oceanography;;-124.8467;50.8883;QUADRA;HAKAI;janvier 31, 2020;will.mcinnes;février 13, 2020;will.mcinnes;-124.84669999999994;50.88830000000007
DI25;-125.2656;50.3207;;70;Barnes Bay;QOMF;Active;5/12/2017;;;Discovery Islands;Oceanography;;-125.2656;50.3207;QUADRA;HAKAI;janvier 31, 2020;will.mcinnes;février 13, 2020;will.mcinnes;-125.26559999999996;50.320700000000045
D02;-124.8509;50.0790200000001;;;;SEMSP;Not Active;;;;Discovery Islands;SEMSP;;-124.8509;50.0790200000001;QUADRA;HAKAI;janvier 31, 2020;will.mcinnes;février 13, 2020;will.mcinnes;-124.85089999999995;50.07902000000007
D04;-125.147117;49.9964450000001; ;0; ;SEMSP;Not Active;;; ;Discovery Islands;SEMSP; ;-125.147117;49.9964450000001;QUADRA;HAKAI;janvier 31, 2020;will.mcinnes;janvier 31, 2020;will.mcinnes;-125.14711699999998;49.99644500000005
D07;-125.143142;50.190769; ;0; ;SEMSP;Not Active;;; ;Discovery Islands;SEMSP; ;-125.143142;50.190769;QUADRA;HAKAI;janvier 31, 2020;will.mcinnes;janvier 31, 2020;will.mcinnes;-125.14314199999995;50.190769000000046
D08;-125.040963;50.319983; ;0; ;SEMSP;Not Active;;; ;Discovery Islands;SEMSP; ;-125.040963;50.319983;QUADRA;HAKAI;janvier 31, 2020;will.mcinnes;janvier 31, 2020;will.mcinnes;-125.04096299999998;50.31998300000003
D09;-125.329834;50.3072760000001; ;0;Okisollo Channel;SEMSP;Active;;; ;Discovery Islands;SEMSP; ;-125.329834;50.3072760000001;QUADRA;HAKAI;janvier 31, 2020;will.mcinnes;janvier 31, 2020;will.mcinnes;-125.32983399999996;50.30727600000006
D11;-125.455652;50.348145; ;0; ;SEMSP;Not Active;;; ;Discovery Islands;SEMSP; ;-125.455652;50.348145;QUADRA;HAKAI;janvier 31, 2020;will.mcinnes;janvier 31, 2020;will.mcinnes;-125.455652;50.348145000000045
D20;-125.364704;50.4621220000001; ;0; ;SEMSP;Not Active;;; ;Discovery Islands;SEMSP; ;-125.364704;50.4621220000001;QUADRA;HAKAI;janvier 31, 2020;will.mcinnes;janvier 31, 2020;will.mcinnes;-125.36470399999996;50.46212200000008
D21;-125.372675;50.3909370000001; ;0; ;SEMSP;Not Active;;; ;Discovery Islands;SEMSP; ;-125.372675;50.3909370000001;QUADRA;HAKAI;janvier 31, 2020;will.mcinnes;janvier 31, 2020;will.mcinnes;-125.37267499999996;50.390937000000065
D22;-125.397371;50.2440690000001; ;0;McMullen Point;SEMSP;Active;;; ;Discovery Islands;SEMSP; ;-125.397371;50.2440690000001;QUADRA;HAKAI;janvier 31, 2020;will.mcinnes;janvier 31, 2020;will.mcinnes;-125.39737099999996;50.24406900000008
D24;-125.117914;50.2380610000001; ;0; ;SEMSP;Not Active;;; ;Discovery Islands;SEMSP; ;-125.117914;50.2380610000001;QUADRA;HAKAI;janvier 31, 2020;will.mcinnes;janvier 31, 2020;will.mcinnes;-125.11791399999998;50.23806100000007
D25;-124.916635;50.0224650000001; ;0; ;SEMSP;Not Active;;; ;Discovery Islands;SEMSP; ;-124.916635;50.0224650000001;QUADRA;HAKAI;janvier 31, 2020;will.mcinnes;janvier 31, 2020;will.mcinnes;-124.916635;50.02246500000006
D26;-125.164744;49.9170570000001; ;0; ;SEMSP;Not Active;;; ;Discovery Islands;SEMSP; ;-125.164744;49.9170570000001;QUADRA;HAKAI;janvier 31, 2020;will.mcinnes;janvier 31, 2020;will.mcinnes;-125.16474399999998;49.91705700000006
D27;-125.377946;50.2744760000001; ;0;Granite Point;SEMSP;Active;;; ;Discovery Islands;SEMSP; ;-125.377946;50.2744760000001;QUADRA;HAKAI;janvier 31, 2020;will.mcinnes;janvier 31, 2020;will.mcinnes;-125.37794599999997;50.27447600000005
D28;-125.613237;50.3899200000001; ;0; ;SEMSP;Not Active;;; ;Discovery Islands;SEMSP; ;-125.613237;50.3899200000001;QUADRA;HAKAI;janvier 31, 2020;will.mcinnes;janvier 31, 2020;will.mcinnes;-125.61323699999996;50.389920000000075
D01;-124.747;49.9613000000001;;82;;SEMSP;Not Active;;;;Discovery Islands;SEMSP;;-124.747;49.9613000000001;QUADRA;HAKAI;janvier 31, 2020;will.mcinnes;février 13, 2020;will.mcinnes;-124.74699999999996;49.96130000000005
D03;-125.075117;50.11841667;;48;;SEMSP;Not Active;;;;Discovery Islands;SEMSP;;-125.075117;50.11841667;QUADRA;HAKAI;janvier 31, 2020;will.mcinnes;février 13, 2020;will.mcinnes;-125.07511699999998;50.118416670000045
D05;-124.8888;50.1659000000001;;122;;SEMSP;Not Active;;;;Discovery Islands;SEMSP;;-124.8888;50.1659000000001;QUADRA;HAKAI;janvier 31, 2020;will.mcinnes;février 13, 2020;will.mcinnes;-124.88879999999996;50.16590000000008
D06;-125.272652;50.100153;;36;;SEMSP;Not Active;;;;Discovery Islands;SEMSP;;-125.272652;50.100153;QUADRA;HAKAI;janvier 31, 2020;will.mcinnes;février 13, 2020;will.mcinnes;-125.272652;50.100153000000034
D10;-125.279;50.44365;;109;Hall Point;SEMSP;Active;;;;Discovery Islands;SEMSP;;-125.279;50.44365;QUADRA;HAKAI;janvier 31, 2020;will.mcinnes;février 13, 2020;will.mcinnes;-125.27899999999994;50.44365000000005
D12;-125.210626;50.1168860000001;;50;;SEMSP;Not Active;;;;Discovery Islands;SEMSP;;-125.210626;50.1168860000001;QUADRA;HAKAI;janvier 31, 2020;will.mcinnes;février 13, 2020;will.mcinnes;-125.210626;50.11688600000008
J01;-126.721845;50.578487;;5;;SEMSP;Not Active;;;;Johnstone Strait;SEMSP;;-126.721845;50.578487;JOHNSTONE STRAIT;HAKAI;janvier 31, 2020;will.mcinnes;février 13, 2020;will.mcinnes;-126.72184499999996;50.578487000000045
J02;-126.703364;50.599433;;44;;SEMSP;Active;;;;Johnstone Strait;SEMSP;;-126.703364;50.599433;JOHNSTONE STRAIT;HAKAI;janvier 31, 2020;will.mcinnes;février 13, 2020;will.mcinnes;-126.70336399999997;50.59943300000003
J03;-126.671869;50.5469360000001;;60;;SEMSP;Active;;;;Johnstone Strait;SEMSP;;-126.671869;50.5469360000001;JOHNSTONE STRAIT;HAKAI;janvier 31, 2020;will.mcinnes;février 13, 2020;will.mcinnes;-126.67186899999996;50.54693600000007
J04;-126.38762;50.526352;;6;;SEMSP;Not Active;;;;Johnstone Strait;SEMSP;;-126.38762;50.526352;JOHNSTONE STRAIT;HAKAI;janvier 31, 2020;will.mcinnes;février 13, 2020;will.mcinnes;-126.38761999999996;50.52635200000003
J05;-126.212568;50.4987350000001;;0;;SEMSP;Not Active;;;;Johnstone Strait;SEMSP;;-126.212568;50.4987350000001;JOHNSTONE STRAIT;HAKAI;janvier 31, 2020;will.mcinnes;février 13, 2020;will.mcinnes;-126.21256799999998;50.49873500000007
J06;-126.033922;50.475081;;5;;SEMSP;Not Active;;;;Johnstone Strait;SEMSP;;-126.033922;50.475081;JOHNSTONE STRAIT;HAKAI;janvier 31, 2020;will.mcinnes;février 13, 2020;will.mcinnes;-126.03392199999996;50.475081000000046
J07;-126.165533;50.457325;;36;;SEMSP;Not Active;;;;Johnstone Strait;SEMSP;;-126.165533;50.457325;JOHNSTONE STRAIT;HAKAI;janvier 31, 2020;will.mcinnes;février 13, 2020;will.mcinnes;-126.16553299999998;50.457325000000026
J08;-126.409614;50.480604;;;;SEMSP;Not Active;;;;Johnstone Strait;SEMSP;;-126.409614;50.480604;JOHNSTONE STRAIT;HAKAI;janvier 31, 2020;will.mcinnes;février 13, 2020;will.mcinnes;-126.40961399999998;50.480604000000035
J09;-126.814611;50.5440110000001;;0;;SEMSP;Active;;;;Johnstone Strait;SEMSP;;-126.814611;50.5440110000001;JOHNSTONE STRAIT;HAKAI;janvier 31, 2020;will.mcinnes;février 13, 2020;will.mcinnes;-126.81461099999996;50.54401100000007
J10;-126.734633;50.5580340000001;;85;;SEMSP;Not Active;;;;Johnstone Strait;SEMSP;;-126.734633;50.5580340000001;JOHNSTONE STRAIT;HAKAI;janvier 31, 2020;will.mcinnes;février 13, 2020;will.mcinnes;-126.73463299999996;50.55803400000008
J11;-126.777119;50.5390580000001;;;;SEMSP;Active;;;;Johnstone Strait;SEMSP;;-126.777119;50.5390580000001;JOHNSTONE STRAIT;HAKAI;janvier 31, 2020;will.mcinnes;février 13, 2020;will.mcinnes;-126.77711899999996;50.53905800000006
J12;-126.727619;50.5264060000001;;;;SEMSP;Not Active;;;;Johnstone Strait;SEMSP;;-126.727619;50.5264060000001;JOHNSTONE STRAIT;HAKAI;janvier 31, 2020;will.mcinnes;février 13, 2020;will.mcinnes;-126.72761899999996;50.526406000000065
J13;-126.63191;50.53779;;44;;SEMSP;Not Active;;;;Johnstone Strait;SEMSP;;-126.63191;50.53779;JOHNSTONE STRAIT;HAKAI;janvier 31, 2020;will.mcinnes;février 13, 2020;will.mcinnes;-126.63190999999996;50.53779000000003
PRUTHMOORING;-128.091290222;51.6564030740001;69.7;49;Pruth Bay;;;12/2/2017;;Thermistor mooring;;Oceanography Sensors;;;;CALVERT;HAKAI;janvier 31, 2020;will.mcinnes;février 13, 2020;will.mcinnes;-128.09129022199994;51.65640307400008
VIKINGBUOY;-128.238713131;51.565545215;;122;;;;;;Proposed future location of DFO Viking Buoy;;Oceanography Sensors;;;;CALVERT;HAKAI;janvier 31, 2020;will.mcinnes;février 13, 2020;will.mcinnes;-128.23871313099994;51.56554521500004
KELP09;-128.14035;51.6671170000001;;10;North Beach;Nearshore;;;;;Central Coast;Oceanography;;;;CALVERT;HAKAI;janvier 31, 2020;will.mcinnes;février 13, 2020;will.mcinnes;-128.14034999999996;51.66711700000008
KELP10;-128.1999243;51.80123044;;;Manley;Nearshore;;;;;Central Coast;Oceanography;;;;CALVERT;HAKAI;janvier 31, 2020;will.mcinnes;février 13, 2020;will.mcinnes;-128.19992429999996;51.80123044000004
MACRO11;-128.200317;51.802333;;;Womanley;Nearshore;;;;;Central Coast;Oceanography;;;;CALVERT;HAKAI;janvier 31, 2020;will.mcinnes;février 13, 2020;will.mcinnes;-128.20031699999998;51.80233300000003
KELP08;-128.155367;51.6494670000001;;6;Second;Nearshore;;;;;Central Coast;Oceanography;;;;CALVERT;HAKAI;janvier 31, 2020;will.mcinnes;février 13, 2020;will.mcinnes;-128.15536699999996;51.64946700000007
MACRO10;-128.151826484;51.649107535;;10;West Beach;Nearshore;;;;;Central Coast;Oceanography;;;;CALVERT;HAKAI;janvier 31, 2020;will.mcinnes;février 13, 2020;will.mcinnes;-128.15182648399997;51.64910753500004
SEA15;-128.1192523;51.6453213200001;;;Pruth Bay;Nearshore;;;;;Central Coast;Oceanography;;;;CALVERT;HAKAI;janvier 31, 2020;will.mcinnes;février 13, 2020;will.mcinnes;-128.11925229999997;51.64532132000005
NAVik;-124.71778;49.7011111;;290;Strait of Georgia;;;;;Proposed North Ajax buoy;;Oceanography Sensors;;;;QUADRA;HAKAI;janvier 31, 2020;will.mcinnes;juillet 21, 2020;will.mcinnes;-124.71777999999996;49.70111110000005
WHVik;-128.235917;51.7119530000001;;140;;;;;;Proposed West Hakai buoy;Central Coast;Oceanography Sensors;;;;CALVERT;HAKAI;janvier 31, 2020;will.mcinnes;février 13, 2020;will.mcinnes;-128.23591699999997;51.71195300000005
20612 Outlet;-127.768549;51.36580122;;;;FGS_R;;;;;Calvert;KWP;;-127.7680586;51.36568455;CALVERT;HAKAI;janvier 31, 2020;will.mcinnes;février 13, 2020;will.mcinnes;-127.76854899999996;51.36580122000004
20613 Outlet;-127.7573;51.3687;;;;FGS_R;;;;;Calvert;KWP;;0;0;CALVERT;HAKAI;janvier 31, 2020;will.mcinnes;février 13, 2020;will.mcinnes;-127.7573;51.36870000000005
20615 Outlet;-127.7449311;51.37650532;;;;FGS_R;;;;;Calvert;KWP;;-127.7466837;51.375643;CALVERT;HAKAI;janvier 31, 2020;will.mcinnes;février 13, 2020;will.mcinnes;-127.74493109999996;51.376505320000035
20623 Outlet;-127.7073025;51.3950262000001;;;;FGS_R;;;;;Calvert;KWP;;-127.7073025;51.3950262;CALVERT;HAKAI;janvier 31, 2020;will.mcinnes;février 13, 2020;will.mcinnes;-127.70730249999995;51.395026200000075
20636 Outlet;-127.6607934;51.3770476500001;;0;;FGS_R;;;;;Calvert;KWP;;-127.6611829;51.37718857;CALVERT;HAKAI;janvier 31, 2020;will.mcinnes;février 13, 2020;will.mcinnes;-127.6607934;51.377047650000065
20642 Outlet;-127.6292547;51.43074425;;;;FGS_R;;;;;Calvert;KWP;;-127.6304428;51.43047294;CALVERT;HAKAI;janvier 31, 2020;will.mcinnes;février 13, 2020;will.mcinnes;-127.6292547;51.43074425000003
20643 Outlet;-127.5814722;51.4659907700001;;;;FGS_R;;;;;Calvert;KWP;;-127.5814722;51.46599077;CALVERT;HAKAI;janvier 31, 2020;will.mcinnes;février 13, 2020;will.mcinnes;-127.58147219999996;51.46599077000008
20718 Outlet;-127.535503698446;51.491914347;;;;FGS_R;;;;;Calvert;KWP;;-127.5354522;51.49256097;CALVERT;HAKAI;janvier 31, 2020;will.mcinnes;février 13, 2020;will.mcinnes;-127.53550369799996;51.491914347000034
20720 Outlet;-127.516309;51.5352903500001;;26;;FGS_R;;;;;Calvert;KWP;;-127.516309;51.53529035;CALVERT;HAKAI;janvier 31, 2020;will.mcinnes;février 13, 2020;will.mcinnes;-127.51630899999998;51.53529035000008
20722 Outlet;-127.514507;51.5685330000001;;;;FGS_R;;;;;Calvert;KWP;;-127.514507;51.568533;CALVERT;HAKAI;janvier 31, 2020;will.mcinnes;février 13, 2020;will.mcinnes;-127.51450699999998;51.56853300000006
20726 Outlet;-127.4746435;51.6239835100001;;;;FGS_R;;;;;Calvert;KWP;;-127.4739012;51.62539163;CALVERT;HAKAI;janvier 31, 2020;will.mcinnes;février 13, 2020;will.mcinnes;-127.47464349999996;51.62398351000007
20727 Outlet;-127.4515056;51.6311479;;;;FGS_R;;;;;Calvert;KWP;;-127.4513114;51.63217451;CALVERT;HAKAI;janvier 31, 2020;will.mcinnes;février 13, 2020;will.mcinnes;-127.45150559999996;51.63114790000003
20741 Outlet;-127.355236;51.6509209800001;;;;FGS_R;;;;;Calvert;KWP;;-127.355236;51.65092098;CALVERT;HAKAI;janvier 31, 2020;will.mcinnes;février 13, 2020;will.mcinnes;-127.355236;51.65092098000008
20747 Outlet;-127.3125451;51.6665165900001;;0;;FGS_R;;;;;Calvert;KWP;;-127.312707;51.66678284;CALVERT;HAKAI;janvier 31, 2020;will.mcinnes;février 13, 2020;will.mcinnes;-127.31254509999997;51.66651659000007
20754 Outlet;-127.260025;51.67008301;;;;FGS_R;;;;;Calvert;KWP;;-127.260025;51.67008301;CALVERT;HAKAI;janvier 31, 2020;will.mcinnes;février 13, 2020;will.mcinnes;-127.26002499999998;51.67008301000004
20760 Outlet;-127.290100621;51.6875702780001;;0;;FGS_R;;;;;Calvert;KWP;;-127.2908758;51.68685604;CALVERT;HAKAI;janvier 31, 2020;will.mcinnes;février 13, 2020;will.mcinnes;-127.29010062099997;51.68757027800007
20771K Outlet;-127.33;51.7500000000001;;;;FGS_R;;;;;Calvert;KWP;;-127.33;51.75;CALVERT;HAKAI;janvier 31, 2020;will.mcinnes;février 13, 2020;will.mcinnes;-127.32999999999998;51.75000000000006
20771C Outlet;-127.33;51.7300000000001;;;;FGS_R;;;;;Calvert;KWP;;-127.33;51.73;CALVERT;HAKAI;janvier 31, 2020;will.mcinnes;février 13, 2020;will.mcinnes;-127.32999999999998;51.730000000000075
20938 Outlet;-127.504727;51.6465040000001;;;;FGS_R;;;;;Calvert;KWP;;-127.504727;51.646504;CALVERT;HAKAI;janvier 31, 2020;will.mcinnes;février 13, 2020;will.mcinnes;-127.50472699999996;51.64650400000005
20940 Outlet;-127.5495886;51.6413554600001;;0;;FGS_R;;;;;Calvert;KWP;;-127.5495886;51.64135546;CALVERT;HAKAI;janvier 31, 2020;will.mcinnes;février 13, 2020;will.mcinnes;-127.5495886;51.64135546000006
20947 Outlet;-127.6145751;51.5561300900001;;;;FGS_R;;;;;Calvert;KWP;;-127.6145751;51.55613009;CALVERT;HAKAI;janvier 31, 2020;will.mcinnes;février 13, 2020;will.mcinnes;-127.61457509999995;51.55613009000007
20952 Outlet;-127.687488562;51.536994335;;;;FGS_R;;;;;Calvert;KWP;;-127.69;51.54232598;CALVERT;HAKAI;janvier 31, 2020;will.mcinnes;février 13, 2020;will.mcinnes;-127.68748856199994;51.53699433500003
20954 Outlet;-127.746600987;51.5376489320001;;;;FGS_R;;;;;Calvert;KWP;;-127.7481217;51.53834741;CALVERT;HAKAI;janvier 31, 2020;will.mcinnes;février 13, 2020;will.mcinnes;-127.74660098699997;51.53764893200008
20980 Outlet;-127.715404179;51.6359498410001;;;;FGS_R;;;;;Calvert;KWP;;-127.7026732;51.64901114;CALVERT;HAKAI;janvier 31, 2020;will.mcinnes;février 13, 2020;will.mcinnes;-127.71540417899996;51.63594984100007
26812 Outlet;-127.6022895;51.5483919600001;;;;FGS_R;;;;;Calvert;KWP;;-127.6017837;51.54866346;CALVERT;HAKAI;janvier 31, 2020;will.mcinnes;février 13, 2020;will.mcinnes;-127.60228949999998;51.54839196000006
WANNOCK WR01;-127.234528;51.679021;;;;FGS_R;;;;;Calvert;KWP;;-127.234528;51.679021;CALVERT;HAKAI;janvier 31, 2020;will.mcinnes;février 13, 2020;will.mcinnes;-127.23452799999995;51.679021000000034
WANNOCK WR02;-127.234705;51.6787550000001;;;;FGS_R;;;;;Calvert;KWP;;-127.234705;51.678755;CALVERT;HAKAI;janvier 31, 2020;will.mcinnes;février 13, 2020;will.mcinnes;-127.23470499999996;51.67875500000008
WANNOCK WR03;-127.230947;51.679182;;;;FGS_R;;;;;Calvert;KWP;;-127.230947;51.679182;CALVERT;HAKAI;janvier 31, 2020;will.mcinnes;février 13, 2020;will.mcinnes;-127.23094699999996;51.679182000000026
4745 Outlet;-125.0524639;50.38295134;;;;FGS_B;;;;;Quadra;KWP;;-125.0524639;50.38295134;QUADRA;HAKAI;janvier 31, 2020;will.mcinnes;février 13, 2020;will.mcinnes;-125.05246389999996;50.382951340000034
4767 Outlet;-124.97230017;50.499429896;;28;;FGS_B;;;;;Quadra;KWP;;-124.9729957;50.49966217;QUADRA;HAKAI;janvier 31, 2020;will.mcinnes;février 13, 2020;will.mcinnes;-124.97230016999998;50.49942989600004
4805 Outlet;-124.8525849;50.6651676500001;;;;FGS_B;;;;;Quadra;KWP;;-124.8525849;50.66516765;QUADRA;HAKAI;janvier 31, 2020;will.mcinnes;février 13, 2020;will.mcinnes;-124.85258489999995;50.66516765000006
4809 Outlet;-124.857651;50.681452;;;;FGS_B;;;;;Quadra;KWP;;-124.857651;50.681452;QUADRA;HAKAI;janvier 31, 2020;will.mcinnes;février 13, 2020;will.mcinnes;-124.85765099999998;50.68145200000003
4829 Outlet;-124.8621035;50.7601679300001;;;;FGS_B;;;;;Quadra;KWP;;-124.8621035;50.76016793;QUADRA;HAKAI;janvier 31, 2020;will.mcinnes;février 13, 2020;will.mcinnes;-124.8621035;50.76016793000008
4848 Outlet;-124.864094071029;50.8245952670001;;0;;FGS_B;;;;;Quadra;KWP;;-124.8642314;50.82454647;QUADRA;HAKAI;janvier 31, 2020;will.mcinnes;février 13, 2020;will.mcinnes;-124.86409407099995;50.82459526700006
4889 Outlet;-124.8648929;50.8950698300001;;0;;FGS_B;;;;;Quadra;KWP;;-124.8648929;50.89506983;QUADRA;HAKAI;janvier 31, 2020;will.mcinnes;février 13, 2020;will.mcinnes;-124.86489289999996;50.89506983000006
4914 Outlet;-124.980805364;50.8125704490001;;;;FGS_B;;;;;Quadra;KWP;;-124.9791145;50.81203354;QUADRA;HAKAI;janvier 31, 2020;will.mcinnes;février 13, 2020;will.mcinnes;-124.980805364;50.81257044900008
4968 Outlet;-124.908662603;50.6226916160001;;47;;FGS_B;;;;;Quadra;KWP;;-124.9107447;50.62132249;QUADRA;HAKAI;janvier 31, 2020;will.mcinnes;février 13, 2020;will.mcinnes;-124.90866260299998;50.622691616000054
5005 Outlet;-125.107041292535;50.468896079;;76;;FGS_B;;;;;Quadra;KWP;;-125.1056525;50.46911101;QUADRA;HAKAI;janvier 31, 2020;will.mcinnes;février 13, 2020;will.mcinnes;-125.10704129299997;50.46889607900005
8395 Outlet;-125.238156536;50.2622297870001;;;;FGS_B;;;;;Quadra;KWP;;-125.2383459;50.26225585;QUADRA;HAKAI;janvier 31, 2020;will.mcinnes;février 13, 2020;will.mcinnes;-125.23815653599996;50.26222978700008
8405 Outlet;-125.187714600115;50.1652691360001;;;;FGS_B;;;;;Quadra;KWP;;-125.1864978;50.1661984;QUADRA;HAKAI;janvier 31, 2020;will.mcinnes;février 13, 2020;will.mcinnes;-125.1877146;50.16526913600006
8407 Outlet;-125.218893383449;50.1396180400001;;;;FGS_B;;;;;Quadra;KWP;;-125.220507;50.139409;QUADRA;HAKAI;janvier 31, 2020;will.mcinnes;février 13, 2020;will.mcinnes;-125.21889338299997;50.13961804000007
9245 Outlet;-125.1815014;50.26057589;;;;FGS_B;;;;;Quadra;KWP;;-125.1815014;50.26057589;QUADRA;HAKAI;janvier 31, 2020;will.mcinnes;février 13, 2020;will.mcinnes;-125.18150139999996;50.26057589000004
9257 Outlet;-125.1100661;50.3037298200001;;;;FGS_B;;;;;Quadra;KWP;;-125.1100661;50.30372982;QUADRA;HAKAI;janvier 31, 2020;will.mcinnes;février 13, 2020;will.mcinnes;-125.11006609999998;50.30372982000006
9265 Outlet;-125.1335566;50.2426583700001;;;;FGS_B;;;;;Quadra;KWP;;-125.1335566;50.24265837;QUADRA;HAKAI;janvier 31, 2020;will.mcinnes;février 13, 2020;will.mcinnes;-125.13355659999996;50.24265837000007
9572 Outlet;-125.242950285;50.320716739;;;;FGS_B;;;;;Quadra;KWP;;-125.2429932;50.32047287;QUADRA;HAKAI;janvier 31, 2020;will.mcinnes;février 13, 2020;will.mcinnes;-125.24295028499996;50.320716739000034
HOMATHKO HOMA1;-124.8682698;50.95302393;;;;FGS_B;;;;;Quadra;KWP;;-124.8682698;50.95302393;QUADRA;HAKAI;janvier 31, 2020;will.mcinnes;février 13, 2020;will.mcinnes;-124.86826979999996;50.95302393000003
HOMATHKO HOMA2;-124.900683;50.9564;;;;FGS_B;;;;;Quadra;KWP;;-124.900683;50.9564;QUADRA;HAKAI;janvier 31, 2020;will.mcinnes;février 13, 2020;will.mcinnes;-124.90068299999996;50.95640000000003
HOMATHKO HOMA3;-124.918908;50.9894678000001;;;;FGS_B;;;;;Quadra;KWP;;-124.918908;50.9894678;QUADRA;HAKAI;janvier 31, 2020;will.mcinnes;février 13, 2020;will.mcinnes;-124.918908;50.98946780000006
CAMPCREEK WATERINTAKE;-124.8647;50.954283;;;;FGS_B;;;;;Quadra;KWP;;-124.8647;50.954283;QUADRA;HAKAI;janvier 31, 2020;will.mcinnes;février 13, 2020;will.mcinnes;-124.86469999999996;50.95428300000003
CUMSACK CSMK1;-124.897433;50.9341000000001;;;;FGS_B;;;;;Quadra;KWP;;-124.897433;50.9341;QUADRA;HAKAI;janvier 31, 2020;will.mcinnes;février 13, 2020;will.mcinnes;-124.89743299999998;50.93410000000006
Teaquahan TEAQ1;-124.8188728;50.9493522700001;;;;FGS_B;;;;;Quadra;KWP;;-124.8188728;50.94935227;QUADRA;HAKAI;janvier 31, 2020;will.mcinnes;février 13, 2020;will.mcinnes;-124.81887279999997;50.94935227000008
Teaquahan TEAQ2;-124.8202371;50.94805001;;;;FGS_B;;;;;Quadra;KWP;;-124.8202371;50.94805001;QUADRA;HAKAI;janvier 31, 2020;will.mcinnes;février 13, 2020;will.mcinnes;-124.8202371;50.94805001000003
Southgate SGTE1;-124.76765;50.890367;;;;FGS_B;;;;;Quadra;KWP;;-124.76765;50.890367;QUADRA;HAKAI;janvier 31, 2020;will.mcinnes;février 13, 2020;will.mcinnes;-124.76764999999996;50.890367000000026
Southgate SGTE2;-124.754228;50.887635;;;;FGS_B;;;;;Quadra;KWP;;-124.754228;50.887635;QUADRA;HAKAI;janvier 31, 2020;will.mcinnes;février 13, 2020;will.mcinnes;-124.75422799999996;50.887635000000046
Southgate SGTE3;-124.7394;50.886333;;;;FGS_B;;;;;Quadra;KWP;;-124.7394;50.886333;QUADRA;HAKAI;janvier 31, 2020;will.mcinnes;février 13, 2020;will.mcinnes;-124.7394;50.88633300000003
Bear BEAR1;-124.954783833;50.8341983940001;;;;FGS_B;;;;;Quadra;KWP;;-124.954433;50.83405;QUADRA;HAKAI;janvier 31, 2020;will.mcinnes;février 13, 2020;will.mcinnes;-124.95478383299996;50.834198394000055
Mellersh MELR1;-124.951460679;50.776171285;;;;FGS_B;;;;;Quadra;KWP;;-124.951171;50.775598;QUADRA;HAKAI;janvier 31, 2020;will.mcinnes;février 13, 2020;will.mcinnes;-124.95146067899998;50.77617128500003
Moh  MOH1;-125.037754;50.5184400000001;;;;FGS_B;;;;;Quadra;KWP;;-125.037754;50.51844;QUADRA;HAKAI;janvier 31, 2020;will.mcinnes;février 13, 2020;will.mcinnes;-125.03775399999996;50.518440000000055
Paradise PDSE1;-124.953906;50.5881380000001;;29;;FGS_B;;;;;Quadra;KWP;;-124.953906;50.588138;QUADRA;HAKAI;janvier 31, 2020;will.mcinnes;février 13, 2020;will.mcinnes;-124.95390599999996;50.58813800000007
Hyacinthe HYAC1;-125.254017;50.133383;;;;FGS_Q;;;;;Quadra;KWP;;-125.254017;50.133383;QUADRA;HAKAI;janvier 31, 2020;will.mcinnes;février 13, 2020;will.mcinnes;-125.25401699999998;50.13338300000004
Drew DREW1;-125.192434603;50.088211115;;;;FGS_Q;;;;;Quadra;KWP;;0;0;QUADRA;HAKAI;janvier 31, 2020;will.mcinnes;février 13, 2020;will.mcinnes;-125.19243460299998;50.088211115000036
MCALPIN Outlet;-128.162510896;52.8889578750001;;;;FGS_F;;;;;Calvert;KWP;;-128.09188;52.53234;CALVERT;HAKAI;janvier 31, 2020;will.mcinnes;février 13, 2020;will.mcinnes;-128.16251089599996;52.888957875000074
5881 LULL1;-126.0242281;50.70636849;;;;FGS_KN;;;;;Quadra;KWP;;-126.0242281;50.70636849;QUADRA;HAKAI;janvier 31, 2020;will.mcinnes;février 13, 2020;will.mcinnes;-126.02422809999996;50.706368490000045
5322 FULL1;-125.9293932;50.5643892300001;;;;FGS_Kn;;;;;Quadra;KWP;;-125.9293932;50.56438923;QUADRA;HAKAI;janvier 31, 2020;will.mcinnes;février 13, 2020;will.mcinnes;-125.9293932;50.564389230000074
5299 TUNA1;-125.9674908;50.4930134800001;;;;FGS_Kn;;;;;Quadra;KWP;;-125.9674908;50.49301348;QUADRA;HAKAI;janvier 31, 2020;will.mcinnes;février 13, 2020;will.mcinnes;-125.96749079999996;50.49301348000006
5209 HEYD1;-125.5790499;50.57553762;;;;FGS_Kn;;;;;Quadra;KWP;;-125.5790499;50.57553762;QUADRA;HAKAI;janvier 31, 2020;will.mcinnes;février 13, 2020;will.mcinnes;-125.57904989999996;50.575537620000034
5559 GLEN1;-125.7160576;50.6504792000001;;;;FGS_Kn;;;;;Quadra;KWP;;-125.7160576;50.6504792;QUADRA;HAKAI;janvier 31, 2020;will.mcinnes;février 13, 2020;will.mcinnes;-125.71605759999994;50.65047920000006
5559 TOMB1;-125.7228062;50.64871363;;;;FGS_Kn;;;;;Quadra;KWP;;-125.7228062;50.64871363;QUADRA;HAKAI;janvier 31, 2020;will.mcinnes;février 13, 2020;will.mcinnes;-125.72280619999998;50.64871363000003
5559 GLEN2;-125.7253951;50.65383001;;;;FGS_Kn;;;;;Quadra;KWP;;-125.7253951;50.65383001;QUADRA;HAKAI;janvier 31, 2020;will.mcinnes;février 13, 2020;will.mcinnes;-125.72539509999996;50.65383001000003
Koeye KR01;-127.8086;51.77597;;;;FGS_Y;;;;;Calvert;KWP;;-127.8086;51.77597;CALVERT;HAKAI;janvier 31, 2020;will.mcinnes;février 13, 2020;will.mcinnes;-127.80859999999996;51.77597000000003
4791 TOWER2;-124.8412;50.5952;;;;FGS_B;;;;;Quadra;KWP;;-124.8412;50.5952;QUADRA;HAKAI;janvier 31, 2020;will.mcinnes;février 13, 2020;will.mcinnes;-124.84119999999996;50.595200000000034
4791 TRIB1US;-124.8521;50.59119;;;;FGS_B;;;;;Quadra;KWP;;-124.8521;50.59119;QUADRA;HAKAI;janvier 31, 2020;will.mcinnes;février 13, 2020;will.mcinnes;-124.85209999999996;50.59119000000004
4791 TRIB1DS;-124.8519;50.59272;;;;FGS_B;;;;;Quadra;KWP;;-124.8519;50.59272;QUADRA;HAKAI;janvier 31, 2020;will.mcinnes;février 13, 2020;will.mcinnes;-124.85189999999994;50.59272000000004
5209 HEYD2;-125.59561;50.57336;;;;FGS_Kn;;;;;Quadra;KWP;;-125.59561;50.57336;QUADRA;HAKAI;janvier 31, 2020;will.mcinnes;février 13, 2020;will.mcinnes;-125.59560999999997;50.57336000000004
693 892 INLETS;-127.999103;51.64125999;;;;LAKEC;;;;;Calvert;KWP;;-127.999103;51.64125999;CALVERT;HAKAI;janvier 31, 2020;will.mcinnes;février 13, 2020;will.mcinnes;-127.999103;51.64125999000004
693 892 INLETSE;-127.994972;51.64106302;;;;LAKEC;;;;;Calvert;KWP;;-127.994972;51.64106302;CALVERT;HAKAI;janvier 31, 2020;will.mcinnes;février 13, 2020;will.mcinnes;-127.99497199999996;51.64106302000005
708 951 INLETW;-128.070939;51.6275539900001;;;;LAKEC;;;;;Calvert;KWP;;-128.070939;51.62755399;CALVERT;HAKAI;janvier 31, 2020;will.mcinnes;février 13, 2020;will.mcinnes;-128.07093899999995;51.62755399000008
708 951 INLETS;-128.070834;51.622397;;;;LAKEC;;;;;Calvert;KWP;;-128.070492;51.62342104;CALVERT;HAKAI;janvier 31, 2020;will.mcinnes;février 13, 2020;will.mcinnes;-128.07049199999994;51.62342104000004
708 951 INLETSE;-128.067143;51.62476902;;;;LAKEC;;;;;Calvert;KWP;;-128.067143;51.62476902;CALVERT;HAKAI;janvier 31, 2020;will.mcinnes;février 13, 2020;will.mcinnes;-128.067143;51.62476902000003
1015 689 INLETC;-128.052978;51.68639998;;;;LAKEC;;;;;Calvert;KWP;;-128.052978;51.68639998;CALVERT;HAKAI;janvier 31, 2020;will.mcinnes;février 13, 2020;will.mcinnes;-128.052978;51.68639998000003
1015 689 INLETN;-128.052391;51.6898750300001;;;;LAKEC;;;;;Calvert;KWP;;-128.052391;51.68987503;CALVERT;HAKAI;janvier 31, 2020;will.mcinnes;février 13, 2020;will.mcinnes;-128.05239099999994;51.68987503000005
1015 689 INLETS;-128.059045;51.68185104;;;;LAKEC;;;;;Calvert;KWP;;-128.059045;51.68185104;CALVERT;HAKAI;janvier 31, 2020;will.mcinnes;février 13, 2020;will.mcinnes;-128.05904499999997;51.681851040000026
1015 689 INLETSE;-128.05619;51.6839180100001;;;;LAKEC;;;;;Calvert;KWP;;-128.05619;51.68391801;CALVERT;HAKAI;janvier 31, 2020;will.mcinnes;février 13, 2020;will.mcinnes;-128.05618999999996;51.68391801000007
26468 Outlet;-127.9346;51.6226300000001;;;;FGS_R;;;;;Calvert;KWP;;-127.9346;51.62263;CALVERT;HAKAI;janvier 31, 2020;will.mcinnes;février 13, 2020;will.mcinnes;-127.9346;51.62263000000007
26410 Outlet;-128.1497;51.6436800000001;;;;FGS_R;;;;;Calvert;KWP;;-128.026062;51.64853;CALVERT;HAKAI;janvier 31, 2020;will.mcinnes;février 13, 2020;will.mcinnes;-128.1497;51.643680000000074
703 OUTLET;-128.026062;51.6485300000001;;;;;Active;;;;Calvert;;;;;CALVERT;HAKAI;janvier 31, 2020;will.mcinnes;février 13, 2020;will.mcinnes;-128.02606199999997;51.64853000000005
BS17;-124.754287061;49.477167975;;91;Baynes Sound;Deep Bay Oceanographic Survey (Sarah Leduc);;;;South end, just south of BS7;;Ocean Acidification;;;;QUADRA;;janvier 31, 2020;will.mcinnes;février 13, 2020;will.mcinnes;-124.75428706099996;49.47716797500004
BS1_DBOS;-124.875603447;49.612799975;;38;;Deep Bay Oceanography Survey (Sarah Leduc);;;;Close to BS1 PSF station, north end of Denman;;Ocean Acidification;;;;QUADRA;;janvier 31, 2020;will.mcinnes;février 13, 2020;will.mcinnes;-124.87560344699996;49.61279997500003
BS14;-124.899002682;49.645003484;;36;Baynes Sound;Deep Bay Oceanography Survey (Sarah Leduc);;;;North end, near Courtenay, off Manatee Holdings;;Ocean Acidification;;;;QUADRA;;janvier 31, 2020;will.mcinnes;février 13, 2020;will.mcinnes;-124.89900268199996;49.64500348400003
BS15;-124.85729602;49.5558538560001;;43;Baynes Sound;Deep Bay Oceanography Survey (Sarah Leduc);;;;Mid Channel;;Ocean Acidification;;;;QUADRA;;janvier 31, 2020;will.mcinnes;février 13, 2020;will.mcinnes;-124.85729601999998;49.555853856000056
BS16;-124.804905364;49.5157867930001;;56;Baynes Sound;Deep Bay Oceanography Survey (Sarah Leduc);;;;Mid channel off mac's oysters;;Ocean Acidification;;;;QUADRA;;janvier 31, 2020;will.mcinnes;février 13, 2020;will.mcinnes;-124.80490536399998;49.515786793000075
TO1;-124.7717;50.3033;;400;;Achiever 2019;;;;;;Oceanography;;;;QUADRA;Hakai;janvier 31, 2020;will.mcinnes;février 13, 2020;will.mcinnes;-124.77169999999995;50.30330000000003
TO2;-124.735;50.3383000000001;;506;;Achiever 2019;;;;;;Oceanography;;;;QUADRA;Hakai;janvier 31, 2020;will.mcinnes;février 13, 2020;will.mcinnes;-124.73499999999996;50.33830000000006
TO3;-124.6317;50.4083000000001;;475;;Achiever 2019;;;;;;Oceanography;;;;QUADRA;Hakai;janvier 31, 2020;will.mcinnes;février 13, 2020;will.mcinnes;-124.63169999999997;50.408300000000054
TO4;-124.5267;50.4200000000001;;395;;Achiever 2019;;;;;;Oceanography;;;;QUADRA;Hakai;janvier 31, 2020;will.mcinnes;février 13, 2020;will.mcinnes;-124.52669999999996;50.42000000000007
TO5;-124.4;50.4633000000001;;203;;Achiever 2019;;;;;;Oceanography;;;;QUADRA;Hakai;janvier 31, 2020;will.mcinnes;février 13, 2020;will.mcinnes;-124.39999999999998;50.46330000000006
KN1;-126.4217;50.635;;256;;Achiever 2019;;;;;;Oceanography;;;;QUADRA;Hakai;janvier 31, 2020;will.mcinnes;février 13, 2020;will.mcinnes;-126.4217;50.63500000000005
KN2;-126.1833;50.655;;183;;Achiever 2019;;;;;;Oceanography;;;;QUADRA;Hakai;janvier 31, 2020;will.mcinnes;février 13, 2020;will.mcinnes;-126.18329999999996;50.65500000000003
KN3;-126.0667;50.6700000000001;;175;;Achiever 2019;;;;;;Oceanography;;;;QUADRA;Hakai;janvier 31, 2020;will.mcinnes;février 13, 2020;will.mcinnes;-126.06669999999995;50.67000000000007
KN4;-125.9367;50.6817;;439;;Achiever 2019;;;;;;Oceanography;;;;QUADRA;Hakai;janvier 31, 2020;will.mcinnes;février 13, 2020;will.mcinnes;-125.93669999999996;50.681700000000035
KN5;-125.7833;50.6933000000001;;396;;Achiever 2019;;;;;;Oceanography;;;;QUADRA;Hakai;janvier 31, 2020;will.mcinnes;février 13, 2020;will.mcinnes;-125.78329999999994;50.69330000000008
KN6;-125.685;50.755;;520;;Achiever 2019;;;;;;Oceanography;;;;QUADRA;Hakai;janvier 31, 2020;will.mcinnes;février 13, 2020;will.mcinnes;-125.68499999999996;50.755000000000045
KN7;-125.6217;50.8017;;515;;Achiever 2019;;;;;;Oceanography;;;;QUADRA;Hakai;janvier 31, 2020;will.mcinnes;février 13, 2020;will.mcinnes;-125.62169999999998;50.80170000000004
KN8;-125.645;50.8717;;490;;Achiever 2019;;;;;;Oceanography;;;;QUADRA;Hakai;janvier 31, 2020;will.mcinnes;février 13, 2020;will.mcinnes;-125.64499999999998;50.87170000000003
KN9;-125.5467;50.905;;415;;Achiever 2019;;;;;;Oceanography;;;;QUADRA;Hakai;janvier 31, 2020;will.mcinnes;février 13, 2020;will.mcinnes;-125.5467;50.90500000000003
KN10;-125.5583;50.9767000000001;;334;;Achiever 2019;;;;;;Oceanography;;;;QUADRA;Hakai;janvier 31, 2020;will.mcinnes;février 13, 2020;will.mcinnes;-125.55829999999996;50.97670000000005
KN11;-125.5667;51.0417;;216;;Achiever 2019;;;;;;Oceanography;;;;QUADRA;Hakai;janvier 31, 2020;will.mcinnes;février 13, 2020;will.mcinnes;-125.56669999999995;51.04170000000005
D30;-125.31317;50.291476;;32;Chonat Bay;;Active;;;;Discovery Islands;SEMSP;;;;QUADRA;HAKAI;janvier 31, 2020;will.mcinnes;février 13, 2020;will.mcinnes;-125.31316999999996;50.291476000000046
D35;-125.267;50.4564500000001;;29;Denham Bay;SEMSP;Active;;;;Discovery Islands;;;;;QUADRA;HAKAI;janvier 31, 2020;will.mcinnes;février 13, 2020;will.mcinnes;-125.26699999999994;50.456450000000075
3859 GAUGINGSTATION;-123.1464767;49.68981934;;;;FGS_WSC;;;;;Quadra;KWP;;;;QUADRA;HAKAI;janvier 31, 2020;will.mcinnes;février 13, 2020;will.mcinnes;-123.1464767;49.68981934000004
3932 GAUGINGSTATION;-123.6402206;49.4208297700001;;;;FGS_WSC;;;;;Quadra;KWP;;;;QUADRA;HAKAI;janvier 31, 2020;will.mcinnes;février 13, 2020;will.mcinnes;-123.64022059999996;49.42082977000006
55637 GAUGINGSTATION;-126.5785065;50.4403610200001;;;;FGS_WSC;;;;;Quadra;KWP;;;;QUADRA;HAKAI;janvier 31, 2020;will.mcinnes;février 13, 2020;will.mcinnes;-126.57850649999996;50.44036102000006
5693 GAUGINGSTATION;-125.5943604;51.1447792100001;;;;FGS_WSC;;;;;Quadra;KWP;;;;QUADRA;HAKAI;janvier 31, 2020;will.mcinnes;février 13, 2020;will.mcinnes;-125.59436039999996;51.14477921000008
59376 GAUGINGSTATION;-124.9694366;48.8925018300001;;;;FGS_WSC;;;;;Quadra;KWP;;;;QUADRA;HAKAI;janvier 31, 2020;will.mcinnes;février 13, 2020;will.mcinnes;-124.9694366;48.89250183000007
59377 GAUGINGSTATION;-124.9977798;48.9155616800001;;;;FGS_WSC;;;;;Quadra;KWP;;;;QUADRA;HAKAI;janvier 31, 2020;will.mcinnes;février 13, 2020;will.mcinnes;-124.9977798;48.91556168000005
59637 GAUGINGSTATION;-125.5833282;49.2508316;;;;FGS_WSC;;;;;Quadra;KWP;;;;QUADRA;HAKAI;janvier 31, 2020;will.mcinnes;février 13, 2020;will.mcinnes;-125.58332819999998;49.250831600000026
6192 GAUGINGSTATION;-126.1177826;51.00249863;;;;FGS_WSC;;;;;Quadra;KWP;;;;QUADRA;HAKAI;janvier 31, 2020;will.mcinnes;février 13, 2020;will.mcinnes;-126.11778259999994;51.00249863000005
6252 GAUGINGSTATION;-126.4749985;51.1027793900001;;;;FGS_WSC;;;;;Quadra;KWP;;;;QUADRA;HAKAI;janvier 31, 2020;will.mcinnes;février 13, 2020;will.mcinnes;-126.47499849999996;51.10277939000008
68539 GAUGINGSTATION;-132.138031;53.2526817300001;;;;FGS_WSC;;;;;Quadra;KWP;;;;QUADRA;HAKAI;janvier 31, 2020;will.mcinnes;février 13, 2020;will.mcinnes;-132.13803099999996;53.25268173000006
69781 GAUGINGSTATION;-132.2097168;53.6138916;;;;FGS_WSC;;;;;Quadra;KWP;;;;QUADRA;HAKAI;janvier 31, 2020;will.mcinnes;février 13, 2020;will.mcinnes;-132.20971679999997;53.613891600000045
73279 GAUGINGSTATION;-132.0513611;53.05730057;;;;FGS_WSC;;;;;Quadra;KWP;;;;QUADRA;HAKAI;janvier 31, 2020;will.mcinnes;février 13, 2020;will.mcinnes;-132.05136109999995;53.057300570000045
5850 OUTLET;-125.825524;50.705063;;;;FGS_KN;;;;;Quadra;KWP;;;;QUADRA;HAKAI;janvier 31, 2020;will.mcinnes;février 13, 2020;will.mcinnes;-125.82552399999996;50.705063000000045
5819 OUTLET;-125.686447;50.7824870000001;;;;FGS_KN;;;;;Quadra;KWP;;;;QUADRA;HAKAI;janvier 31, 2020;will.mcinnes;février 13, 2020;will.mcinnes;-125.686447;50.78248700000006
5688 OUTLET;-125.544117;51.1010000000001;;;;FGS_KN;;;;;Quadra;KWP;;;;QUADRA;HAKAI;janvier 31, 2020;will.mcinnes;février 13, 2020;will.mcinnes;-125.54411699999996;51.101000000000056
5722 OUTLET;-125.62535;51.0274170000001;;;;FGS_KN;;;;;Quadra;KWP;;;;QUADRA;HAKAI;janvier 31, 2020;will.mcinnes;février 13, 2020;will.mcinnes;-125.62534999999995;51.02741700000007
TSUNAMIHILL REFSTN;-128.12955;51.6517830000001;;;;RAIN_C;;;;;Calvert;;;;;CALVERT;HAKAI;janvier 31, 2020;will.mcinnes;février 13, 2020;will.mcinnes;-128.12955;51.65178300000008
844 WSN844;-127.9975;51.6613889000001;;;;RAIN_C;;;;;Calvert;;;;;CALVERT;HAKAI;janvier 31, 2020;will.mcinnes;février 13, 2020;will.mcinnes;-127.99749999999996;51.66138890000008
OFFICE QUADRA;-125.2221111;50.1162556;;1;;RAIN_Q;;;;;Quadra;;;;;QUADRA;HAKAI;janvier 31, 2020;will.mcinnes;février 13, 2020;will.mcinnes;-125.22211109999996;50.116255600000045
POISON OUTLET;-128.016113;52.8982800000001;;;;FGS_K;;;;;;;;;;CALVERT;HAKAI;janvier 31, 2020;will.mcinnes;février 13, 2020;will.mcinnes;-128.01611299999996;52.89828000000006
693 892 OUTLET;-127.998269;51.6452090000001;;;;LAKEC;;;;;Central Coast;;;;;CALVERT;HAKAI;janvier 31, 2020;will.mcinnes;février 13, 2020;will.mcinnes;-127.998269;51.64520900000008
693 892 BOTTOM;-127.99696;51.6424000000001;;;;LAKEC;;;;;Central Coast;;;;;CALVERT;HAKAI;janvier 31, 2020;will.mcinnes;février 13, 2020;will.mcinnes;-127.99695999999994;51.642400000000066
693 892 BOTTOM;-127.99696;51.6424000000001;;;;LAKEC;;;;;Central Coast;;;;;CALVERT;HAKAI;janvier 31, 2020;will.mcinnes;février 13, 2020;will.mcinnes;-127.99695999999994;51.642400000000066
708 951 SURFACE;-128.06519;51.63226;;;;LAKEC;;;;;Central Coast;;;;;CALVERT;HAKAI;janvier 31, 2020;will.mcinnes;février 13, 2020;will.mcinnes;-128.06518999999997;51.63226000000003
708 951 OUTLET;-128.067342;51.636419;;;;LAKEC;;;;;Central Coast;;;;;CALVERT;HAKAI;janvier 31, 2020;will.mcinnes;février 13, 2020;will.mcinnes;-128.06734199999994;51.636419000000046
708 951 SURFACE;-128.06519;51.63226;;;;LAKEC;;;;;Central Coast;;;;;CALVERT;HAKAI;janvier 31, 2020;will.mcinnes;février 13, 2020;will.mcinnes;-128.06518999999997;51.63226000000003
1015 689 OUTLET;-128.057463;51.692007;;;;LAKEC;;;;;Central Coast;;;;;CALVERT;HAKAI;janvier 31, 2020;will.mcinnes;février 13, 2020;will.mcinnes;-128.05746299999998;51.692007000000046
1015 689 BOTTOM;-128.05727;51.6847300000001;;;;LAKEC;;;;;Central Coast;;;;;CALVERT;HAKAI;janvier 31, 2020;will.mcinnes;février 13, 2020;will.mcinnes;-128.05726999999996;51.68473000000006
1015 689 BOTTOM;-128.05727;51.6847300000001;;;;LAKEC;;;;;Central Coast;;;;;CALVERT;HAKAI;janvier 31, 2020;will.mcinnes;février 13, 2020;will.mcinnes;-128.05726999999996;51.68473000000006
693 931 INLET;-127.999065050263;51.6358653460001;;;;LAKEC;;;;;;KWP;;;;CALVERT;HAKAI;janvier 31, 2020;will.mcinnes;février 13, 2020;will.mcinnes;-127.99906504999996;51.63586534600006
693 931 BOTTOM;-128.00194;51.637833;;;;LAKEC;;;;;;KWP;;;;CALVERT;HAKAI;janvier 31, 2020;will.mcinnes;février 13, 2020;will.mcinnes;-128.00194;51.63783300000006
693 931 BOTTOM;-128.00194;51.637833;;;;LAKEC;;;;;;KWP;;;;CALVERT;HAKAI;janvier 31, 2020;will.mcinnes;février 13, 2020;will.mcinnes;-128.00194;51.63783300000006
693 931 OUTLET;-128.000564;51.6396319;;;;LAKEC;;;;;;KWP;;;;CALVERT;HAKAI;janvier 31, 2020;will.mcinnes;février 13, 2020;will.mcinnes;-128.00056399999994;51.63963190000004
693 964 INLETSOUTH;-127.990610321426;51.6321490390001;;;;LAKEC;;;;;;KWP;;;;CALVERT;HAKAI;janvier 31, 2020;will.mcinnes;février 13, 2020;will.mcinnes;-127.99061032099996;51.63214903900007
693 964 INLETWEST;-127.993354;51.63242;;;;LAKEC;;;;;;KWP;;;;CALVERT;HAKAI;janvier 31, 2020;will.mcinnes;février 13, 2020;will.mcinnes;-127.99335399999995;51.63242000000008
693 964 OUTLET;-127.992874;51.633957;;;;LAKEC;;;;;;KWP;;;;CALVERT;HAKAI;janvier 31, 2020;will.mcinnes;février 13, 2020;will.mcinnes;-127.99287399999996;51.633957000000066
693 984 BOTTOM;-127.977802;51.631039;;;;LAKEC;;;;;;KWP;;;;CALVERT;HAKAI;janvier 31, 2020;will.mcinnes;février 13, 2020;will.mcinnes;-127.97780199999994;51.63103900000005
693 984 BOTTOM;-127.977802;51.631039;;;;LAKEC;;;;;;KWP;;;;CALVERT;HAKAI;janvier 31, 2020;will.mcinnes;février 13, 2020;will.mcinnes;-127.97780199999994;51.63103900000005
693 984 INLET;-127.97469;51.629867;;;;LAKEC;;;;;;KWP;;;;CALVERT;HAKAI;janvier 31, 2020;will.mcinnes;février 13, 2020;will.mcinnes;-127.97468999999997;51.62986700000005
693 984 OUTLET;-127.98646;51.631246;;;;LAKEC;;;;;;KWP;;;;CALVERT;HAKAI;janvier 31, 2020;will.mcinnes;février 13, 2020;will.mcinnes;-127.98645999999997;51.63124600000003
708 877 BOTTOM;-128.068105;51.647179;;;;LAKEC;;;;;;KWP;;;;CALVERT;HAKAI;janvier 31, 2020;will.mcinnes;février 13, 2020;will.mcinnes;-128.06810499999995;51.64717900000005
708 877 BOTTOM;-128.068105;51.647179;;;;LAKEC;;;;;;KWP;;;;CALVERT;HAKAI;janvier 31, 2020;will.mcinnes;février 13, 2020;will.mcinnes;-128.06810499999995;51.64717900000005
708 877 INLET;-128.067564382669;51.6468942920001;;;;LAKEC;;;;;;KWP;;;;CALVERT;HAKAI;janvier 31, 2020;will.mcinnes;février 13, 2020;will.mcinnes;-128.067564383;51.64689429200007
708 877 OUTLET;-128.068128216466;51.6484979890001;;;;LAKEC;;;;;;KWP;;;;CALVERT;HAKAI;janvier 31, 2020;will.mcinnes;février 13, 2020;will.mcinnes;-128.068128216;51.64849798900008
KOEYE KR02;-127.806984;51.774295;;;;FGS_Y;;;;;;KWP;;;;CALVERT;HAKAI;janvier 31, 2020;will.mcinnes;février 13, 2020;will.mcinnes;-127.80698399999994;51.774295000000045
KOEYE KR_TRIB;-127.818444;51.776079;;;;FGS_Y;;;;;;KWP;;;;CALVERT;HAKAI;janvier 31, 2020;will.mcinnes;février 13, 2020;will.mcinnes;-127.81844399999994;51.77607900000004
NONE GLC1;-126.947343;51.983133;;;;FGS_R;;;;;;KWP;;;;CALVERT;HAKAI;janvier 31, 2020;will.mcinnes;février 13, 2020;will.mcinnes;-126.947343;51.983133000000066
HOMATHKO_TRIB T5KM1;-124.908217;50.975303;;;;FGS_B;;;;;;KWP;;;;QUADRA;HAKAI;janvier 31, 2020;will.mcinnes;février 13, 2020;will.mcinnes;-124.90821699999998;50.97530300000005
TO2A;50.35895;-124.70885;;;Toba Inlet;;;;;;Quadra;Oceanography;;;;QUADRA;HAKAI;mars 10, 2020;will.mcinnes;mars 10, 2020;will.mcinnes;-124.70885000000001;50.358949999999986
TO3A;50.41611;-124.653;;;Toba Inlet;;;;;;Quadra;Oceanography;;;;QUADRA;HAKAI;mars 10, 2020;will.mcinnes;mars 10, 2020;will.mcinnes;-124.653;50.41611
TO4A;50.42644;-124.51479;;;Toba Inlet;;;;;;Quadra;Oceanography;;;;QUADRA;HAKAI;mars 10, 2020;will.mcinnes;mars 10, 2020;will.mcinnes;-124.51478999999999;50.42643999999999
Ri6;-127.4533;51.7283;195;;;;;;;IOS Historical site;Central Coast;;;;;CALVERT;;septembre 9, 2020;will.mcinnes;septembre 9, 2020;will.mcinnes;-127.4533;51.7283
Ri7;-127.3933;51.7783;240;;;;;;;IOS Historical Site;Central Coast;Oceanography;;;;CALVERT;;septembre 9, 2020;will.mcinnes;septembre 9, 2020;will.mcinnes;-127.39330000000001;51.77829999999999
Ha1;-127.555;51.6967;310;;;;;;;IOS Historical Site;Central Coast;Oceanography;;;;CALVERT;;septembre 9, 2020;will.mcinnes;septembre 9, 2020;will.mcinnes;-127.555;51.696699999999986
;;;;;;;;;;;;;;;;;;septembre 9, 2020;will.mcinnes;septembre 9, 2020;will.mcinnes;-127.555;51.696699999999986
UWT31;-126.032017;49.236217;12;;Herbert Russell Channel Confluence;UWT_HERBERT;;;;;Clayoquot;Oceanography;;;;CLAYOQUOT;Hakai;octobre 1, 2020;will.mcinnes;octobre 1, 2020;will.mcinnes;-126.03201699999994;49.23621700000007
UWT32;-126.0381;49.260317;8;;Herbert Sill;UWT_HERBERT;;;;;Clayoquot;Oceanography;;;;CLAYOQUOT;Hakai;octobre 1, 2020;will.mcinnes;octobre 1, 2020;will.mcinnes;-126.0381;49.26031700000004
UWT33;-126.035367;49.295817;51;;Herbert Mouth South;UWT_HERBERT;;;;;Clayoquot;Oceanography;;;;CLAYOQUOT;Hakai;octobre 1, 2020;will.mcinnes;octobre 1, 2020;will.mcinnes;-126.03536699999997;49.295817000000056
UWT34;-126.012017;49.312917;114;;Herbert Mouth;UWT_HERBERT;;;;;Clayoquot;Oceanography;;;;CLAYOQUOT;Hakai;octobre 1, 2020;will.mcinnes;octobre 1, 2020;will.mcinnes;-126.01201699999996;49.31291700000003
UWT35;-125.977683;49.328183;135;;Herbert;UWT_HERBERT;;;;;Clayoquot;Oceanography;;;;CLAYOQUOT;Hakai;octobre 1, 2020;will.mcinnes;octobre 1, 2020;will.mcinnes;-125.97768299999996;49.32818300000008
UWT36;-125.945017;49.360883;142;;Herbert;UWT_HERBERT;;;;;Clayoquot;Oceanography;;;;CLAYOQUOT;Hakai;octobre 1, 2020;will.mcinnes;octobre 1, 2020;will.mcinnes;-125.94501699999996;49.36088300000006
UWT37;-125.93865;49.392583;131;;Herbert;UWT_HERBERT;;;;;Clayoquot;Oceanography;;;;CLAYOQUOT;Hakai;octobre 1, 2020;will.mcinnes;octobre 1, 2020;will.mcinnes;-125.93865;49.39258300000006
UWT38;-125.90695;49.4089;110;;Herbert Head;UWT_HERBERT;;;;;Clayoquot;Oceanography;;;;CLAYOQUOT;Hakai;octobre 1, 2020;will.mcinnes;octobre 1, 2020;will.mcinnes;-125.90695;49.408900000000074
UWT39;-126.068383;49.337;105;;Millar Channel South;UWT_HERBERT;;;;;Clayoquot;Oceanography;;;;CLAYOQUOT;Hakai;octobre 1, 2020;will.mcinnes;octobre 1, 2020;will.mcinnes;-126.06838299999998;49.337000000000046
UWT81;-126.085617;49.380133;157;;Millar Channel North;UWT_HERBERT;;;;;Clayoquot;Oceanography;;;;CLAYOQUOT;Hakai;octobre 1, 2020;will.mcinnes;octobre 1, 2020;will.mcinnes;-126.08561699999996;49.38013300000006
UWT40;-125.788317;49.352517;75;;Bedwell Head;UWT_BEDWELL;;;;;Clayoquot;Oceanography;;;;CLAYOQUOT;Hakai;octobre 1, 2020;will.mcinnes;octobre 1, 2020;will.mcinnes;-125.78831699999996;49.352517000000034
UWT41;-125.8046;49.3359;70;;Bedwell;UWT_BEDWELL;;;;;Clayoquot;Oceanography;;;;CLAYOQUOT;Hakai;octobre 1, 2020;will.mcinnes;octobre 1, 2020;will.mcinnes;-125.8046;49.33590000000004
UWT82;-125.810917;49.297833;60;;Bedwell;UWT_BEDWELL;;;;;Clayoquot;Oceanography;;;;CLAYOQUOT;Hakai;octobre 1, 2020;will.mcinnes;octobre 1, 2020;will.mcinnes;-125.81091699999996;49.297833000000026
UWT42;-125.821283;49.270267;60;;Bedwell Mouth;UWT_BEDWELL;;;;;Clayoquot;Oceanography;;;;CLAYOQUOT;Hakai;octobre 1, 2020;will.mcinnes;octobre 1, 2020;will.mcinnes;-125.821283;49.27026700000005
UWT86;-125.94095;49.235567;25;;Hecate Bay;UWT_BEDWELL;;;;;Clayoquot;Oceanography;;;;CLAYOQUOT;Hakai;octobre 1, 2020;will.mcinnes;octobre 1, 2020;will.mcinnes;-125.94095;49.23556700000006
UWT85;-125.875533;49.249517;50;;Cypress Bay;UWT_BEDWELL;;;;;Clayoquot;Oceanography;;;;CLAYOQUOT;Hakai;octobre 1, 2020;will.mcinnes;octobre 1, 2020;will.mcinnes;-125.87553299999996;49.249517000000026
UWT43;-125.757533;49.237517;145;;Warn Bay;UWT_BEDWELL;;;;;Clayoquot;Oceanography;;;;CLAYOQUOT;Hakai;octobre 1, 2020;will.mcinnes;octobre 1, 2020;will.mcinnes;-125.75753299999997;49.237517000000025
UWT44;-125.762633;49.185617;70;;Fortune Channel;UWT_BEDWELL;;;;;Clayoquot;Oceanography;;;;CLAYOQUOT;Hakai;octobre 1, 2020;will.mcinnes;octobre 1, 2020;will.mcinnes;-125.762633;49.18561700000003
UWT47;-125.690317;49.1654;75;;Tranquil Mouth;UWT_TOFINO;;;;;Clayoquot;Oceanography;;;;CLAYOQUOT;Hakai;octobre 1, 2020;will.mcinnes;octobre 1, 2020;will.mcinnes;-125.690317;49.165400000000034
UWT48;-125.674767;49.196433;50;;Tranquil Head;UWT_TOFINO;;;;;Clayoquot;Oceanography;;;;CLAYOQUOT;Hakai;octobre 1, 2020;will.mcinnes;octobre 1, 2020;will.mcinnes;-125.67476699999996;49.19643300000007
UWT51;-125.5982;49.22785;50;;Tofino Head;UWT_TOFINO;;;;;Clayoquot;Oceanography;;;;CLAYOQUOT;Hakai;octobre 1, 2020;will.mcinnes;octobre 1, 2020;will.mcinnes;-125.59819999999996;49.227850000000046
UWT52;-125.598817;49.22525;50;;Tofino Head;UWT_TOFINO;;;;;Clayoquot;Oceanography;;;;CLAYOQUOT;Hakai;octobre 1, 2020;will.mcinnes;octobre 1, 2020;will.mcinnes;-125.59881699999994;49.225250000000074
UWT53;-125.61045;49.208633;94;;Tofino;UWT_TOFINO;;;;;Clayoquot;Oceanography;;;;CLAYOQUOT;Hakai;octobre 1, 2020;will.mcinnes;octobre 1, 2020;will.mcinnes;-125.61044999999996;49.20863300000008
UWT50;-125.64935;49.195817;122;;Tofino;UWT_TOFINO;;;;;Clayoquot;Oceanography;;;;CLAYOQUOT;Hakai;octobre 1, 2020;will.mcinnes;octobre 1, 2020;will.mcinnes;-125.64934999999996;49.195817000000034
UWT54;-125.647567;49.18175;108;;Tofino;UWT_TOFINO;;;;;Clayoquot;Oceanography;;;;CLAYOQUOT;Hakai;octobre 1, 2020;will.mcinnes;octobre 1, 2020;will.mcinnes;-125.64756699999998;49.18175000000008
UWT49;-125.6647;49.161283;83;;Tofino;UWT_TOFINO;;;;;Clayoquot;Oceanography;;;;CLAYOQUOT;Hakai;octobre 1, 2020;will.mcinnes;octobre 1, 2020;will.mcinnes;-125.66469999999998;49.161283000000026
UWT55;-125.6932;49.150917;70;;Tofino;UWT_TOFINO;;;;;Clayoquot;Oceanography;;;;CLAYOQUOT;Hakai;octobre 1, 2020;will.mcinnes;octobre 1, 2020;will.mcinnes;-125.6932;49.15091700000005
UWT46;-125.716567;49.134517;60;;Tofino;UWT_TOFINO;;;;;Clayoquot;Oceanography;;;;CLAYOQUOT;Hakai;octobre 1, 2020;will.mcinnes;octobre 1, 2020;will.mcinnes;-125.71656699999994;49.13451700000007
UWT45;-125.7641;49.125683;47;;Tofino;UWT_TOFINO;;;;;Clayoquot;Oceanography;;;;CLAYOQUOT;Hakai;octobre 1, 2020;will.mcinnes;octobre 1, 2020;will.mcinnes;-125.76409999999998;49.12568300000004
UWT56;-125.797233;49.119433;46;;Tofino Browning Passage;UWT_TOFINO;;;;;Clayoquot;Oceanography;;;;CLAYOQUOT;Hakai;octobre 1, 2020;will.mcinnes;octobre 1, 2020;will.mcinnes;-125.79723299999996;49.11943300000007
UWT57;-125.8458;49.129467;18;;Tofino Browning Passage;UWT_TOFINO;;;;;Clayoquot;Oceanography;;;;CLAYOQUOT;Hakai;octobre 1, 2020;will.mcinnes;octobre 1, 2020;will.mcinnes;-125.84579999999994;49.129467000000034
UWT58;-125.875933;49.141583;15;;Tofino Browning Passage;UWT_TOFINO;;;;;Clayoquot;Oceanography;;;;CLAYOQUOT;Hakai;octobre 1, 2020;will.mcinnes;octobre 1, 2020;will.mcinnes;-125.87593299999996;49.141583000000026
UWT59;-125.91525;49.151517;27;;Tofino Mouth Templar Channel;UWT_TOFINO;;;;;Clayoquot;Oceanography;;;;CLAYOQUOT;Hakai;octobre 1, 2020;will.mcinnes;octobre 1, 2020;will.mcinnes;-125.91524999999996;49.15151700000007
BED10;-125.7793167;49.36201667;0;;Head of Bedwell Sound;CEDAR COAST;;7/2/2019;;;Clayoquot;Oceanography;;;;CLAYOQUOT;Hakai;octobre 1, 2020;will.mcinnes;octobre 1, 2020;will.mcinnes;-125.77931669999998;49.36201667000006
BED9;-125.8042;49.33081667;0;;Bedwell Sound near Bare Bluff;CEDAR COAST;;7/2/2019;;;Clayoquot;Oceanography;;;;CLAYOQUOT;Hakai;octobre 1, 2020;will.mcinnes;octobre 1, 2020;will.mcinnes;-125.80419999999998;49.33081667000005
BED8;-125.8105667;49.30518333;0;;Bedwell Sound;CEDAR COAST;;7/2/2019;;;Clayoquot;Oceanography;;;;CLAYOQUOT;Hakai;octobre 1, 2020;will.mcinnes;octobre 1, 2020;will.mcinnes;-125.81056669999998;49.305183330000034
BED7;-125.8175;49.29286667;0;;Bedwell Sound;CEDAR COAST;;7/2/2019;;;Clayoquot;Oceanography;;;;CLAYOQUOT;Hakai;octobre 1, 2020;will.mcinnes;octobre 1, 2020;will.mcinnes;-125.8175;49.29286667000008
BED6;-125.8243;49.26971667;0;;Bedwell Sound;CEDAR COAST;;7/2/2019;;;Clayoquot;Oceanography;;;;CLAYOQUOT;Hakai;octobre 1, 2020;will.mcinnes;octobre 1, 2020;will.mcinnes;-125.8243;49.26971667000004
BED5;-125.8229333;49.24398333;0;;near Matslet Narrows;CEDAR COAST;;7/2/2019;;;Clayoquot;Oceanography;;;;CLAYOQUOT;Hakai;octobre 1, 2020;will.mcinnes;octobre 1, 2020;will.mcinnes;-125.8229333;49.24398333000005
BED4;-125.8628833;49.24973333;0;;Near Cypress Bay;CEDAR COAST;;7/2/2019;;;Clayoquot;Oceanography;;;;CLAYOQUOT;Hakai;octobre 1, 2020;will.mcinnes;octobre 1, 2020;will.mcinnes;-125.86288329999996;49.249733330000026
BED3;-125.8902333;49.26603333;0;;Cypre estuary;CEDAR COAST;;7/2/2019;;;Clayoquot;Oceanography;;;;CLAYOQUOT;Hakai;octobre 1, 2020;will.mcinnes;octobre 1, 2020;will.mcinnes;-125.89023329999998;49.26603333000003
BED2;-125.9175167;49.25005;0;;West of Saranac Island;CEDAR COAST;;7/2/2019;;;Clayoquot;Oceanography;;;;CLAYOQUOT;Hakai;octobre 1, 2020;will.mcinnes;octobre 1, 2020;will.mcinnes;-125.91751669999996;49.25005000000005
BED1;-125.8983333;49.24171667;0;;East of Saranac Island;CEDAR COAST;;7/2/2019;;;Clayoquot;Oceanography;;;;CLAYOQUOT;Hakai;octobre 1, 2020;will.mcinnes;octobre 1, 2020;will.mcinnes;-125.8983333;49.24171667000007
CP1;-125.97865;49.21498333;0;;Calamus Pass;CEDAR COAST;;7/2/2019;;;Clayoquot;Oceanography;;;;CLAYOQUOT;Hakai;octobre 1, 2020;will.mcinnes;octobre 1, 2020;will.mcinnes;-125.97864999999996;49.214983330000045
CP2;-126.0442;49.21165;0;;West of Vargas;CEDAR COAST;;7/2/2019;;;Clayoquot;Oceanography;;;;CLAYOQUOT;Hakai;octobre 1, 2020;will.mcinnes;octobre 1, 2020;will.mcinnes;-126.0442;49.21165000000008
AB1;-126.0299;49.1769;0;;Ahous Bay;CEDAR COAST;;7/2/2019;;;Clayoquot;Oceanography;;;;CLAYOQUOT;Hakai;octobre 1, 2020;will.mcinnes;octobre 1, 2020;will.mcinnes;-126.02989999999994;49.176900000000046
LE01;-126.0158;49.11708333;0;;offshore;CEDAR COAST;;7/2/2019;;;Clayoquot;Oceanography;;;;CLAYOQUOT;Hakai;octobre 1, 2020;will.mcinnes;octobre 1, 2020;will.mcinnes;-126.01579999999996;49.11708333000007
LE02;-126.0674167;49.07271667;0;;offshore japan;CEDAR COAST;;7/2/2019;;;Clayoquot;Oceanography;;;;CLAYOQUOT;Hakai;octobre 1, 2020;will.mcinnes;octobre 1, 2020;will.mcinnes;-126.06741669999997;49.072716670000034
FCC1;-125.9286167;49.18348333;0;;Father Charles Channel;CEDAR COAST;;7/2/2019;;;Clayoquot;Oceanography;;;;CLAYOQUOT;Hakai;octobre 1, 2020;will.mcinnes;octobre 1, 2020;will.mcinnes;-125.92861669999996;49.18348333000006
HER5;-125.9123667;49.40478333;0;;Head of Herbert;CEDAR COAST;;7/3/2019;;;Clayoquot;Oceanography;;;;CLAYOQUOT;Hakai;octobre 1, 2020;will.mcinnes;octobre 1, 2020;will.mcinnes;-125.91236669999996;49.40478333000004
HER4;-125.9386333;49.39321667;0;;Herbert;CEDAR COAST;;7/3/2019;;;Clayoquot;Oceanography;;;;CLAYOQUOT;Hakai;octobre 1, 2020;will.mcinnes;octobre 1, 2020;will.mcinnes;-125.9386333;49.39321667000007
HER3;-125.9571833;49.3489;0;;Herbert;CEDAR COAST;;7/3/2019;;;Clayoquot;Oceanography;;;;CLAYOQUOT;Hakai;octobre 1, 2020;will.mcinnes;octobre 1, 2020;will.mcinnes;-125.95718329999994;49.34890000000007
HER2;-125.9782333;49.3281;0;;Herbert;CEDAR COAST;;7/3/2019;;;Clayoquot;Oceanography;;;;CLAYOQUOT;Hakai;octobre 1, 2020;will.mcinnes;octobre 1, 2020;will.mcinnes;-125.97823329999994;49.32810000000006
HER1;-126.0120167;49.31531667;0;;Mouth of Herbert;CEDAR COAST;;7/3/2019;;;Clayoquot;Oceanography;;;;CLAYOQUOT;Hakai;octobre 1, 2020;will.mcinnes;octobre 1, 2020;will.mcinnes;-126.01201669999996;49.31531667000007
MC1;-126.0435;49.28973333;0;;Millar Channel;CEDAR COAST;;7/3/2019;;;Clayoquot;Oceanography;;;;CLAYOQUOT;Hakai;octobre 1, 2020;will.mcinnes;octobre 1, 2020;will.mcinnes;-126.0435;49.28973333000005
RC1;-126.1153667;49.23641667;0;;N of Bartlett Island's W Islets;CEDAR COAST;;7/3/2019;;;Clayoquot;Oceanography;;;;CLAYOQUOT;Hakai;octobre 1, 2020;will.mcinnes;octobre 1, 2020;will.mcinnes;-126.11536669999998;49.23641667000004
RC2;-126.07245;49.23653333;0;;NW of Bartlett Island;CEDAR COAST;;7/3/2019;;;Clayoquot;Oceanography;;;;CLAYOQUOT;Hakai;octobre 1, 2020;will.mcinnes;octobre 1, 2020;will.mcinnes;-126.07244999999996;49.23653333000004
RC3;-126.0323333;49.23941667;0;;SE of Bartlett Island;CEDAR COAST;;7/3/2019;;;Clayoquot;Oceanography;;;;CLAYOQUOT;Hakai;octobre 1, 2020;will.mcinnes;octobre 1, 2020;will.mcinnes;-126.03233329999996;49.239416670000026
59637 GAUGINGSTATION;-125.5833282;49.2508316;;;;FGS_WSC;;;;;Quadra;KWP;;;;QUADRA;HAKAI;octobre 1, 2020;will.mcinnes;octobre 1, 2020;will.mcinnes;-125.58332819999998;49.250831600000026
63;-126.24365;49.39965;68;;Sydney & Shelter Confluence;UST_SYDNEY;;;;;;Oceanography;;;;Clayoquot;Hakai;octobre 8, 2020;will.mcinnes;octobre 8, 2020;will.mcinnes;-126.24364999999996;49.399650000000065
64;-126.243967;49.426717;69;;Sydney;UST_SYDNEY;;;;;;Oceanography;;;;Clayoquot;Hakai;octobre 8, 2020;will.mcinnes;octobre 8, 2020;will.mcinnes;-126.24396699999994;49.42671700000005
65;-126.259567;49.437733;68;;Sydney;UST_SYDNEY;;;;;;Oceanography;;;;Clayoquot;Hakai;octobre 8, 2020;will.mcinnes;octobre 8, 2020;will.mcinnes;-126.25956699999996;49.43773300000004
66;-126.270433;49.452383;123;;Sydney & Stewardson Confluence;UST_SYDNEY;;;;;;Oceanography;;;;Clayoquot;Hakai;octobre 8, 2020;will.mcinnes;octobre 8, 2020;will.mcinnes;-126.27043299999995;49.452383000000054
69;-126.2752;49.469967;132;;Sydney;UST_SYDNEY;;;;;;Oceanography;;;;Clayoquot;Hakai;octobre 8, 2020;will.mcinnes;octobre 8, 2020;will.mcinnes;-126.27519999999998;49.469967000000054
70;-126.284767;49.487633;111;;Sydney;UST_SYDNEY;;;;;;Oceanography;;;;Clayoquot;Hakai;octobre 8, 2020;will.mcinnes;octobre 8, 2020;will.mcinnes;-126.284767;49.48763300000007
71;-126.29265;49.502467;82;;Sydney Head;UST_SYDNEY;;;;;;Oceanography;;;;Clayoquot;Hakai;octobre 8, 2020;will.mcinnes;octobre 8, 2020;will.mcinnes;-126.29264999999998;49.50246700000008
72;-126.2156;49.398533;73;;Shelter Mouth;UST_SYDNEY;;;;;;Oceanography;;;;Clayoquot;Hakai;octobre 8, 2020;will.mcinnes;octobre 8, 2020;will.mcinnes;-126.2156;49.39853300000004
73;-126.185617;49.38935;81;;Shelter;UST_SYDNEY;;;;;;Oceanography;;;;Clayoquot;Hakai;octobre 8, 2020;will.mcinnes;octobre 8, 2020;will.mcinnes;-126.18561699999998;49.38935000000003
74;-126.162283;49.39395;92;;Shelter;UST_SYDNEY;;;;;;Oceanography;;;;Clayoquot;Hakai;octobre 8, 2020;will.mcinnes;octobre 8, 2020;will.mcinnes;-126.16228299999996;49.393950000000075
75;-126.136483;49.400533;131;;Shelter Millar Confluence;UST_SYDNEY;;;;;;Oceanography;;;;Clayoquot;Hakai;octobre 8, 2020;will.mcinnes;octobre 8, 2020;will.mcinnes;-126.13648299999994;49.40053300000005
