Station;Long_DD;Lat_DD;Depth;Depth Source;Location;Survey;Site_Statu;note;Region;Program;DataAvaila;Site_start;Site_end;Organization;x;y
1015 689 BOTTOM;"-128,057";"51,685";;land;;LAKEC;;;Central Coast;;;;;HAKAI;"-128,057";"51,685"
1015 689 BOTTOM;"-128,057";"51,685";;land;;LAKEC;;;Central Coast;;;;;HAKAI;"-128,057";"51,685"
1015 689 INLETC;"-128,053";"51,686";;land;;LAKEC;;;Calvert;KWP;;;;HAKAI;"-128,053";"51,686"
1015 689 INLETN;"-128,052";"51,69";;land;;LAKEC;;;Calvert;KWP;;;;HAKAI;"-128,052";"51,69"
1015 689 INLETS;"-128,059";"51,682";;land;;LAKEC;;;Calvert;KWP;;;;HAKAI;"-128,059";"51,682"
1015 689 INLETSE;"-128,056";"51,684";;land;;LAKEC;;;Calvert;KWP;;;;HAKAI;"-128,056";"51,684"
1015 689 OUTLET;"-128,057";"51,692";;land;;LAKEC;;;Central Coast;;;;;HAKAI;"-128,057";"51,692"
1015 OUTLET;"-128,068";"51,691";;land; ; ;Active; ; ;KWP; ;;;HAKAI;"-128,068";"51,691"
1184553;"-128,239";"51,866";"0";chart;;GSS2021;;;;;;;;Hakai;"-128,239";"51,866"
12019113;"-128,188";"51,836";"2";chart;;GSS2021;;;;;;;;Hakai;"-128,188";"51,836"
1230249;"-128,193";"51,917";"39";CHS NONNA10 Bathymetry;;GSS2021;;;;;;;;Hakai;"-128,193";"51,917"
1306809;"-127,665";"51,485";"0";chart;;GSS2021;;;;;;;;Hakai;"-127,665";"51,485"
132969;"-128,322";"52,08";"25";CHS and NRCan Multibeam Echo Sounder Bathymetry;;GSS2021;;;;;;;;Hakai;"-128,321";"52,08"
14714793;"-128,174";"51,864";"1";chart;;GSS2021;;;;;;;;Hakai;"-128,174";"51,864"
151005;"-128,476";"52,01";"37";CHS and NRCan Multibeam Echo Sounder Bathymetry;;GSS2021;;;;;;;;Hakai;"-128,476";"52,01"
1525725;"-128,446";"51,862";"15";chart;;GSS2021;;;;;;;;Hakai;"-128,446";"51,862"
1558665;"-128,073";"51,691";"0";chart;;GSS2021;;;;;;;;Hakai;"-128,073";"51,691"
18568521;"-127,971";"51,442";"1";chart;;GSS2021;;;;;;;;Hakai;"-127,971";"51,442"
1900809;"-128,108";"51,654";"34";CHS NONNA10 Bathymetry;;GSS2021;;;;;;;;Hakai;"-128,108";"51,654"
20612 Outlet;"-127,769";"51,366";"1";chart;;FGS_R;;;Calvert;KWP;;;;HAKAI;"-127,769";"51,366"
20613 Outlet;"-127,757";"51,369";;land;;FGS_R;;;Calvert;KWP;;;;HAKAI;"-127,757";"51,369"
20615 Outlet;"-127,745";"51,377";;land;;FGS_R;;;Calvert;KWP;;;;HAKAI;"-127,745";"51,377"
20623 Outlet;"-127,707";"51,395";;land;;FGS_R;;;Calvert;KWP;;;;HAKAI;"-127,707";"51,395"
20636 Outlet;"-127,661";"51,377";;land;;FGS_R;;;Calvert;KWP;;;;HAKAI;"-127,661";"51,377"
20642 Outlet;"-127,629";"51,431";;land;;FGS_R;;;Calvert;KWP;;;;HAKAI;"-127,629";"51,431"
20643 Outlet;"-127,581";"51,466";;land;;FGS_R;;;Calvert;KWP;;;;HAKAI;"-127,581";"51,466"
2070585;"-127,731";"51,606";"0";chart;;GSS2021;;;;;;;;Hakai;"-127,731";"51,606"
20718 Outlet;"-127,536";"51,492";;land;;FGS_R;;;Calvert;KWP;;;;HAKAI;"-127,536";"51,492"
20720 Outlet;"-127,516";"51,535";;land;;FGS_R;;;Calvert;KWP;;;;HAKAI;"-127,516";"51,535"
20722 Outlet;"-127,515";"51,569";;land;;FGS_R;;;Calvert;KWP;;;;HAKAI;"-127,515";"51,569"
20726 Outlet;"-127,475";"51,624";;land;;FGS_R;;;Calvert;KWP;;;;HAKAI;"-127,475";"51,624"
20727 Outlet;"-127,452";"51,631";;land;;FGS_R;;;Calvert;KWP;;;;HAKAI;"-127,452";"51,631"
20741 Outlet;"-127,355";"51,651";;land;;FGS_R;;;Calvert;KWP;;;;HAKAI;"-127,355";"51,651"
20747 Outlet;"-127,313";"51,667";;land;;FGS_R;;;Calvert;KWP;;;;HAKAI;"-127,313";"51,667"
20754 Outlet;"-127,26";"51,67";;land;;FGS_R;;;Calvert;KWP;;;;HAKAI;"-127,26";"51,67"
20760 Outlet;"-127,29";"51,688";;land;;FGS_R;;;Calvert;KWP;;;;HAKAI;"-127,29";"51,688"
20771C Outlet;"-127,33";"51,73";;land;;FGS_R;;;Calvert;KWP;;;;HAKAI;"-127,33";"51,73"
20771K Outlet;"-127,33";"51,75";;land;;FGS_R;;;Calvert;KWP;;;;HAKAI;"-127,33";"51,75"
20938 Outlet;"-127,505";"51,647";;land;;FGS_R;;;Calvert;KWP;;;;HAKAI;"-127,505";"51,647"
20940 Outlet;"-127,55";"51,641";;land;;FGS_R;;;Calvert;KWP;;;;HAKAI;"-127,55";"51,641"
20947 Outlet;"-127,615";"51,556";;land;;FGS_R;;;Calvert;KWP;;;;HAKAI;"-127,615";"51,556"
20952 Outlet;"-127,687";"51,537";;land;;FGS_R;;;Calvert;KWP;;;;HAKAI;"-127,687";"51,537"
20954 Outlet;"-127,747";"51,538";;land;;FGS_R;;;Calvert;KWP;;;;HAKAI;"-127,747";"51,538"
20980 Outlet;"-127,715";"51,636";;land;;FGS_R;;;Calvert;KWP;;;;HAKAI;"-127,715";"51,636"
2170377;"-128,137";"51,734";"15";chart;;GSS2021;;;;;;;;Hakai;"-128,137";"51,734"
26410 Outlet;"-128,15";"51,644";;land;;FGS_R;;;Calvert;KWP;;;;HAKAI;"-128,15";"51,644"
26468 Outlet;"-127,935";"51,623";;land;;FGS_R;;;Calvert;KWP;;;;HAKAI;"-127,935";"51,623"
26812 Outlet;"-127,602";"51,548";;land;;FGS_R;;;Calvert;KWP;;;;HAKAI;"-127,602";"51,548"
313209;"-127,757";"51,627";;land;;GSS2021;;;;;;;;Hakai;"-127,757";"51,627"
3188601;"-127,75";"51,489";"2";chart;;GSS2021;;;;;;;;Hakai;"-127,75";"51,489"
3203721;"-128,062";"51,761";"0";chart;;GSS2021;;;;;;;;Hakai;"-128,062";"51,761"
34569;"-128,096";"51,646";"0";chart;;GSS2021;;;;;;;;Hakai;"-128,096";"51,646"
3859 GAUGINGSTATION;"-123,146";"49,69";;land;;FGS_WSC;;;Quadra;KWP;;;;HAKAI;"-123,146";"49,69"
3932 GAUGINGSTATION;"-123,64";"49,421";;land;;FGS_WSC;;;Quadra;KWP;;;;HAKAI;"-123,64";"49,421"
39969;"-127,833";"51,598";"3";CHS and NRCan Multibeam Echo Sounder Bathymetry;;GSS2021;;;;;;;;Hakai;"-127,833";"51,598"
4002057;"-128,117";"51,808";"30";chart;;GSS2021;;;;;;;;Hakai;"-128,117";"51,808"
4372281;"-127,691";"51,626";"5";chart;;GSS2021;;;;;;;;Hakai;"-127,691";"51,626"
437625;"-127,779";"51,61";"5";chart;;GSS2021;;;;;;;;Hakai;"-127,779";"51,61"
4745 Outlet;"-125,052";"50,383";;land;;FGS_B;;;Quadra;KWP;;;;HAKAI;"-125,052";"50,383"
4767 Outlet;"-124,972";"50,499";;land;;FGS_B;;;Quadra;KWP;;;;HAKAI;"-124,972";"50,499"
4791 TOWER2;"-124,841";"50,595";;land;;FGS_B;;;Quadra;KWP;;;;HAKAI;"-124,841";"50,595"
4791 TRIB1DS;"-124,852";"50,593";;land;;FGS_B;;;Quadra;KWP;;;;HAKAI;"-124,852";"50,593"
4791 TRIB1US;"-124,852";"50,591";;land;;FGS_B;;;Quadra;KWP;;;;HAKAI;"-124,852";"50,591"
4805 Outlet;"-124,853";"50,665";;land;;FGS_B;;;Quadra;KWP;;;;HAKAI;"-124,853";"50,665"
4809 Outlet;"-124,858";"50,681";"7";chart;;FGS_B;;;Quadra;KWP;;;;HAKAI;"-124,858";"50,681"
4829 Outlet;"-124,862";"50,76";;land;;FGS_B;;;Quadra;KWP;;;;HAKAI;"-124,862";"50,76"
4848 Outlet;"-124,864";"50,825";;land;;FGS_B;;;Quadra;KWP;;;;HAKAI;"-124,864";"50,825"
4889 Outlet;"-124,865";"50,895";;land;;FGS_B;;;Quadra;KWP;;;;HAKAI;"-124,865";"50,895"
4899753;"-128,167";"51,732";"20";chart;;GSS2021;;;;;;;;Hakai;"-128,167";"51,732"
4914 Outlet;"-124,981";"50,813";;land;;FGS_B;;;Quadra;KWP;;;;HAKAI;"-124,981";"50,813"
4968 Outlet;"-124,909";"50,623";"10";chart;;FGS_B;;;Quadra;KWP;;;;HAKAI;"-124,909";"50,623"
5005 Outlet;"-125,107";"50,469";;land;;FGS_B;;;Quadra;KWP;;;;HAKAI;"-125,107";"50,469"
5072121;"-127,841";"51,621";"15";chart;;GSS2021;;;;;;;;Hakai;"-127,841";"51,621"
5209 HEYD1;"-125,579";"50,576";;land;;FGS_Kn;;;Quadra;KWP;;;;HAKAI;"-125,579";"50,576"
5209 HEYD2;"-125,596";"50,573";;land;;FGS_Kn;;;Quadra;KWP;;;;HAKAI;"-125,596";"50,573"
5270265;"-127,804";"51,359";"30";chart;;GSS2021;;;;;;;;Hakai;"-127,804";"51,359"
529209;"-127,68";"51,493";"10";chart;;GSS2021;;;;;;;;Hakai;"-127,68";"51,493"
5299 TUNA1;"-125,967";"50,493";;land;;FGS_Kn;;;Quadra;KWP;;;;HAKAI;"-125,967";"50,493"
5322 FULL1;"-125,929";"50,564";;land;;FGS_Kn;;;Quadra;KWP;;;;HAKAI;"-125,929";"50,564"
5559 GLEN1;"-125,716";"50,65";;land;;FGS_Kn;;;Quadra;KWP;;;;HAKAI;"-125,716";"50,65"
5559 GLEN2;"-125,725";"50,654";;land;;FGS_Kn;;;Quadra;KWP;;;;HAKAI;"-125,725";"50,654"
5559 TOMB1;"-125,723";"50,649";;land;;FGS_Kn;;;Quadra;KWP;;;;HAKAI;"-125,723";"50,649"
55637 GAUGINGSTATION;"-126,579";"50,44";;land;;FGS_WSC;;;Quadra;KWP;;;;HAKAI;"-126,579";"50,44"
5688 OUTLET;"-125,544";"51,101";;land;;FGS_KN;;;Quadra;KWP;;;;HAKAI;"-125,544";"51,101"
5693 GAUGINGSTATION;"-125,594";"51,145";;land;;FGS_WSC;;;Quadra;KWP;;;;HAKAI;"-125,594";"51,145"
5722 OUTLET;"-125,625";"51,027";;land;;FGS_KN;;;Quadra;KWP;;;;HAKAI;"-125,625";"51,027"
5819 OUTLET;"-125,686";"50,782";;land;;FGS_KN;;;Quadra;KWP;;;;HAKAI;"-125,686";"50,782"
5850 OUTLET;"-125,826";"50,705";;land;;FGS_KN;;;Quadra;KWP;;;;HAKAI;"-125,826";"50,705"
5881 LULL1;"-126,024";"50,706";;land;;FGS_KN;;;Quadra;KWP;;;;HAKAI;"-126,024";"50,706"
59376 GAUGINGSTATION;"-124,969";"48,893";;land;;FGS_WSC;;;Quadra;KWP;;;;HAKAI;"-124,969";"48,893"
59377 GAUGINGSTATION;"-124,998";"48,916";;land;;FGS_WSC;;;Quadra;KWP;;;;HAKAI;"-124,998";"48,916"
5941305;"-127,725";"51,502";"5";chart;;GSS2021;;;;;;;;Hakai;"-127,725";"51,502"
59637 GAUGINGSTATION;"-125,583";"49,251";;land;;FGS_WSC;;;Quadra;KWP;;;;HAKAI;"-125,583";"49,251"
59637 GAUGINGSTATION;"-125,583";"49,251";;land;;FGS_WSC;;;Quadra;KWP;;;;HAKAI;"-125,583";"49,251"
6192 GAUGINGSTATION;"-126,118";"51,002";;land;;FGS_WSC;;;Quadra;KWP;;;;HAKAI;"-126,118";"51,002"
6252 GAUGINGSTATION;"-126,475";"51,103";;land;;FGS_WSC;;;Quadra;KWP;;;;HAKAI;"-126,475";"51,103"
626 OUTLET;"-128,121";"51,642";;land; ; ;Active; ;Calvert; ; ;;;HAKAI;"-128,121";"51,642"
6490377;"-128,113";"51,833";"30";chart;;GSS2021;;;;;;;;Hakai;"-128,113";"51,833"
68539 GAUGINGSTATION;"-132,138";"53,253";;land;;FGS_WSC;;;Quadra;KWP;;;;HAKAI;"-132,138";"53,253"
693 892 BOTTOM;"-127,997";"51,642";;land;;LAKEC;;;Central Coast;;;;;HAKAI;"-127,997";"51,642"
693 892 BOTTOM;"-127,997";"51,642";;land;;LAKEC;;;Central Coast;;;;;HAKAI;"-127,997";"51,642"
693 892 INLETS;"-127,999";"51,641";;land;;LAKEC;;;Calvert;KWP;;;;HAKAI;"-127,999";"51,641"
693 892 INLETSE;"-127,995";"51,641";;land;;LAKEC;;;Calvert;KWP;;;;HAKAI;"-127,995";"51,641"
693 892 OUTLET;"-127,998";"51,645";;land;;LAKEC;;;Central Coast;;;;;HAKAI;"-127,998";"51,645"
693 931 BOTTOM;"-128,002";"51,638";;land;;LAKEC;;;;KWP;;;;HAKAI;"-128,002";"51,638"
693 931 BOTTOM;"-128,002";"51,638";;land;;LAKEC;;;;KWP;;;;HAKAI;"-128,002";"51,638"
693 931 INLET;"-127,999";"51,636";;land;;LAKEC;;;;KWP;;;;HAKAI;"-127,999";"51,636"
693 931 OUTLET;"-128,001";"51,64";;land;;LAKEC;;;;KWP;;;;HAKAI;"-128,001";"51,64"
693 964 INLETSOUTH;"-127,991";"51,632";;land;;LAKEC;;;;KWP;;;;HAKAI;"-127,991";"51,632"
693 964 INLETWEST;"-127,993";"51,632";;land;;LAKEC;;;;KWP;;;;HAKAI;"-127,993";"51,632"
693 964 OUTLET;"-127,993";"51,634";;land;;LAKEC;;;;KWP;;;;HAKAI;"-127,993";"51,634"
693 984 BOTTOM;"-127,978";"51,631";;land;;LAKEC;;;;KWP;;;;HAKAI;"-127,978";"51,631"
693 984 BOTTOM;"-127,978";"51,631";;land;;LAKEC;;;;KWP;;;;HAKAI;"-127,978";"51,631"
693 984 INLET;"-127,975";"51,63";;land;;LAKEC;;;;KWP;;;;HAKAI;"-127,975";"51,63"
693 984 OUTLET;"-127,986";"51,631";;land;;LAKEC;;;;KWP;;;;HAKAI;"-127,986";"51,631"
693 OUTLET;"-127,996";"51,648";;land; ; ;Active; ;Calvert; ; ;;;HAKAI;"-127,996";"51,648"
69781 GAUGINGSTATION;"-132,21";"53,614";;land;;FGS_WSC;;;Quadra;KWP;;;;HAKAI;"-132,21";"53,614"
703 OUTLET;"-128,026";"51,649";;land;;;Active;;Calvert;;;;;HAKAI;"-128,026";"51,649"
708 877 BOTTOM;"-128,068";"51,647";;land;;LAKEC;;;;KWP;;;;HAKAI;"-128,068";"51,647"
708 877 BOTTOM;"-128,068";"51,647";;land;;LAKEC;;;;KWP;;;;HAKAI;"-128,068";"51,647"
708 877 INLET;"-128,068";"51,647";;land;;LAKEC;;;;KWP;;;;HAKAI;"-128,068";"51,647"
708 877 OUTLET;"-128,068";"51,648";;land;;LAKEC;;;;KWP;;;;HAKAI;"-128,068";"51,648"
708 951 INLETS;"-128,07";"51,623";;land;;LAKEC;;;Calvert;KWP;;;;HAKAI;"-128,07";"51,623"
708 951 INLETSE;"-128,067";"51,625";;land;;LAKEC;;;Calvert;KWP;;;;HAKAI;"-128,067";"51,625"
708 951 INLETW;"-128,071";"51,628";;land;;LAKEC;;;Calvert;KWP;;;;HAKAI;"-128,071";"51,628"
708 951 OUTLET;"-128,067";"51,636";;land;;LAKEC;;;Central Coast;;;;;HAKAI;"-128,067";"51,636"
708 951 SURFACE;"-128,065";"51,632";;land;;LAKEC;;;Central Coast;;;;;HAKAI;"-128,065";"51,632"
708 951 SURFACE;"-128,065";"51,632";;land;;LAKEC;;;Central Coast;;;;;HAKAI;"-128,065";"51,632"
708 OUTLET;"-128,069";"51,649";;land; ; ;Active; ;Calvert; ; ;;;HAKAI;"-128,069";"51,649"
73279 GAUGINGSTATION;"-132,051";"53,057";;land;;FGS_WSC;;;Quadra;KWP;;;;HAKAI;"-132,051";"53,057"
7455033;"-127,697";"51,507";"0";chart;;GSS2021;;;;;;;;Hakai;"-127,697";"51,507"
79401;"-128,281";"51,923";"49";CHS NONNA10 Bathymetry;;GSS2021;;;;;;;;Hakai;"-128,281";"51,923"
808713;"-128,101";"51,744";"5";chart;;GSS2021;;;;;;;;Hakai;"-128,101";"51,744"
819 OUTLET;"-128,042";"51,657";;land; ; ;Active; ;Calvert; ; ;;;HAKAI;"-128,042";"51,657"
8395 Outlet;"-125,238";"50,262";;land;;FGS_B;;;Quadra;KWP;;;;HAKAI;"-125,238";"50,262"
8405 Outlet;"-125,188";"50,165";;land;;FGS_B;;;Quadra;KWP;;;;HAKAI;"-125,188";"50,165"
8407 Outlet;"-125,219";"50,14";;land;;FGS_B;;;Quadra;KWP;;;;HAKAI;"-125,219";"50,14"
842205;"-128,466";"52,034";"42";CHS and NRCan Multibeam Echo Sounder Bathymetry;;GSS2021;;;;;;;;Hakai;"-128,466";"52,034"
844 OUTLET;"-128,002";"51,658";;land; ; ;Active; ;Calvert; ; ;;;HAKAI;"-128,002";"51,658"
844 WSN844;"-127,998";"51,661";;land;;RAIN_C;;;Calvert;;;;;HAKAI;"-127,997";"51,661"
9245 Outlet;"-125,182";"50,261";;land;;FGS_B;;;Quadra;KWP;;;;HAKAI;"-125,182";"50,261"
9257 Outlet;"-125,11";"50,304";;land;;FGS_B;;;Quadra;KWP;;;;HAKAI;"-125,11";"50,304"
9265 Outlet;"-125,134";"50,243";;land;;FGS_B;;;Quadra;KWP;;;;HAKAI;"-125,134";"50,243"
9572 Outlet;"-125,243";"50,321";;land;;FGS_B;;;Quadra;KWP;;;;HAKAI;"-125,243";"50,321"
AB1;"-126,03";"49,177";"24";CHS NONNA10 Bathymetry;Ahous Bay;CEDAR COAST;;;Clayoquot;Oceanography;;7/2/2019 8:00 PM;;Hakai;"-126,03";"49,177"
ALCOVE;"-128,116";"51,675";"2";CHS NONNA10 Bathymetry;Choked Pass; ; ; ;Central Coast;Oceanography; ;;;HAKAI;"-128,116";"51,675"
ARMS01;"-128,074";"51,701";"1";chart;;ARMS;;;;;;;;Hakai;"-128,074";"51,701"
ARMS02;"-128,009";"51,731";"7";chart;;ARMS;;;;;;;;Hakai;"-128,009";"51,731"
ARMS03;"-127,997";"51,734";"5";chart;;ARMS;;;;;;;;Hakai;"-127,997";"51,734"
ARMS04;"-128,071";"51,744";"22";CHS NONNA10 Bathymetry;;ARMS;;;;;;;;Hakai;"-128,071";"51,744"
ARMS05;"-128,151";"51,649";"2";chart;;ARMS;;;;;;;;Hakai;"-128,151";"51,649"
ARMS06;"-128,155";"51,649";"2";chart;;ARMS;;;;;;;;Hakai;"-128,155";"51,649"
ARMS07;"-128,095";"51,665";"3";chart;;ARMS;;;;;;;;Hakai;"-128,095";"51,665"
ARMS08;"-128,14";"51,667";"7";CHS NONNA10 Bathymetry;;ARMS;;;;;;;;Hakai;"-128,14";"51,667"
ARMS09;"-128,126";"51,68";"4";CHS NONNA10 Bathymetry;;ARMS;;;;;;;;Hakai;"-128,126";"51,68"
ARMS10;"-128,254";"51,804";"2";chart;;ARMS;;;;;;;;Hakai;"-128,254";"51,804"
ARMS11;"-128,237";"51,814";"3";chart;;ARMS;;;;;;;;Hakai;"-128,237";"51,814"
ARMS12;"-128,264";"51,842";"0";chart;;ARMS;;;;;;;;Hakai;"-128,264";"51,842"
Bear BEAR1;"-124,955";"50,834";;land;;FGS_B;;;Quadra;KWP;;;;HAKAI;"-124,955";"50,834"
BED1;"-125,898";"49,242";"33";CHS NONNA10 Bathymetry;East of Saranac Island;CEDAR COAST;;;Clayoquot;Oceanography;;7/2/2019 8:00 PM;;Hakai;"-125,898";"49,242"
BED10;"-125,779";"49,362";"1";chart;Head of Bedwell Sound;CEDAR COAST;;;Clayoquot;Oceanography;;7/2/2019 8:00 PM;;Hakai;"-125,779";"49,362"
BED2;"-125,918";"49,25";"43";CHS NONNA10 Bathymetry;West of Saranac Island;CEDAR COAST;;;Clayoquot;Oceanography;;7/2/2019 8:00 PM;;Hakai;"-125,918";"49,25"
BED3;"-125,89";"49,266";"25";CHS and NRCan Multibeam Echo Sounder Bathymetry;Cypre estuary;CEDAR COAST;;;Clayoquot;Oceanography;;7/2/2019 8:00 PM;;Hakai;"-125,89";"49,266"
BED4;"-125,863";"49,25";"58";CHS NONNA10 Bathymetry;Near Cypress Bay;CEDAR COAST;;;Clayoquot;Oceanography;;7/2/2019 8:00 PM;;Hakai;"-125,863";"49,25"
BED5;"-125,823";"49,244";"105";CHS NONNA10 Bathymetry;near Matslet Narrows;CEDAR COAST;;;Clayoquot;Oceanography;;7/2/2019 8:00 PM;;Hakai;"-125,823";"49,244"
BED6;"-125,824";"49,27";"61";CHS NONNA10 Bathymetry;Bedwell Sound;CEDAR COAST;;;Clayoquot;Oceanography;;7/2/2019 8:00 PM;;Hakai;"-125,824";"49,27"
BED7;"-125,818";"49,293";"63";CHS NONNA10 Bathymetry;Bedwell Sound;CEDAR COAST;;;Clayoquot;Oceanography;;7/2/2019 8:00 PM;;Hakai;"-125,818";"49,293"
BED8;"-125,811";"49,305";"61";CHS NONNA10 Bathymetry;Bedwell Sound;CEDAR COAST;;;Clayoquot;Oceanography;;7/2/2019 8:00 PM;;Hakai;"-125,811";"49,305"
BED9;"-125,804";"49,331";"86";CHS NONNA10 Bathymetry;Bedwell Sound near Bare Bluff;CEDAR COAST;;;Clayoquot;Oceanography;;7/2/2019 8:00 PM;;Hakai;"-125,804";"49,331"
BRK01;"-127,889";"51,914";"143";CHS NONNA10 Bathymetry;Burke Channel;Burke Channel;Not Active; ;Central Coast;Oceanography; ;12/31/2013 7:00 PM;;HAKAI;"-127,889";"51,914"
BRK02;"-127,843";"51,93";"135";CHS NONNA10 Bathymetry;Burke Channel;Burke Channel;Not Active; ;Central Coast;Oceanography; ;12/31/2013 7:00 PM;;HAKAI;"-127,843";"51,93"
BRK03;"-127,8";"51,946";"130";CHS NONNA10 Bathymetry;Burke Channel;Burke Channel;Not Active; ;Central Coast;Oceanography; ;12/31/2013 7:00 PM;;HAKAI;"-127,8";"51,946"
BRK04;"-127,766";"51,955";"37";CHS NONNA10 Bathymetry;Burke Channel;Burke Channel;Not Active; ;Central Coast;Oceanography; ;12/31/2013 7:00 PM;;HAKAI;"-127,766";"51,955"
BRK05;"-127,698";"51,958";"210";CHS NONNA10 Bathymetry;Burke Channel;Burke Channel;Not Active; ;Central Coast;Oceanography; ;12/31/2013 7:00 PM;;HAKAI;"-127,698";"51,958"
BS1;"-124,867";"49,608";"37";CHS and NRCan Multibeam Echo Sounder Bathymetry;Baynes Sound;;;Pacific Salmon Foundation's Citizen Science Program, pCO2, TCO2 , Salinity, PSF CTD;;Ocean Acidification;;7/26/2016 3:00 AM;10/17/2016 3:00 AM;HAKAI;"-124,867";"49,608"
BS1_DBOS;"-124,876";"49,613";"35";CHS and NRCan Multibeam Echo Sounder Bathymetry;;Deep Bay Oceanography Survey (Sarah Leduc);;Close to BS1 PSF station, north end of Denman;;Ocean Acidification;;;;;"-124,876";"49,613"
BS14;"-124,899";"49,645";"34";CHS and NRCan Multibeam Echo Sounder Bathymetry;Baynes Sound;Deep Bay Oceanography Survey (Sarah Leduc);;North end, near Courtenay, off Manatee Holdings;;Ocean Acidification;;;;;"-124,899";"49,645"
BS15;"-124,857";"49,556";"45";CHS and NRCan Multibeam Echo Sounder Bathymetry;Baynes Sound;Deep Bay Oceanography Survey (Sarah Leduc);;Mid Channel;;Ocean Acidification;;;;;"-124,857";"49,556"
BS16;"-124,805";"49,516";"52";CHS and NRCan Multibeam Echo Sounder Bathymetry;Baynes Sound;Deep Bay Oceanography Survey (Sarah Leduc);;Mid channel off mac's oysters;;Ocean Acidification;;;;;"-124,805";"49,516"
BS17;"-124,754";"49,477";"91";CHS and NRCan Multibeam Echo Sounder Bathymetry;Baynes Sound;Deep Bay Oceanographic Survey (Sarah Leduc);;South end, just south of BS7;;Ocean Acidification;;;;;"-124,754";"49,477"
BS3;"-124,667";"49,692";"222";CHS and NRCan Multibeam Echo Sounder Bathymetry;Baynes Sound;;;Pacific Salmon Foundation's Citizen Science Program pCO2, TCO2, salinity, PSF CTD;;Ocean Acidification;;7/26/2016 3:00 AM;10/17/2016 3:00 AM;HAKAI;"-124,667";"49,692"
BS6;"-124,605";"49,485";"67";CHS and NRCan Multibeam Echo Sounder Bathymetry;Baynes Sound;;;Pacific Salmon Foundation's Citizen Science Program pCO2, TCO2, salinity, PSF CTD;;Ocean Acidification;;7/26/2016 3:00 AM;10/17/2016 3:00 AM;HAKAI;"-124,605";"49,485"
BS7;"-124,767";"49,483";"59";CHS and NRCan Multibeam Echo Sounder Bathymetry;Baynes Sound;;;Pacific Salmon Foundation's Citizen Science Program pCO2, TCO2, salinity, PSF CTD;;Ocean Acidification;;7/26/2016 3:00 AM;10/17/2016 3:00 AM;HAKAI;"-124,767";"49,483"
BU1;"-125,08";"50,37";"602";CHS and NRCan Multibeam Echo Sounder Bathymetry;Bute Inlet;;;Pacific Salmon Foundation's Citizen Science Program pCO2, TCO2, salinity, PSF CTD;;Oceanography;;;;HAKAI;"-125,08";"50,37"
BU2;"-125,077";"50,468";"648";CHS and NRCan Multibeam Echo Sounder Bathymetry;Bute Inlet;;;DFO + Achiever 2019;;Oceanography;;;;HAKAI;"-125,077";"50,468"
BU3;"-124,967";"50,528";"645";CHS and NRCan Multibeam Echo Sounder Bathymetry;Bute Inlet;;;DFO + Achiever 2019;;Oceanography;;;;HAKAI;"-124,967";"50,528"
BU4;"-124,903";"50,588";"631";CHS and NRCan Multibeam Echo Sounder Bathymetry;Bute Inlet;;;DFO + Achiever 2019;;Oceanography;;;;HAKAI;"-124,903";"50,588"
BU5;"-124,889";"50,678";"561";CHS and NRCan Multibeam Echo Sounder Bathymetry;Bute Inlet;;;DFO + Achiever 2019;;Oceanography;;;;HAKAI;"-124,889";"50,678"
BU6;"-124,9";"50,755";"471";CHS and NRCan Multibeam Echo Sounder Bathymetry;Bute Inlet;;;DFO + Achiever 2019;;Oceanography;;;;HAKAI;"-124,9";"50,755"
BU7;"-124,892";"50,83";"347";CHS and NRCan Multibeam Echo Sounder Bathymetry;Bute Inlet;;;DFO + Achiever 2019;;Oceanography;;;;HAKAI;"-124,892";"50,83"
BU8;"-124,847";"50,888";"264";CHS and NRCan Multibeam Echo Sounder Bathymetry;Bute Inlet;;;DFO + Achiever 2019;;Oceanography;;;;HAKAI;"-124,847";"50,888"
BUR1;"-127,947";"51,903";"346";CHS and NRCan Multibeam Echo Sounder Bathymetry;;BURKE CHANNEL;;;Central Coast;Oceanography;;;;HAKAI;"-127,947";"51,903"
BUR10;"-126,952";"52,347";"440";chart;;BURKE CHANNEL;;;Central Coast;Oceanography;;;;HAKAI;"-126,952";"52,347"
BUR11;"-126,833";"52,38";"250";chart;;BURKE CHANNEL;;;Central Coast;Oceanography;;;;HAKAI;"-126,833";"52,38"
BUR12;"-126,967";"52,287";"440";chart;;BURKE CHANNEL;;;Central Coast;Oceanography;;;;HAKAI;"-126,967";"52,287"
BUR13;"-126,907";"52,192";"270";chart;;BURKE CHANNEL;;;Central Coast;Oceanography;;;;HAKAI;"-126,907";"52,192"
BUR14;"-126,785";"52,123";"290";chart;;BURKE CHANNEL;;;Central Coast;Oceanography;;;;HAKAI;"-126,785";"52,123"
BUR15;"-126,705";"52,053";"225";chart;;BURKE CHANNEL;;;Central Coast;Oceanography;;;;HAKAI;"-126,705";"52,053"
BUR16;"-126,688";"52,003";"60";chart;;BURKE CHANNEL;;;Central Coast;Oceanography;;;;HAKAI;"-126,688";"52,003"
BUR1A ;"-127,48";"52,2";"596";chart;;BURKE CHANNEL;;;Central Coast;Oceanography;;;;HAKAI;"-127,48";"52,2"
BUR2;"-127,68";"51,978";"239";CHS NONNA10 Bathymetry;;BURKE CHANNEL;;;Central Coast;Oceanography;;;;HAKAI;"-127,68";"51,978"
BUR3;"-127,657";"52,062";"340";chart;;BURKE CHANNEL;;;Central Coast;Oceanography;;;;HAKAI;"-127,657";"52,062"
BUR4;"-127,587";"52,137";"425";chart;;BURKE CHANNEL;;;Central Coast;Oceanography;;;;HAKAI;"-127,587";"52,137"
BUR5;"-127,48";"52,2";"580";chart;;BURKE CHANNEL;;;Central Coast;Oceanography;;;;HAKAI;"-127,48";"52,2"
BUR6;"-127,377";"52,238";"580";chart;;BURKE CHANNEL;;;Central Coast;Oceanography;;;;HAKAI;"-127,377";"52,238"
BUR7;"-127,257";"52,275";"570";chart;;BURKE CHANNEL;;;Central Coast;Oceanography;;;;HAKAI;"-127,257";"52,275"
BUR8;"-127,18";"52,33";"550";chart;;BURKE CHANNEL;;;Central Coast;Oceanography;;;;HAKAI;"-127,18";"52,33"
BUR9;"-127,047";"52,322";"510";chart;;BURKE CHANNEL;;;Central Coast;Oceanography;;;;HAKAI;"-127,047";"52,322"
CAMPCREEK WATERINTAKE;"-124,865";"50,954";;land;;FGS_B;;;Quadra;KWP;;;;HAKAI;"-124,865";"50,954"
CP1;"-125,979";"49,215";"20";CHS NONNA10 Bathymetry;Calamus Pass;CEDAR COAST;;;Clayoquot;Oceanography;;7/2/2019 8:00 PM;;Hakai;"-125,979";"49,215"
CP2;"-126,044";"49,212";"16";CHS NONNA10 Bathymetry;West of Vargas;CEDAR COAST;;;Clayoquot;Oceanography;;7/2/2019 8:00 PM;;Hakai;"-126,044";"49,212"
CUMSACK CSMK1;"-124,897";"50,934";;land;;FGS_B;;;Quadra;KWP;;;;HAKAI;"-124,897";"50,934"
D01;"-124,747";"49,961";"77";CHS and NRCan Multibeam Echo Sounder Bathymetry;;SEMSP;Not Active;;Discovery Islands;SEMSP;;;;HAKAI;"-124,747";"49,961"
D02;"-124,851";"50,079";"112";CHS and NRCan Multibeam Echo Sounder Bathymetry;;SEMSP;Not Active;;Discovery Islands;SEMSP;;;;HAKAI;"-124,851";"50,079"
D03;"-125,075";"50,118";"13";CHS and NRCan Multibeam Echo Sounder Bathymetry;;SEMSP;Not Active;;Discovery Islands;SEMSP;;;;HAKAI;"-125,075";"50,118"
D04;"-125,147";"49,996";"12";CHS NONNA10 Bathymetry; ;SEMSP;Not Active; ;Discovery Islands;SEMSP; ;;;HAKAI;"-125,147";"49,996"
D05;"-124,889";"50,166";"44";CHS and NRCan Multibeam Echo Sounder Bathymetry;;SEMSP;Not Active;;Discovery Islands;SEMSP;;;;HAKAI;"-124,889";"50,166"
D06;"-125,273";"50,1";"31";CHS NONNA10 Bathymetry;;SEMSP;Not Active;;Discovery Islands;SEMSP;;;;HAKAI;"-125,273";"50,1"
D07;"-125,143";"50,191";"23";CHS NONNA10 Bathymetry; ;SEMSP;Not Active; ;Discovery Islands;SEMSP; ;;;HAKAI;"-125,143";"50,191"
D08;"-125,041";"50,32";"97";CHS and NRCan Multibeam Echo Sounder Bathymetry; ;SEMSP;Not Active; ;Discovery Islands;SEMSP; ;;;HAKAI;"-125,041";"50,32"
D09;"-125,33";"50,307";"60";CHS and NRCan Multibeam Echo Sounder Bathymetry;Okisollo Channel;SEMSP;Active; ;Discovery Islands;SEMSP; ;;;HAKAI;"-125,33";"50,307"
D10;"-125,279";"50,444";"254";chart;Hall Point;SEMSP;Active;;Discovery Islands;SEMSP;;;;HAKAI;"-125,279";"50,444"
D11;"-125,456";"50,348";"7";chart; ;SEMSP;Not Active; ;Discovery Islands;SEMSP; ;;;HAKAI;"-125,456";"50,348"
D12;"-125,211";"50,117";"65";CHS NONNA10 Bathymetry;;SEMSP;Not Active;;Discovery Islands;SEMSP;;;;HAKAI;"-125,211";"50,117"
D20;"-125,365";"50,462";"49";chart; ;SEMSP;Not Active; ;Discovery Islands;SEMSP; ;;;HAKAI;"-125,365";"50,462"
D21;"-125,373";"50,391";"61";CHS and NRCan Multibeam Echo Sounder Bathymetry; ;SEMSP;Not Active; ;Discovery Islands;SEMSP; ;;;HAKAI;"-125,373";"50,391"
D22;"-125,397";"50,244";"20";chart;McMullen Point;SEMSP;Active; ;Discovery Islands;SEMSP; ;;;HAKAI;"-125,397";"50,244"
D24;"-125,118";"50,238";"58";CHS and NRCan Multibeam Echo Sounder Bathymetry; ;SEMSP;Not Active; ;Discovery Islands;SEMSP; ;;;HAKAI;"-125,118";"50,238"
D25;"-124,917";"50,022";"14";CHS and NRCan Multibeam Echo Sounder Bathymetry; ;SEMSP;Not Active; ;Discovery Islands;SEMSP; ;;;HAKAI;"-124,917";"50,022"
D26;"-125,165";"49,917";"16";chart; ;SEMSP;Not Active; ;Discovery Islands;SEMSP; ;;;HAKAI;"-125,165";"49,917"
D27;"-125,378";"50,274";"15";chart;Granite Point;SEMSP;Active; ;Discovery Islands;SEMSP; ;;;HAKAI;"-125,378";"50,274"
D28;"-125,613";"50,39";"65";chart; ;SEMSP;Not Active; ;Discovery Islands;SEMSP; ;;;HAKAI;"-125,613";"50,39"
D30;"-125,313";"50,291";"36";CHS and NRCan Multibeam Echo Sounder Bathymetry;Chonat Bay;;Active;;Discovery Islands;SEMSP;;;;HAKAI;"-125,313";"50,291"
D35;"-125,267";"50,456";"30";CHS and NRCan Multibeam Echo Sounder Bathymetry;Denham Bay;SEMSP;Active;;Discovery Islands;;;;;HAKAI;"-125,267";"50,456"
DAWSONS;"-127,592";"51,574";"15";chart;Bickle Channel;Rivers Inlet V2;Active; ;Central Coast;Oceanography; ;12/31/2012 7:00 PM;;HAKAI;"-127,592";"51,574"
DE1;"-127,832";"52,195";"490";chart;;DEAN;;;Central Coast;Oceanography;;;;HAKAI;"-127,832";"52,195"
DE10;"-126,993";"52,833";"150";chart;;DEAN;;;Central Coast;Oceanography;;;;HAKAI;"-126,993";"52,833"
DE11;"-127,053";"52,868";"30";chart;;DEAN;;;Central Coast;Oceanography;;;;HAKAI;"-127,053";"52,868"
DE2;"-127,746";"52,26";"440";chart;;DEAN;;;Central Coast;Oceanography;;;;HAKAI;"-127,746";"52,26"
DE3;"-127,608";"52,283";"300";chart;;DEAN;;;Central Coast;Oceanography;;;;HAKAI;"-127,608";"52,283"
DE4;"-127,468";"52,342";"450";chart;;DEAN;;;Central Coast;Oceanography;;;;HAKAI;"-127,468";"52,342"
DE5;"-127,398";"52,409";"520";chart;;DEAN;;;Central Coast;Oceanography;;;;HAKAI;"-127,398";"52,409"
DE6;"-127,258";"52,454";"510";chart;;DEAN;;;Central Coast;Oceanography;;;;HAKAI;"-127,258";"52,454"
DE7;"-127,205";"52,553";"400";chart;;DEAN;;;Central Coast;Oceanography;;;;HAKAI;"-127,205";"52,553"
DE8;"-127,072";"52,627";"450";chart;;DEAN;;;Central Coast;Oceanography;;;;HAKAI;"-127,072";"52,627"
DE9;"-126,955";"52,733";"450";chart;;DEAN;;;Central Coast;Oceanography;;;;HAKAI;"-126,955";"52,733"
DFO1;"-127,606";"51,459";"290";chart;Rivers Inlet;Rivers Inlet V2;Active; ;Central Coast;Oceanography; ;;;HAKAI;"-127,605";"51,459"
DFO2;"-127,558";"51,521";"325";chart;Rivers Inlet;Rivers Inlet;Active; ;Central Coast;Oceanography; ;12/31/2012 7:00 PM;;HAKAI;"-127,558";"51,521"
DFO3;"-127,531";"51,601";"320";chart;Rivers Inlet;Rivers Inlet V2;Active; ;Central Coast;Oceanography; ;;;HAKAI;"-127,531";"51,601"
DFO4;"-127,449";"51,649";"300";chart;Rivers Inlet;Rivers Inlet V2;Active; ;Central Coast;Oceanography; ;;;HAKAI;"-127,449";"51,649"
DFO5;"-127,312";"51,677";"190";chart;Rivers Inlet;Rivers Inlet V2;Active; ;Central Coast;Oceanography; ;;;HAKAI;"-127,312";"51,677"
DI10;"-125,327";"50,304";"81";CHS and NRCan Multibeam Echo Sounder Bathymetry;Okisollo;F;Not Active; ;Discovery Islands;Oceanography; ;12/31/2014 7:00 PM;;HAKAI;"-125,327";"50,304"
DI11;"-125,431";"50,345";"316";CHS and NRCan Multibeam Echo Sounder Bathymetry;Johnstone Strait;F;Not Active; ;Discovery Islands;Oceanography; ;12/31/2014 7:00 PM;;HAKAI;"-125,431";"50,345"
DI12;"-125,383";"50,24";"225";CHS and NRCan Multibeam Echo Sounder Bathymetry;Discovery Passage;F;Not Active; ;Discovery Islands;Oceanography; ;12/31/2014 7:00 PM;;HAKAI;"-125,383";"50,24"
DI13;"-125,235";"50,045";"79";CHS and NRCan Multibeam Echo Sounder Bathymetry;Discovery Passage;F;Active; ;Discovery Islands;Oceanography; ;12/31/2014 7:00 PM;;HAKAI;"-125,235";"50,045"
DI18;"-125,293";"50,1";"69";CHS and NRCan Multibeam Echo Sounder Bathymetry; ;QOM F;Active; ;Discovery Islands;Oceanography; ;;;HAKAI;"-125,293";"50,1"
DI19;"-125,367";"50,197";"198";CHS and NRCan Multibeam Echo Sounder Bathymetry;;QOM F;Active;;Discovery Islands;Oceanography;;;;HAKAI;"-125,367";"50,197"
DI20;"-125,385";"50,261";"244";CHS and NRCan Multibeam Echo Sounder Bathymetry;;QOM F;Active;aka DFO23;Discovery Islands;Oceanography;;;;HAKAI;"-125,385";"50,261"
DI21;"-125,331";"50,295";"106";CHS and NRCan Multibeam Echo Sounder Bathymetry;;QOM F;Active;aka OkChan;Discovery Islands;Oceanography;;;;HAKAI;"-125,331";"50,295"
DI24;"-125,401";"50,282";"213";CHS and NRCan Multibeam Echo Sounder Bathymetry; ;QOM F;Active; ;Discovery Islands;Oceanography; ;6/13/2016 8:00 PM;;HAKAI;"-125,401";"50,282"
DI25;"-125,266";"50,321";"72";CHS and NRCan Multibeam Echo Sounder Bathymetry;Barnes Bay;QOMF;Active;;Discovery Islands;Oceanography;;5/12/2017 3:00 AM;;HAKAI;"-125,266";"50,321"
DI6;"-125,186";"50,397";"125";CHS NONNA10 Bathymetry;Dent;F;Not Active; ;Discovery Islands;Oceanography; ;12/31/2014 7:00 PM;;HAKAI;"-125,186";"50,397"
DI7;"-125,301";"50,448";"312";CHS and NRCan Multibeam Echo Sounder Bathymetry;Nodales;F;Not Active; ;Discovery Islands;Oceanography; ;12/31/2014 7:00 PM;;HAKAI;"-125,301";"50,448"
DI8;"-125,357";"50,373";"207";CHS and NRCan Multibeam Echo Sounder Bathymetry;Nodales;F;Not Active; ;Discovery Islands;Oceanography; ;12/31/2014 7:00 PM;;HAKAI;"-125,357";"50,373"
Drew DREW1;"-125,192";"50,088";;land;;FGS_Q;;;Quadra;KWP;;;;HAKAI;"-125,192";"50,088"
ECP01;"-128,069";"51,647";;land;;ECP;;;;KWP;;7/17/2013 2:12 PM;;HAKAI;"-128,069";"51,647"
ECP02;"-128,065";"51,647";;land;;ECP;;;;KWP;;7/17/2013 5:23 PM;;HAKAI;"-128,065";"51,647"
ECP03;"-128,04";"51,666";;land;;ECP;;;;KWP;;7/18/2013 3:00 PM;;HAKAI;"-128,04";"51,666"
ECP04;"-128,042";"51,66";;land;;ECP;;;;KWP;;9/10/2013 12:31 PM;;HAKAI;"-128,042";"51,66"
ECP05;"-127,991";"51,642";;land;;ECP;;;;KWP;;7/19/2013 3:08 PM;;HAKAI;"-127,991";"51,642"
ECP06;"-127,993";"51,641";;land;;ECP;;;;KWP;;7/19/2013 5:11 PM;;HAKAI;"-127,993";"51,641"
ECP07;"-128,039";"51,679";;land;;ECP;;;;KWP;;7/20/2013 1:02 PM;;HAKAI;"-128,039";"51,679"
ECP08;"-128,097";"51,635";;land;;ECP;;;;KWP;;7/20/2013 6:31 PM;;HAKAI;"-128,097";"51,635"
ECP09;"-128,061";"51,643";;land;;ECP;;;;KWP;;7/21/2013 4:32 PM;;HAKAI;"-128,061";"51,643"
ECP10;"-128,059";"51,643";;land;;ECP;;;;KWP;;7/21/2013 6:30 PM;;HAKAI;"-128,059";"51,643"
ECP11;"-128,129";"51,653";;land;;ECP;;;;KWP;;7/22/2013 12:06 PM;;HAKAI;"-128,129";"51,653"
ECP12;"-128,039";"51,664";;land;;ECP;;;;KWP;;9/10/2013 2:50 PM;;HAKAI;"-128,039";"51,664"
ECP13;"-128,038";"51,664";;land;;ECP;;;;KWP;;6/12/2014 7:42 PM;;HAKAI;"-128,038";"51,664"
ECP14;"-128,042";"51,658";;land;;ECP;;;;KWP;;9/4/2013 1:58 PM;;HAKAI;"-128,042";"51,658"
ECP15;"-128,12";"51,641";;land;;ECP;;;;KWP;;9/4/2013 7:43 PM;;HAKAI;"-128,12";"51,641"
ECP16;"-128,118";"51,64";;land;;ECP;;;;KWP;;9/5/2013 5:15 PM;;HAKAI;"-128,118";"51,64"
ECP17;"-128,117";"51,64";;land;;ECP;;;;KWP;;9/6/2013 1:27 PM;;HAKAI;"-128,117";"51,64"
ECP18;"-128,118";"51,638";;land;;ECP;;;;KWP;;9/6/2013 4:54 PM;;HAKAI;"-128,118";"51,638"
ECP19;"-128,13";"51,652";;land;;ECP;;;;KWP;;9/11/2013 5:10 PM;;HAKAI;"-128,13";"51,652"
ECP20;"-128,129";"51,651";;land;;ECP;;;;KWP;;7/8/2014 7:15 PM;;HAKAI;"-128,129";"51,651"
ECP21;"-128,13";"51,653";;land;;ECP;;;;KWP;;7/11/2014 4:48 PM;;HAKAI;"-128,13";"51,653"
ECP22;"-128,037";"51,666";;land;;ECP;;;;KWP;;7/9/2014 3:24 PM;;HAKAI;"-128,037";"51,666"
ECP23;"-128,041";"51,661";;land;;ECP;;;;KWP;;7/9/2014 6:48 PM;;HAKAI;"-128,041";"51,661"
ECP24;"-128,042";"51,662";;land;;ECP;;;;KWP;;8/28/2015 1:35 PM;;HAKAI;"-128,042";"51,662"
ECP25;"-128,064";"51,645";;land;;ECP;;;;KWP;;7/10/2014 2:36 PM;;HAKAI;"-128,064";"51,645"
ECP26;"-128,064";"51,648";;land;;ECP;;;;KWP;;7/10/2014 5:13 PM;;HAKAI;"-128,064";"51,648"
ECP27;"-128,114";"51,639";;land;;ECP;;;;KWP;;7/12/2014 3:38 PM;;HAKAI;"-128,114";"51,639"
ECP28;"-128,115";"51,641";;land;;ECP;;;;KWP;;7/12/2014 6:27 PM;;HAKAI;"-128,115";"51,641"
ECP29;"-128,122";"51,641";;land;;ECP;;;;KWP;;7/27/2015 1:59 PM;;HAKAI;"-128,122";"51,641"
ECP30;"-128,023";"51,643";;land;;ECP;;;;KWP;;9/18/2015 1:23 PM;;HAKAI;"-128,023";"51,643"
ELLIOT ELTC1;"-124,665";"50,859";;land;;;;;Quadra;Watersheds;;;;HAKAI;"-124,665";"50,859"
ELLIOT ELTC2;"-124,671";"50,862";;land;;;;;Quadra;Watersheds;;;;HAKAI;"-124,671";"50,862"
ELLIOT RUSTYCREEK;"-124,672";"50,866";;land;;;;;Quadra;Watersheds;;;;HAKAI;"-124,672";"50,866"
ELLIOT RUSTYPOOL;"-124,688";"50,868";;land;;;;;Quadra;Watersheds;;;;HAKAI;"-124,688";"50,868"
FC1;"-127,917";"52,047";"369";CHS and NRCan Multibeam Echo Sounder Bathymetry;;DEAN;;;Central Coast;Oceanography;;;;HAKAI;"-127,917";"52,047"
FC2;"-127,881";"52,118";"495";CHS and NRCan Multibeam Echo Sounder Bathymetry;;DEAN;;;Central Coast;Oceanography;;;;HAKAI;"-127,881";"52,118"
FC3;"-127,863";"52,165";"573";CHS and NRCan Multibeam Echo Sounder Bathymetry;;DEAN;;;Central Coast;Oceanography;;;;HAKAI;"-127,863";"52,165"
FCC1;"-125,929";"49,183";"34";CHS NONNA10 Bathymetry;Father Charles Channel;CEDAR COAST;;;Clayoquot;Oceanography;;7/2/2019 8:00 PM;;Hakai;"-125,929";"49,183"
FHE02;"-127,754";"51,614";"180";CHS and NRCan Multibeam Echo Sounder Bathymetry;Fish Egg Inlet;South Herring;Active; ;Central Coast;Oceanography; ;12/31/2012 7:00 PM;;HAKAI;"-127,754";"51,614"
FHE04;"-127,828";"51,656";"25";chart;Illahie Inlet;South Herring;Active; ;Central Coast;Oceanography; ;12/31/2012 7:00 PM;;HAKAI;"-127,828";"51,656"
FZH01;"-127,896";"51,639";"294";CHS and NRCan Multibeam Echo Sounder Bathymetry;Fitz Hugh Sound;Kwakshua;Active; ;Central Coast;Oceanography; ;12/31/2012 7:00 PM;;HAKAI;"-127,896";"51,639"
FZH02;"-127,871";"51,668";"18";CHS and NRCan Multibeam Echo Sounder Bathymetry;Fitz Hugh Sound;South Herring;Active; ;Central Coast;Oceanography; ;12/31/2012 7:00 PM;;HAKAI;"-127,871";"51,668"
FZH03;"-127,884";"51,692";"25";chart;Fitz Hugh Sound;South Herring;Active; ;Central Coast;Oceanography; ;12/31/2012 7:00 PM;;HAKAI;"-127,884";"51,692"
FZH04;"-127,955";"51,821";"311";CHS and NRCan Multibeam Echo Sounder Bathymetry;Fitz Hugh Sound;Koeye;Not Active; ;Central Coast;Oceanography; ;12/31/2012 7:00 PM;;HAKAI;"-127,955";"51,821"
FZH07;"-127,937";"51,703";"330";CHS and NRCan Multibeam Echo Sounder Bathymetry;Fitz Hugh Sound;Koeye;Active; ;Central Coast;Oceanography; ;12/31/2012 7:00 PM;;HAKAI;"-127,937";"51,703"
FZH08;"-127,944";"51,759";"379";CHS and NRCan Multibeam Echo Sounder Bathymetry;Fitz Hugh Sound;Koeye;Active; ;Central Coast;Oceanography; ;12/31/2012 7:00 PM;;HAKAI;"-127,944";"51,759"
FZH09;"-127,982";"51,896";"302";CHS and NRCan Multibeam Echo Sounder Bathymetry;Fitz Hugh Sound;Burke Channel;Not Active; ;Central Coast;Oceanography; ;12/31/2013 7:00 PM;;HAKAI;"-127,982";"51,896"
FZH10;"-127,935";"51,902";"341";CHS and NRCan Multibeam Echo Sounder Bathymetry;Fitz Hugh Sound;Burke Channel;Not Active; ;Central Coast;Oceanography; ;12/31/2013 7:00 PM;;HAKAI;"-127,935";"51,902"
FZH11;"-127,796";"51,498";"185";CHS and NRCan Multibeam Echo Sounder Bathymetry;Fitz Hugh Sound; ;Not Active; ;Central Coast;Oceanography; ;;;HAKAI;"-127,796";"51,498"
FZH12;"-127,892";"51,528";"107";CHS NONNA10 Bathymetry;Fitz Hugh Sound; ;Not Active; ;Central Coast;Oceanography; ;;;HAKAI;"-127,892";"51,528"
FZH13;"-127,852";"51,572";"232";CHS and NRCan Multibeam Echo Sounder Bathymetry;Fitz Hugh Sound; ;Active; ;Central Coast;Oceanography; ;12/31/2014 7:00 PM;;HAKAI;"-127,852";"51,572"
FZH14;"-127,976";"51,75";"421";CHS and NRCan Multibeam Echo Sounder Bathymetry;;GLIDER - CALVERT LINE - FZH TO QCS;;;;;;;;Hakai;"-127,976";"51,75"
GOG1;"-128,469";"51,925";"0";chart;;GSS2021;;;;;;;;Hakai;"-128,469";"51,925"
GOLDEN;"-128,213";"51,903";"2";chart;Golden Islands; ; ; ;Central Coast;Oceanography; ;;;HAKAI;"-128,213";"51,903"
GOOSE;"-128,46";"51,92";"5";chart;Goose Island; ; ; ;Central Coast;Oceanography; ;;;HAKAI;"-128,46";"51,92"
Ha1;"-127,555";"51,697";"317";CHS and NRCan Multibeam Echo Sounder Bathymetry;;;;IOS Historical Site;Central Coast;Oceanography;;;;;"-127,555";"51,697"
HAB2;"-128,14";"51,664";"1";chart;;GSS2021;;;;;;;;Hakai;"-128,14";"51,664"
HAB4;"-128,079";"51,665";"55";chart;;GSS2021;;;;;;;;Hakai;"-128,079";"51,665"
HAK1;"-128,231";"51,711";"141";CHS NONNA10 Bathymetry;;;Active;DFO mooring deployed July 6, 2016;Central Coast;Oceanography Sensors;;7/6/2016 3:00 AM;;HAKAI;"-128,231";"51,711"
HER1;"-126,012";"49,315";"111";CHS NONNA10 Bathymetry;Mouth of Herbert;CEDAR COAST;;;Clayoquot;Oceanography;;7/3/2019 8:00 PM;;Hakai;"-126,012";"49,315"
HER2;"-125,978";"49,328";"133";CHS NONNA10 Bathymetry;Herbert;CEDAR COAST;;;Clayoquot;Oceanography;;7/3/2019 8:00 PM;;Hakai;"-125,978";"49,328"
HER3;"-125,957";"49,349";"140";CHS NONNA10 Bathymetry;Herbert;CEDAR COAST;;;Clayoquot;Oceanography;;7/3/2019 8:00 PM;;Hakai;"-125,957";"49,349"
HER4;"-125,939";"49,393";"130";CHS NONNA10 Bathymetry;Herbert;CEDAR COAST;;;Clayoquot;Oceanography;;7/3/2019 8:00 PM;;Hakai;"-125,939";"49,393"
HER5;"-125,912";"49,405";"127";CHS NONNA10 Bathymetry;Head of Herbert;CEDAR COAST;;;Clayoquot;Oceanography;;7/3/2019 8:00 PM;;Hakai;"-125,912";"49,405"
HKP01;"-128,079";"51,718";"302";CHS and NRCan Multibeam Echo Sounder Bathymetry;Hakai Pass;Koeye;Active; ;Central Coast;Oceanography; ;;;HAKAI;"-128,079";"51,718"
HKP03;"-128,164";"51,702";"120";CHS NONNA10 Bathymetry;Hakai Pass;Queen Charlotte Sound, Ver.1;Active; ;Central Coast;Oceanography; ;12/31/2012 7:00 PM;;HAKAI;"-128,164";"51,702"
HKP04;"-128,007";"51,743";"429";CHS NONNA10 Bathymetry;Hakai Pass;Koeye;Active; ;Central Coast;Oceanography; ;12/31/2012 7:00 PM;;HAKAI;"-128,007";"51,743"
HKP05;"-128,123";"51,709";"229";CHS and NRCan Multibeam Echo Sounder Bathymetry;;;;;Central Coast;Oceanography;;;;HAKAI;"-128,123";"51,709"
HKP06;"-128,041";"51,73";"390";CHS and NRCan Multibeam Echo Sounder Bathymetry;;;;;Central Coast;Oceanography;;;;HAKAI;"-128,041";"51,73"
HOMATHKO HOMA1;"-124,868";"50,953";;land;;FGS_B;;;Quadra;KWP;;;;HAKAI;"-124,868";"50,953"
HOMATHKO HOMA2;"-124,901";"50,956";;land;;FGS_B;;;Quadra;KWP;;;;HAKAI;"-124,901";"50,956"
HOMATHKO HOMA3;"-124,919";"50,989";;land;;FGS_B;;;Quadra;KWP;;;;HAKAI;"-124,919";"50,989"
HOMATHKO_TRIB T5KM1;"-124,908";"50,975";;land;;FGS_B;;;;KWP;;;;HAKAI;"-124,908";"50,975"
Hyacinthe HYAC1;"-125,254";"50,133";;land;;FGS_Q;;;Quadra;KWP;;;;HAKAI;"-125,254";"50,133"
IA;"-128,118";"51,673";"4";CHS NONNA10 Bathymetry;Choked Pass; ; ;a.k.a. Inner Ang;Central Coast;Oceanography; ;;;HAKAI;"-128,118";"51,673"
ID;"-128,118";"51,675";"4";CHS NONNA10 Bathymetry;Choked Pass; ; ;a.k.a. Inner Derek;Central Coast;Oceanography; ;;;HAKAI;"-128,118";"51,675"
INNERSAN;"-128,115";"51,678";"0";CHS NONNA10 Bathymetry; ; ; ; ; ; ; ;;;HAKAI;"-128,115";"51,678"
IS;"-128,115";"51,678";"1";CHS NONNA10 Bathymetry;Choked Pass; ; ;a.k.a. Inner Sandspit;Central Coast;Oceanography; ;;;HAKAI;"-128,114";"51,678"
IT;"-128,12";"51,675";"4";CHS NONNA10 Bathymetry;Choked Pass; ; ;a.k.a. Inner Tristan;Central Coast;Oceanography; ;;;HAKAI;"-128,119";"51,675"
J01;"-126,722";"50,578";"20";chart;;SEMSP;Not Active;;Johnstone Strait;SEMSP;;;;HAKAI;"-126,722";"50,578"
J02;"-126,703";"50,599";"33";chart;;SEMSP;Active;;Johnstone Strait;SEMSP;;;;HAKAI;"-126,703";"50,599"
J03;"-126,672";"50,547";"10";chart;;SEMSP;Active;;Johnstone Strait;SEMSP;;;;HAKAI;"-126,672";"50,547"
J04;"-126,388";"50,526";"27";chart;;SEMSP;Not Active;;Johnstone Strait;SEMSP;;;;HAKAI;"-126,388";"50,526"
J05;"-126,213";"50,499";"45";chart;;SEMSP;Not Active;;Johnstone Strait;SEMSP;;;;HAKAI;"-126,213";"50,499"
J06;"-126,034";"50,475";"14";chart;;SEMSP;Not Active;;Johnstone Strait;SEMSP;;;;HAKAI;"-126,034";"50,475"
J07;"-126,166";"50,457";"49";chart;;SEMSP;Not Active;;Johnstone Strait;SEMSP;;;;HAKAI;"-126,166";"50,457"
J08;"-126,41";"50,481";"5";chart;;SEMSP;Not Active;;Johnstone Strait;SEMSP;;;;HAKAI;"-126,41";"50,481"
J09;"-126,815";"50,544";"35";chart;;SEMSP;Active;;Johnstone Strait;SEMSP;;;;HAKAI;"-126,815";"50,544"
J10;"-126,735";"50,558";"28";chart;;SEMSP;Not Active;;Johnstone Strait;SEMSP;;;;HAKAI;"-126,735";"50,558"
J11;"-126,777";"50,539";"47";chart;;SEMSP;Active;;Johnstone Strait;SEMSP;;;;HAKAI;"-126,777";"50,539"
J12;"-126,728";"50,526";"30";chart;;SEMSP;Not Active;;Johnstone Strait;SEMSP;;;;HAKAI;"-126,728";"50,526"
J13;"-126,632";"50,538";"26";chart;;SEMSP;Not Active;;Johnstone Strait;SEMSP;;;;HAKAI;"-126,632";"50,538"
JEN SITE;"-128,126";"51,68";"3";chart; ; ; ; ; ; ; ;;;HAKAI;"-128,126";"51,68"
JS1;"-126,765";"50,62";"152";CHS and NRCan Multibeam Echo Sounder Bathymetry;Queen Charlotte Sound;Johnstone Strait;Active; ;North Johnstone Strait;Oceanography; ;12/31/2014 7:00 PM;;HAKAI;"-126,765";"50,62"
JS10;"-126,338";"50,485";"250";CHS and NRCan Multibeam Echo Sounder Bathymetry;Johnstone Stait;Johnstone Strait;Not Active; ;North Johnstone Strait;Oceanography; ;12/31/2014 7:00 PM;;HAKAI;"-126,338";"50,485"
JS11;"-126,237";"50,486";"378";CHS and NRCan Multibeam Echo Sounder Bathymetry;Johnstone Stait;Johnstone Strait;Not Active; ;North Johnstone Strait;Oceanography; ;12/31/2014 7:00 PM;;HAKAI;"-126,237";"50,486"
JS12;"-126,596";"50,511";"418";CHS and NRCan Multibeam Echo Sounder Bathymetry;Johnstone Stait;Johnstone Strait;Active; ;North Johnstone Strait;Oceanography; ;12/31/2014 7:00 PM;;HAKAI;"-126,596";"50,511"
JS2;"-126,696";"50,548";"300";chart;Blackney Pass;Johnstone Strait;Active;Year Round Survey Station;North Johnstone Strait;Oceanography; ;12/31/2014 7:00 PM;;HAKAI;"-126,696";"50,548"
JS3;"-126,338";"50,501";"312";CHS and NRCan Multibeam Echo Sounder Bathymetry;Johnstone Stait;Johnstone Strait;Active; ;North Johnstone Strait;Oceanography; ;12/31/2014 7:00 PM;;HAKAI;"-126,338";"50,501"
JS4;"-126,137";"50,47";"320";CHS and NRCan Multibeam Echo Sounder Bathymetry;Johnstone Stait;Johnstone Strait;Not Active; ;North Johnstone Strait;Oceanography; ;12/31/2014 7:00 PM;;HAKAI;"-126,137";"50,47"
JS5;"-126,699";"50,585";"145";CHS and NRCan Multibeam Echo Sounder Bathymetry;Johnstone Stait;Johnstone Strait;Active; ;North Johnstone Strait;Oceanography; ;12/31/2014 7:00 PM;;HAKAI;"-126,699";"50,585"
JS6;"-126,707";"50,528";"359";CHS and NRCan Multibeam Echo Sounder Bathymetry;Johnstone Stait;Johnstone Strait;Not Active; ;North Johnstone Strait;Oceanography; ;12/31/2014 7:00 PM;;HAKAI;"-126,707";"50,528"
JS7;"-126,504";"50,5";"386";CHS and NRCan Multibeam Echo Sounder Bathymetry;Johnstone Stait;Johnstone Strait;Active; ;North Johnstone Strait;Oceanography; ;12/31/2014 7:00 PM;;HAKAI;"-126,504";"50,5"
JS8;"-126,338";"50,509";"257";CHS and NRCan Multibeam Echo Sounder Bathymetry;Johnstone Stait;Johnstone Strait;Not Active; ;North Johnstone Strait;Oceanography; ;12/31/2014 7:00 PM;;HAKAI;"-126,338";"50,509"
JS9;"-126,338";"50,493";"369";CHS and NRCan Multibeam Echo Sounder Bathymetry;Johnstone Stait;Johnstone Strait;Not Active; ;North Johnstone Strait;Oceanography; ;12/31/2014 7:00 PM;;HAKAI;"-126,338";"50,493"
JSPP;"-126,635";"50,538";"53";CHS and NRCan Multibeam Echo Sounder Bathymetry;Johnstone Strait;Johnstone Strait;Active; ;North Johnstone Strait;Oceanography; ;12/31/2014 7:00 PM;;HAKAI;"-126,635";"50,538"
KC1;"-128,129";"51,655";"3";CHS NONNA10 Bathymetry;Kwakshua Channel;Kwakshua;Active; ;Central Coast;Oceanography; ;12/31/2012 7:00 PM;;HAKAI;"-128,129";"51,655"
KC10;"-127,952";"51,651";"359";CHS and NRCan Multibeam Echo Sounder Bathymetry;Fitz Hugh Sound;Kwakshua;Active; ;Central Coast;Oceanography; ;12/31/2012 7:00 PM;;HAKAI;"-127,952";"51,651"
KC10 BUOY;"-127,967";"51,65";"284";CHS and NRCan Multibeam Echo Sounder Bathymetry;;;;Proposed location as of October 2017;;Oceanography Sensors;;;;HAKAI;"-127,967";"51,65"
KC11;"-128,025";"51,651";"97";CHS and NRCan Multibeam Echo Sounder Bathymetry;Kwakshua Channel;SOMS;Active; ;Central Coast;Oceanography; ;12/31/2012 7:00 PM;;HAKAI;"-128,025";"51,651"
KC12;"-128,07";"51,65";"10";chart;Kwakshua Channel;SOMS;Active; ;Central Coast;Oceanography; ;12/31/2012 7:00 PM;;HAKAI;"-128,07";"51,65"
KC13;"-128,12";"51,647";"3";CHS NONNA10 Bathymetry;Kwakshua Channel;SOMS;Active; ;Central Coast;Oceanography; ;12/31/2012 7:00 PM;;HAKAI;"-128,12";"51,647"
KC14;"-127,996";"51,649";"32";CHS and NRCan Multibeam Echo Sounder Bathymetry;Kwakshua Channel;SOMS;Active; ;Central Coast;Oceanography; ;12/31/2012 7:00 PM;;HAKAI;"-127,996";"51,649"
KC15;"-128,003";"51,657";"20";chart;Kwakshua Channel;SOMS;Active; ;Central Coast;Oceanography; ;12/31/2012 7:00 PM;;HAKAI;"-128,003";"51,657"
KC16;"-128,042";"51,656";"35";chart;Kwakshua Channel;SOMS;Active; ;Central Coast;Oceanography; ;12/31/2012 7:00 PM;;HAKAI;"-128,042";"51,656"
KC17;"-128,103";"51,652";"38";CHS NONNA10 Bathymetry;Kwakshua Channel;Primary Production;Active; ;Central Coast;Oceanography; ;;;HAKAI;"-128,103";"51,652"
KC4;"-128,115";"51,655";"22";CHS NONNA10 Bathymetry;Kwakshua Channel;Kwakshua;Active; ;Central Coast;Oceanography; ;12/31/2012 7:00 PM;;HAKAI;"-128,115";"51,655"
KC7;"-128,046";"51,654";"169";CHS and NRCan Multibeam Echo Sounder Bathymetry;Kwakshua Channel;Kwakshua;Active; ;Central Coast;Oceanography; ;12/31/2012 7:00 PM;;HAKAI;"-128,046";"51,654"
KC8;"-128,002";"51,652";"225";CHS and NRCan Multibeam Echo Sounder Bathymetry;Kwakshua Channel;Kwakshua;Active; ;Central Coast;Oceanography; ;12/31/2012 7:00 PM;;HAKAI;"-128,002";"51,652"
KELP08;"-128,155";"51,649";"0";chart;Second;Nearshore;;;Central Coast;Oceanography;;;;HAKAI;"-128,155";"51,649"
KELP09;"-128,14";"51,667";"3";CHS NONNA10 Bathymetry;North Beach;Nearshore;;;Central Coast;Oceanography;;;;HAKAI;"-128,14";"51,667"
KELP10;"-128,2";"51,801";"0";chart;Manley;Nearshore;;;Central Coast;Oceanography;;;;HAKAI;"-128,2";"51,801"
KELP13;"-128,088";"51,702";"5";chart;;KELP;;;;;;;;Hakai;"-128,087";"51,702"
KFPC01;"-128,432";"51,9";"10";chart;South Tip of Gosling Island;Outer Shores;Not Active; ;Central Coast;Oceanography; ;12/31/2012 7:00 PM;;HAKAI;"-128,432";"51,9"
KFPC04;"-128,259";"51,806";"15";chart;Queens Sound;Outer Shores;Not Active; ;Central Coast;Oceanography; ;12/31/2012 7:00 PM;;HAKAI;"-128,259";"51,806"
KFPC06;"-128,234";"51,811";"15";chart;Lyte Group;Outer Shores;Not Active; ;Central Coast;Oceanography; ;12/31/2012 7:00 PM;;HAKAI;"-128,234";"51,811"
KFPN03;"-128,399";"52,045";"12";chart;Golby Passage;Outer Shores;Not Active; ;Central Coast;Oceanography; ;12/31/2012 7:00 PM;;HAKAI;"-128,399";"52,045"
KFPN07;"-128,261";"51,961";"14";CHS NONNA10 Bathymetry;Queens Sound;Outer Shores;Not Active; ;Central Coast;Oceanography; ;12/31/2012 7:00 PM;;HAKAI;"-128,261";"51,961"
KFPS01;"-128,143";"51,682";"128";CHS NONNA10 Bathymetry;Starfish Island, off west side;Queen Charlotte Sound;Not Active; ;Central Coast;Oceanography; ;12/31/2012 7:00 PM;;HAKAI;"-128,143";"51,682"
KFPS04;"-128,117";"51,68";"11";CHS NONNA10 Bathymetry;Choked Pass;Queen Charlotte Sound, Ver. 2;Active; ;Central Coast;Oceanography; ;12/31/2012 7:00 PM;;HAKAI;"-128,117";"51,68"
KFPS05;"-128,113";"51,685";"29";CHS NONNA10 Bathymetry; ;Queen Charlotte Sound;Not Active; ;Central Coast;Oceanography; ;12/31/2012 7:00 PM;;HAKAI;"-128,113";"51,685"
KFPS06;"-128,114";"51,694";"87";CHS and NRCan Multibeam Echo Sounder Bathymetry; ;Queen Charlotte Sound, Ver. 2;Active; ;Central Coast;Oceanography; ;12/31/2012 7:00 PM;;HAKAI;"-128,114";"51,694"
KFPS07;"-128,114";"51,694";"87";CHS and NRCan Multibeam Echo Sounder Bathymetry;;Queen Charlotte Sound, Ver. 2;Active;;Central Coast;Oceanography;;12/31/2012 3:00 AM;;HAKAI;"-128,114";"51,694"
KFPS08;"-128,124";"51,68";"13";CHS NONNA10 Bathymetry; ;Queen Charlotte Sound, Ver. 2;Active; ;Central Coast;Oceanography; ;12/31/2012 7:00 PM;;HAKAI;"-128,124";"51,68"
KIL03;"-128,154";"51,869";"81";CHS NONNA10 Bathymetry;Entrance to Goodlad Bay;North Herring;Active; ;Central Coast;Oceanography; ;12/31/2012 7:00 PM;;HAKAI;"-128,154";"51,869"
KIL07;"-128,129";"51,841";"110";chart;Watt Bay;North Herring;Active; ;Central Coast;Oceanography; ;12/31/2012 7:00 PM;;HAKAI;"-128,129";"51,841"
Kildidt Sound;"-128,079";"51,718";"303";CHS and NRCan Multibeam Echo Sounder Bathymetry;Hakai Pass;Koeye; ; ;Central Coast;Oceanography; ;12/31/2012 7:00 PM;;HAKAI;"-128,079";"51,718"
KIS2;"-128,239";"51,837";"0";chart;;GSS2021;;;;;;;;Hakai;"-128,239";"51,837"
KME03;"-127,878";"51,704";"10";chart;?;South Herring;Active; ;Central Coast;Oceanography; ;12/31/2012 7:00 PM;;HAKAI;"-127,878";"51,704"
KN1;"-126,422";"50,635";"253";CHS and NRCan Multibeam Echo Sounder Bathymetry;;Achiever 2019;;;;Oceanography;;;;Hakai;"-126,422";"50,635"
KN10;"-125,558";"50,977";"331";CHS and NRCan Multibeam Echo Sounder Bathymetry;;Achiever 2019;;;;Oceanography;;;;Hakai;"-125,558";"50,977"
KN11;"-125,567";"51,042";"207";CHS and NRCan Multibeam Echo Sounder Bathymetry;;Achiever 2019;;;;Oceanography;;;;Hakai;"-125,567";"51,042"
KN2;"-126,183";"50,655";"180";CHS and NRCan Multibeam Echo Sounder Bathymetry;;Achiever 2019;;;;Oceanography;;;;Hakai;"-126,183";"50,655"
KN3;"-126,067";"50,67";"183";chart;;Achiever 2019;;;;Oceanography;;;;Hakai;"-126,067";"50,67"
KN4;"-125,937";"50,682";"438";CHS and NRCan Multibeam Echo Sounder Bathymetry;;Achiever 2019;;;;Oceanography;;;;Hakai;"-125,937";"50,682"
KN5;"-125,783";"50,693";"394";CHS and NRCan Multibeam Echo Sounder Bathymetry;;Achiever 2019;;;;Oceanography;;;;Hakai;"-125,783";"50,693"
KN6;"-125,685";"50,755";"517";CHS and NRCan Multibeam Echo Sounder Bathymetry;;Achiever 2019;;;;Oceanography;;;;Hakai;"-125,685";"50,755"
KN7;"-125,622";"50,802";"514";CHS and NRCan Multibeam Echo Sounder Bathymetry;;Achiever 2019;;;;Oceanography;;;;Hakai;"-125,622";"50,802"
KN8;"-125,645";"50,872";"487";CHS and NRCan Multibeam Echo Sounder Bathymetry;;Achiever 2019;;;;Oceanography;;;;Hakai;"-125,645";"50,872"
KN9;"-125,547";"50,905";"411";CHS and NRCan Multibeam Echo Sounder Bathymetry;;Achiever 2019;;;;Oceanography;;;;Hakai;"-125,547";"50,905"
KOEYE KR_TRIB;"-127,818";"51,776";;land;;FGS_Y;;;;KWP;;;;HAKAI;"-127,818";"51,776"
Koeye KR01;"-127,809";"51,776";;land;;FGS_Y;;;Calvert;KWP;;;;HAKAI;"-127,809";"51,776"
KOEYE KR02;"-127,807";"51,774";;land;;FGS_Y;;;;KWP;;;;HAKAI;"-127,807";"51,774"
KWY01;"-127,88";"51,775";"10";chart;Koeye River;Koeye;Active; ;Central Coast;Oceanography; ;12/31/2012 7:00 PM;;HAKAI;"-127,88";"51,775"
KWY02;"-127,89";"51,772";"218";CHS and NRCan Multibeam Echo Sounder Bathymetry;Fitz Hugh Sound;Koeye;Active; ;Central Coast;Oceanography; ;12/31/2012 7:00 PM;;HAKAI;"-127,89";"51,772"
KWY03;"-127,914";"51,766";"368";CHS and NRCan Multibeam Echo Sounder Bathymetry;Fitz Hugh Sound;Koeye;Active; ;Central Coast;Oceanography; ;12/31/2012 7:00 PM;;HAKAI;"-127,914";"51,766"
LD1;"-124,822";"49,997";"117";CHS and NRCan Multibeam Echo Sounder Bathymetry;Lund;;;Pacific Salmon Foundation's Citizen Science Program oCO2, TCO2, salinity, PSF CTD;;Ocean Acidification;;8/9/2016 3:00 AM;10/17/2016 3:00 AM;HAKAI;"-124,822";"49,997"
LD2;"-124,857";"49,963";"160";CHS and NRCan Multibeam Echo Sounder Bathymetry;Lund;;;Pacific Salmon Foundation's Citizen Science Program oCO2, TCO2, salinity, PSF CTD;;Ocean Acidification;;8/9/2016 3:00 AM;10/17/2016 3:00 AM;HAKAI;"-124,857";"49,963"
LD3;"-124,882";"50,02";"268";CHS and NRCan Multibeam Echo Sounder Bathymetry;Lund;;;Pacific Salmon Foundation's Citizen Science Program oCO2, TCO2, salinity, PSF CTD;;Ocean Acidification;;8/9/2016 3:00 AM;10/17/2016 3:00 AM;HAKAI;"-124,882";"50,02"
LE01;"-126,016";"49,117";"40";chart;offshore;CEDAR COAST;;;Clayoquot;Oceanography;;7/2/2019 8:00 PM;;Hakai;"-126,016";"49,117"
LE02;"-126,067";"49,073";"55";CHS and NRCan Multibeam Echo Sounder Bathymetry;offshore japan;CEDAR COAST;;;Clayoquot;Oceanography;;7/2/2019 8:00 PM;;Hakai;"-126,067";"49,073"
MACRO01;"-128,255";"51,804";"3";chart;;KELP;;;;;;;;Hakai;"-128,255";"51,804"
MACRO1;"-128,255";"51,804";"2";chart;Triquet Island, north west side;Macro Survey;Active; ;Central Coast;Oceanography; ;;;HAKAI;"-128,254";"51,804"
MACRO10;"-128,152";"51,649";"2";chart;West Beach;Nearshore;;;Central Coast;Oceanography;;;;HAKAI;"-128,152";"51,649"
MACRO11;"-128,2";"51,802";"1";chart;Womanley;Nearshore;;;Central Coast;Oceanography;;;;HAKAI;"-128,2";"51,802"
MACRO2;"-128,096";"51,665";"2";chart;Meay Channel;Macro Survey;Active; ;Central Coast;Oceanography; ;;;HAKAI;"-128,095";"51,665"
MACRO3;"-128,265";"51,841";"2";chart;Spider Island, south west side;Macro Survey;Active; ;Central Coast;Oceanography; ;;;HAKAI;"-128,265";"51,841"
MACRO4;"-128,213";"51,903";"2";chart;Golden Islands;Macro Survey;Active; ;Central Coast;Oceanography; ;;;HAKAI;"-128,213";"51,903"
MACRO5;"-128,262";"51,959";"2";chart;Simmonds Group;Macro Survey;Active; ;Central Coast;Oceanography; ;;;HAKAI;"-128,262";"51,959"
MACRO6;"-128,365";"52,084";"1";CHS NONNA10 Bathymetry;Stryker Group;Macro Survey;Active; ;Central Coast;Oceanography; ;;;HAKAI;"-128,365";"52,084"
MACRO7;"-128,369";"52,15";"1";CHS and NRCan Multibeam Echo Sounder Bathymetry;Thompson Bay;Macro Survey;Active; ;Central Coast;Oceanography; ;;;HAKAI;"-128,368";"52,15"
MACRO8;"-128,404";"52,058";"18";chart;McMullins Group;Macro Survey;Active; ;Central Coast;Oceanography; ;;;HAKAI;"-128,404";"52,058"
MACRO9;"-128,46";"51,92";"2";chart;South end of Goose Island;Macro Survey;Active; ;Central Coast;Oceanography; ;;;HAKAI;"-128,46";"51,92"
Manley Pt.;"-128,2";"51,801";"3";chart;;MarineGEO;Active;;Central Coast;MarineGEO;;;;HAKAI;"-128,2";"51,801"
MC1;"-126,044";"49,29";"34";CHS NONNA10 Bathymetry;Millar Channel;CEDAR COAST;;;Clayoquot;Oceanography;;7/3/2019 8:00 PM;;Hakai;"-126,044";"49,29"
MCALPIN Outlet;"-128,163";"52,889";;land;;FGS_F;;;Calvert;KWP;;;;HAKAI;"-128,163";"52,889"
MCMULLINS;"-128,404";"52,058";"1";chart; ; ; ; ; ; ; ;;;HAKAI;"-128,404";"52,058"
MEA01;"-128,091";"51,663";"35";chart;Meay Channel;Kwakshua;Active; ;Central Coast;Oceanography; ;12/31/2012 7:00 PM;;HAKAI;"-128,091";"51,663"
MEA02;"-128,088";"51,675";"50";CHS and NRCan Multibeam Echo Sounder Bathymetry;Meay Channel;Kwakshua;Active; ;Central Coast;Oceanography; ;12/31/2012 7:00 PM;;HAKAI;"-128,088";"51,675"
MEA03;"-128,087";"51,685";"52";CHS and NRCan Multibeam Echo Sounder Bathymetry;Meay Channel;Kwakshua;Active; ;Central Coast;Oceanography; ;12/31/2012 7:00 PM;;HAKAI;"-128,087";"51,685"
MEA04;"-128,069";"51,693";"2";chart;Meay Channel;SOMS;Active; ;Central Coast;Oceanography; ;12/31/2012 7:00 PM;;HAKAI;"-128,069";"51,693"
MEA05;"-128,069";"51,691";;land;Meay Channel;SOMS;Not Active;Discontinued;Central Coast;Oceanography; ;;;HAKAI;"-128,069";"51,691"
MEAY;"-128,096";"51,665";"0";chart; ; ; ; ; ; ; ;;;HAKAI;"-128,096";"51,665"
MEAY KK;"-128,095";"51,665";"1";chart; ; ; ; ;Central Coast;Oceanography; ;;;HAKAI;"-128,095";"51,665"
Mellersh MELR1;"-124,951";"50,776";;land;;FGS_B;;;Quadra;KWP;;;;HAKAI;"-124,951";"50,776"
MG1;"-128,41";"52,07";"27";CHS and NRCan Multibeam Echo Sounder Bathymetry;;MarineGEO;Active;;Central Coast;MarineGEO;;;;HAKAI;"-128,41";"52,07"
MG2;"-128,3";"52,02";"35";CHS and NRCan Multibeam Echo Sounder Bathymetry;;MarineGEO;Active;;Central Coast;MarineGEO;;;;HAKAI;"-128,3";"52,02"
MG3;"-128";"51,73";"0";chart;;MarineGEO;Active;;Central Coast;MarineGEO;;;;HAKAI;"-128";"51,73"
MG4;"-128,07";"51,74";"54";CHS NONNA10 Bathymetry;;MarineGEO;Active;;Central Coast;MarineGEO;;;;HAKAI;"-128,07";"51,74"
Moh  MOH1;"-125,038";"50,518";;land;;FGS_B;;;Quadra;KWP;;;;HAKAI;"-125,038";"50,518"
NAVik;"-124,718";"49,701";"287";CHS and NRCan Multibeam Echo Sounder Bathymetry;Strait of Georgia;;;Proposed North Ajax buoy;;Oceanography Sensors;;;;HAKAI;"-124,718";"49,701"
NBCH01;"-128,143";"51,668";"12";CHS NONNA10 Bathymetry;North East of Surf Island;Queen Charlotte Sound, Ver. 2;Active; ;Central Coast;Oceanography; ;;;HAKAI;"-128,143";"51,668"
NLU02;"-128,051";"51,816";"60";chart;Nalau Passage;North Herring;Active; ;Central Coast;Oceanography; ;12/31/2012 7:00 PM;;HAKAI;"-128,051";"51,816"
NLU03;"-128,051";"51,794";"53";CHS NONNA10 Bathymetry;Nalau Passage;North Herring;Active; ;Central Coast;Oceanography; ;12/31/2012 7:00 PM;;HAKAI;"-128,051";"51,794"
NMU01;"-127,883";"51,837";"49";chart;Warrior Cove;North Herring;Active; ;Central Coast;Oceanography; ;12/31/2012 7:00 PM;;HAKAI;"-127,883";"51,837"
NMU03;"-127,863";"51,867";"15";chart;Namu Harbour;North Herring;Active; ;Central Coast;Oceanography; ;12/31/2012 7:00 PM;;HAKAI;"-127,863";"51,867"
NMU04;"-127,863";"51,884";"40";chart;Harlequin Basin;North Herring;Active; ;Central Coast;Oceanography; ;12/31/2012 7:00 PM;;HAKAI;"-127,863";"51,884"
NONE GLC1;"-126,947";"51,983";;land;;FGS_R;;;;KWP;;;;HAKAI;"-126,947";"51,983"
NP;"-128,122";"51,677";"2";CHS NONNA10 Bathymetry;Choked Pass; ; ; ;Central Coast;Oceanography; ;;;HAKAI;"-128,122";"51,677"
OFFICE QUADRA;"-125,222";"50,116";"1";land;;RAIN_Q;;;Quadra;;;;;HAKAI;"-125,222";"50,116"
Paradise PDSE1;"-124,954";"50,588";"0";chart;;FGS_B;;;Quadra;KWP;;;;HAKAI;"-124,954";"50,588"
PBA;"-128,119";"51,646";"0";chart;;GSS2021;;;;;;;;Hakai;"-128,119";"51,646"
PN1;"-124,725";"50,292";"18";CHS and NRCan Multibeam Echo Sounder Bathymetry;;PENDRELL;;;;;;;;Hakai;"-124,725";"50,292"
PN2;"-124,729";"50,292";"71";CHS and NRCan Multibeam Echo Sounder Bathymetry;;PENDRELL;;;;;;;;Hakai;"-124,729";"50,292"
PN3;"-124,715";"50,27";"235";CHS and NRCan Multibeam Echo Sounder Bathymetry;;PENDRELL;;;;;;;;Hakai;"-124,715";"50,27"
PN4;"-124,749";"50,213";"402";CHS and NRCan Multibeam Echo Sounder Bathymetry;;PENDRELL;;;;;;;;Hakai;"-124,749";"50,213"
POISON OUTLET;"-128,016";"52,898";;land;;FGS_K;;;;;;;;HAKAI;"-128,016";"52,898"
PR6;"-125,027";"49,86";"125";CHS and NRCan Multibeam Echo Sounder Bathymetry;Powell River;;;Pacific Salmon Foundation's Citizen Science Program oCO2, TCO2, salinity, PSF CTD;;Ocean Acidification;;8/9/2016 3:00 AM;10/17/2016 3:00 AM;HAKAI;"-125,027";"49,86"
PR7;"-124,988";"49,905";"19";CHS and NRCan Multibeam Echo Sounder Bathymetry;Powell River;;;Pacific Salmon Foundation's Citizen Science Program oCO2, TCO2, salinity, PSF CTD;;Ocean Acidification;;8/9/2016 3:00 AM;10/17/2016 3:00 AM;HAKAI;"-124,988";"49,905"
PR8;"-124,92";"49,922";"234";CHS and NRCan Multibeam Echo Sounder Bathymetry;Powell River;;;Pacific Salmon Foundation's Citizen Science Program oCO2, TCO2, salinity, PSF CTD;;Ocean Acidification;;8/9/2016 3:00 AM;10/17/2016 3:00 AM;HAKAI;"-124,92";"49,922"
PRUTH;"-128,091";"51,655";"72";CHS NONNA10 Bathymetry;Kwakshua Channel;Kwakshua, Primary Productivity;Active; ;Central Coast;Oceanography; ;12/31/2009 7:00 PM;;HAKAI;"-128,091";"51,655"
PRUTHMOORING;"-128,091";"51,656";"67";CHS NONNA10 Bathymetry;Pruth Bay;;;Thermistor mooring;;Oceanography Sensors;;12/2/2017 3:00 AM;;HAKAI;"-128,091";"51,656"
QCS01;"-128,238";"51,705";"142";CHS NONNA10 Bathymetry;Hakai Pass/ Queen Charlotte Sound;Queen Charlotte Sound, Ver. 1, West Coast Survey;Active; ;Central Coast;Oceanography; ;12/31/2012 7:00 PM;;HAKAI;"-128,238";"51,705"
QCS02;"-128,293";"51,695";"134";CHS NONNA10 Bathymetry;Hakai Pass/ Queen Charlotte Sound;Queen Charlotte Sound, Ver. 1, West Coast Survey;Active; ;Central Coast;Oceanography; ;12/31/2012 7:00 PM;;HAKAI;"-128,293";"51,695"
QCS03;"-128,263";"51,634";"135";CHS NONNA10 Bathymetry;West side of Calvert;West Coast Survey;Active; ;Central Coast;Oceanography; ;12/31/2014 7:00 PM;;HAKAI;"-128,263";"51,634"
QCS04;"-128,24";"51,568";"122";CHS and NRCan Multibeam Echo Sounder Bathymetry;West side of Calvert;West Coast Survey;Active; ;Central Coast;Oceanography; ;12/31/2014 7:00 PM;;HAKAI;"-128,24";"51,568"
QCS05;"-128,206";"51,474";"110";CHS NONNA10 Bathymetry;West side of Calvert;West Coast Survey;Active; ;Central Coast;Oceanography; ;12/31/2014 7:00 PM;;HAKAI;"-128,206";"51,474"
QCS06;"-128,057";"51,419";"128";CHS NONNA10 Bathymetry;West side of Calvert;West Coast Survey;Active; ;Central Coast;Oceanography; ;12/31/2014 7:00 PM;;HAKAI;"-128,057";"51,419"
QCS07;"-127,908";"51,381";"127";CHS NONNA10 Bathymetry;West side of Calvert;West Coast Survey;Active; ;Central Coast;Oceanography; ;12/31/2014 7:00 PM;;HAKAI;"-127,908";"51,381"
QCS08;"-128,341";"51,686";"136";CHS NONNA10 Bathymetry;;;;;Central Coast;Oceanography;;;;HAKAI;"-128,341";"51,686"
QS1;"-125,111";"50,05";"272";CHS and NRCan Multibeam Echo Sounder Bathymetry;South Sutil Ch.;QUADS14;Not Active; ;Discovery Islands;Oceanography; ;12/31/2011 7:00 PM;;HAKAI;"-125,111";"50,05"
QSD01;"-128,361";"51,854";"156";CHS and NRCan Multibeam Echo Sounder Bathymetry;Queens Sound;Outer Shores;Not Active; ;Central Coast;Oceanography; ;12/31/2012 7:00 PM;;HAKAI;"-128,361";"51,854"
QSD02;"-128,35";"51,958";"178";CHS and NRCan Multibeam Echo Sounder Bathymetry;Queens Sound;Outer Shores;Not Active; ;Central Coast;Oceanography; ;12/31/2012 7:00 PM;;HAKAI;"-128,35";"51,958"
QSD03;"-128,417";"52,019";"32";CHS and NRCan Multibeam Echo Sounder Bathymetry;Golby Passage;Outer Shores;Not Active; ;Central Coast;Oceanography; ;12/31/2012 7:00 PM;;HAKAI;"-128,417";"52,019"
QSD04;"-128,472";"52,034";"34";CHS and NRCan Multibeam Echo Sounder Bathymetry;Golby Passage;Outer Shores;Not Active; ;Central Coast;Oceanography; ;12/31/2012 7:00 PM;;HAKAI;"-128,472";"52,034"
QSD05;"-128,513";"52,063";"60";CHS NONNA10 Bathymetry;Golby Passage;Outer Shores;Not Active; ;Central Coast;Oceanography; ;12/31/2012 7:00 PM;;HAKAI;"-128,513";"52,063"
QU1;"-125,141";"50,079";"216";CHS and NRCan Multibeam Echo Sounder Bathymetry;Sutil Channel; ;Not Active;Was QS2 from 2012;Discovery Islands;Oceanography; ;;;HAKAI;"-125,141";"50,079"
QU10;"-125,121";"50,232";"72";CHS and NRCan Multibeam Echo Sounder Bathymetry;Surge Narrows;D;Not Active;Was formerly QS 10 (2012);Discovery Islands;Oceanography; ;12/31/2011 7:00 PM;;HAKAI;"-125,121";"50,232"
QU11;"-125,095";"50,258";"37";CHS and NRCan Multibeam Echo Sounder Bathymetry;Whiterock Passage;E;Active; ;Discovery Islands;Oceanography; ;12/31/2011 7:00 PM;;HAKAI;"-125,095";"50,258"
QU12;"-125,081";"50,277";"102";CHS and NRCan Multibeam Echo Sounder Bathymetry;Whiterock Passage;E;Active; ;Discovery Islands;Oceanography; ;12/31/2011 7:00 PM;;HAKAI;"-125,081";"50,277"
QU16;"-125,16";"50,12";"160";CHS and NRCan Multibeam Echo Sounder Bathymetry;South Sutil Ch.;A, C;Active; ;Discovery Islands;Oceanography; ;12/31/2013 7:00 PM;;HAKAI;"-125,16";"50,12"
QU17;"-125,13";"50,12";"178";CHS and NRCan Multibeam Echo Sounder Bathymetry;South Sutil Ch.;A, B, C;Active; ;Discovery Islands;Oceanography; ;12/31/2013 7:00 PM;;HAKAI;"-125,13";"50,12"
QU18;"-125,16";"50,08";"86";CHS and NRCan Multibeam Echo Sounder Bathymetry;South Sutil Ch.;C;Not Active; ;Discovery Islands;Oceanography; ;12/31/2013 7:00 PM;4/21/2016 3:00 AM;HAKAI;"-125,16";"50,08"
QU19;"-125,13";"50,08";"245";CHS and NRCan Multibeam Echo Sounder Bathymetry;South Sutil Ch.;C;Not Active; ;Discovery Islands;Oceanography; ;12/31/2013 7:00 PM;4/21/2016 3:00 AM;HAKAI;"-125,13";"50,08"
QU2;"-125,163";"50,093";"101";CHS and NRCan Multibeam Echo Sounder Bathymetry;South Sutil Ch.;C;Not Active;Was formerly QS 3 (2012);Discovery Islands;Oceanography; ;12/31/2011 7:00 PM;4/21/2016 3:00 AM;HAKAI;"-125,163";"50,093"
QU20;"-125,1";"50,08";"236";CHS and NRCan Multibeam Echo Sounder Bathymetry;South Sutil Ch.;A, C;Active; ;Discovery Islands;Oceanography; ;12/31/2013 7:00 PM;;HAKAI;"-125,1";"50,08"
QU21;"-125,08";"50,08";"68";CHS and NRCan Multibeam Echo Sounder Bathymetry;South Sutil Ch.;C;Not Active; ;Discovery Islands;Oceanography; ;12/31/2013 7:00 PM;4/21/2016 3:00 AM;HAKAI;"-125,08";"50,08"
QU22;"-125,15";"50,03";"137";CHS and NRCan Multibeam Echo Sounder Bathymetry;South Sutil Ch.;C;Not Active; ;Discovery Islands;Oceanography; ;12/31/2013 7:00 PM;4/21/2016 3:00 AM;HAKAI;"-125,15";"50,03"
QU23;"-125,12";"50,03";"251";CHS and NRCan Multibeam Echo Sounder Bathymetry;South Sutil Ch.;C;Not Active; ;Discovery Islands;Oceanography; ;12/31/2013 7:00 PM;4/21/2016 3:00 AM;HAKAI;"-125,12";"50,03"
QU24;"-125,08";"50,03";"234";CHS and NRCan Multibeam Echo Sounder Bathymetry;South Sutil Ch.;C;Not Active;Station was Core Station November 2014 - July 2015;Discovery Islands;Oceanography; ;12/31/2013 7:00 PM;4/21/2016 3:00 AM;HAKAI;"-125,08";"50,03"
QU25;"-125,05";"50,03";"18";CHS and NRCan Multibeam Echo Sounder Bathymetry;South Sutil Ch.;C;Not Active; ;Discovery Islands;Oceanography; ;12/31/2013 7:00 PM;4/21/2016 3:00 AM;HAKAI;"-125,05";"50,03"
QU26;"-125,01";"50,03";"70";CHS and NRCan Multibeam Echo Sounder Bathymetry;South Sutil Ch.;C;Not Active; ;Discovery Islands;Oceanography; ;12/31/2013 7:00 PM;4/21/2016 3:00 AM;HAKAI;"-125,01";"50,03"
QU27;"-125,23";"50,125";"15";CHS and NRCan Multibeam Echo Sounder Bathymetry;Hyacinthe Bay;C;Not Active; ;Discovery Islands;Oceanography; ;12/31/2013 7:00 PM;4/21/2016 3:00 AM;HAKAI;"-125,23";"50,125"
QU28;"-125,137";"50,217";"87";CHS and NRCan Multibeam Echo Sounder Bathymetry;Hoskyn Channel;D;Active; ;Discovery Islands;Oceanography; ;12/31/2013 7:00 PM;;HAKAI;"-125,137";"50,217"
QU29;"-125,189";"50,254";"137";CHS and NRCan Multibeam Echo Sounder Bathymetry;Lower Okisollo;D, F;Active;CO2 sampling ended Dec 2016;Discovery Islands;Oceanography; ;12/31/2013 7:00 PM;;HAKAI;"-125,188";"50,254"
QU3;"-125,185";"50,115";"125";CHS and NRCan Multibeam Echo Sounder Bathymetry;Hyacinthe Bay;A, C;Active;Was formerly QS 4 (2012);Discovery Islands;Oceanography; ;12/31/2011 7:00 PM;;HAKAI;"-125,185";"50,115"
QU30;"-125,172";"50,241";"110";chart; ; ; ; ;Discovery Islands;Oceanography; ;;;HAKAI;"-125,172";"50,241"
QU31;"-125,209";"50,269";"85";CHS and NRCan Multibeam Echo Sounder Bathymetry;Octopus Islands;D;Not Active; ;Discovery Islands;Oceanography; ;12/31/2013 7:00 PM;;HAKAI;"-125,209";"50,269"
QU32;"-125,249";"50,312";"106";CHS and NRCan Multibeam Echo Sounder Bathymetry;Upper Okisollo;D;Active; ;Discovery Islands;Oceanography; ;12/31/2013 7:00 PM;;HAKAI;"-125,249";"50,312"
QU33;"-125,089";"50,315";"343";CHS and NRCan Multibeam Echo Sounder Bathymetry;Calm Channel;E;Active; ;Discovery Islands;Oceanography; ;12/31/2013 7:00 PM;;HAKAI;"-125,089";"50,315"
QU34;"-125,1";"50,12";"127";CHS and NRCan Multibeam Echo Sounder Bathymetry;South Sutil Ch.;A, C, E;Active; ;Discovery Islands;Oceanography; ;12/31/2013 7:00 PM;;HAKAI;"-125,1";"50,12"
QU35;"-125,02";"50,241";"484";CHS and NRCan Multibeam Echo Sounder Bathymetry;North Sutil Ch.;E;Active; ;Discovery Islands;Oceanography; ;12/31/2014 7:00 PM;;HAKAI;"-125,02";"50,241"
QU36;"-124,996";"50,19";"544";CHS and NRCan Multibeam Echo Sounder Bathymetry;North Sutil Ch.;E;Active; ;Discovery Islands;Oceanography; ;12/31/2014 7:00 PM;;HAKAI;"-124,996";"50,19"
QU37;"-125,052";"50,151";"425";CHS and NRCan Multibeam Echo Sounder Bathymetry;North Sutil Ch.;E;Active; ;Discovery Islands;Oceanography; ;12/31/2014 7:00 PM;;HAKAI;"-125,052";"50,151"
QU38;"-125,223";"50,117";"3";CHS and NRCan Multibeam Echo Sounder Bathymetry;Hyacinthe Bay;Raft;Active; ;Discovery Islands;Oceanography; ;12/31/2014 7:00 PM;;HAKAI;"-125,223";"50,117"
QU39;"-125,099";"50,031";"270";CHS and NRCan Multibeam Echo Sounder Bathymetry;South Sutil Ch.;A, B, C;Active;Added as Core Station March 2015, DO started Sept 2016;Discovery Islands;Oceanography; ;12/31/2014 7:00 PM;;HAKAI;"-125,099";"50,031"
QU4;"-125,199";"50,127";"43";CHS NONNA10 Bathymetry;Open Bay; ;Not Active;Need to check when stopped sampling this sampling;Discovery Islands;Oceanography; ;;;HAKAI;"-125,199";"50,127"
QU40;"-125,164";"50,092";"92";CHS and NRCan Multibeam Echo Sounder Bathymetry;South Sutil Ch.;A (PP);Not Active;Location for Primary Production incubations;Discovery Islands;Oceanography; ;12/31/2014 7:00 PM;9/20/2016 3:00 AM;HAKAI;"-125,164";"50,092"
QU41;"-125,092";"50,366";"596";CHS and NRCan Multibeam Echo Sounder Bathymetry;Bute Inlet;not assigned;Not Active;Sampled during Exploratory survey 5/11/2015;Discovery Islands;Oceanography; ;12/31/2014 7:00 PM;;HAKAI;"-125,092";"50,366"
QU42;"-125,211";"50,258";"41";CHS and NRCan Multibeam Echo Sounder Bathymetry;Hoskyn Channel;QOM D;Active;Location of PP incubations for QOM D;Discovery Islands;Oceanography; ;2/16/2016 7:00 PM;;HAKAI;"-125,211";"50,258"
QU43;"-125,118";"50,339";"531";CHS and NRCan Multibeam Echo Sounder Bathymetry;Calm Channel;QOM E;Active;Deep water station for CO2 and DO sampling;Discovery Islands;Oceanography; ;5/2/2016 8:00 PM;;HAKAI;"-125,118";"50,339"
QU44;"-125,123";"50,074";"257";CHS and NRCan Multibeam Echo Sounder Bathymetry;;QOM F;Active;aka SutChan2;Discovery Islands;Oceanography;;;;HAKAI;"-125,123";"50,074"
QU45;"-125,22";"50,117";"0";CHS and NRCan Multibeam Echo Sounder Bathymetry;Hyacinthe Bay;QRAFT; ; This is the Limpet Node;Discovery Islands;Oceanography Sensors; ;4/25/2016 8:00 PM;;HAKAI;"-125,22";"50,117"
QU46;"-125,175";"50,097";"66";CHS NONNA10 Bathymetry;Northern Strait Of Georgia;QOM A.2;Active;"Formerly known as ""PP drop"" and ""QUPP""";Discovery Islands/Quadra;Oceanography;;9/20/2016 3:00 AM;;HAKAI;"-125,175";"50,097"
QU5;"-125,212";"50,118";"59";CHS NONNA10 Bathymetry;Hyacinthe Bay;A, B, C;Active;Was formerly QS 5 (2012);Discovery Islands;Oceanography; ;12/31/2011 7:00 PM;;HAKAI;"-125,212";"50,118"
QU6;"-125,226";"50,123";"24";CHS NONNA10 Bathymetry;Hyacinthe Bay;A, C;Active;Was formerly QS 6 (2012);Discovery Islands;Oceanography; ;12/31/2011 7:00 PM;;HAKAI;"-125,226";"50,123"
QU7;"-125,231";"50,126";"0";chart;Hyacinthe Bay; ;Not Active;Was QS7 - need to check when stopped sampling;Discovery Islands;Oceanography; ;;;HAKAI;"-125,231";"50,126"
QU8;"-125,175";"50,146";"136";CHS and NRCan Multibeam Echo Sounder Bathymetry;Hoskyn Channel;D;Active;Was formerly QS 8 (2012);Discovery Islands;Oceanography; ;12/31/2011 7:00 PM;;HAKAI;"-125,175";"50,146"
QU9;"-125,137";"50,18";"110";CHS and NRCan Multibeam Echo Sounder Bathymetry;Hoskyn Channel;D, F;Active;Was formerly QS 9 (2012);Discovery Islands;Oceanography; ;12/31/2011 7:00 PM;;HAKAI;"-125,137";"50,18"
RC1;"-126,115";"49,236";"25";CHS NONNA10 Bathymetry;N of Bartlett Island's W Islets;CEDAR COAST;;;Clayoquot;Oceanography;;7/3/2019 8:00 PM;;Hakai;"-126,115";"49,236"
RC2;"-126,072";"49,237";"14";CHS NONNA10 Bathymetry;NW of Bartlett Island;CEDAR COAST;;;Clayoquot;Oceanography;;7/3/2019 8:00 PM;;Hakai;"-126,072";"49,237"
RC3;"-126,032";"49,239";"12";CHS NONNA10 Bathymetry;SE of Bartlett Island;CEDAR COAST;;;Clayoquot;Oceanography;;7/3/2019 8:00 PM;;Hakai;"-126,032";"49,239"
Ri6;"-127,453";"51,728";"207";CHS and NRCan Multibeam Echo Sounder Bathymetry;;;;IOS Historical site;Central Coast;;;;;;"-127,453";"51,728"
Ri7;"-127,393";"51,778";"238";CHS and NRCan Multibeam Echo Sounder Bathymetry;;;;IOS Historical Site;Central Coast;Oceanography;;;;;"-127,393";"51,778"
RVRS01;"-127,804";"51,441";"119";CHS NONNA10 Bathymetry;Fitz Hugh Sound;Rivers Inlet, Ver. 2, West Coast Survey;Active; ;Central Coast;Oceanography; ;12/31/2012 7:00 PM;;HAKAI;"-127,804";"51,441"
RVRS02;"-127,718";"51,43";"153";CHS NONNA10 Bathymetry;;Rivers Inlet V1;Active;;Central Coast;Oceanography;;7/26/2016 3:00 AM;;HAKAI;"-127,718";"51,43"
SC10;"-128,041";"51,66";;land;;;;Subcatchment sampling location;;;;10/22/2016 3:00 AM;;HAKAI;"-128,041";"51,66"
SEA02;"-128,119";"51,675";"5";CHS NONNA10 Bathymetry;;SSWD;;;;;;;;Hakai;"-128,119";"51,675"
SEA11;"-128,248";"51,809";"2";chart;;MarineGEO;Active;;Central Coast;MarineGEO;;;;HAKAI;"-128,248";"51,809"
SEA15;"-128,119";"51,645";"0";chart;Pruth Bay;Nearshore;;;Central Coast;Oceanography;;;;HAKAI;"-128,119";"51,645"
SEA2;"-128,118";"51,675";"4";CHS NONNA10 Bathymetry;;Queen Charlotte Sound V2;Active;;Central Coast;MarineGEO;;;;HAKAI;"-128,118";"51,675"
SEA5;"-128,425";"52,002";"2";chart;;MarineGEO;Active;;Central Coast;MarineGEO;;;;HAKAI;"-128,425";"52,002"
SEA6;"-128,45";"51,928";"1";CHS and NRCan Multibeam Echo Sounder Bathymetry;;MarineGEO;Active;;Central Coast;MarineGEO;;;;HAKAI;"-128,45";"51,928"
SEA7;"-128,465";"51,922";"4";CHS and NRCan Multibeam Echo Sounder Bathymetry;;MarineGEO;Active;;Central Coast;MarineGEO;;;;HAKAI;"-128,465";"51,922"
SEA8;"-128,412";"52,063";"4";CHS and NRCan Multibeam Echo Sounder Bathymetry;;MarineGEO;Active;;Central Coast;MarineGEO;;;;HAKAI;"-128,412";"52,063"
SEA9;"-128,403";"52,051";"3";chart;;MarineGEO;Active;;Central Coast;MarineGEO;;;;HAKAI;"-128,403";"52,051"
SECONDBEACH;"-128,155";"51,649";"0";chart;;GSS;;;;;;;;Hakai;"-128,155";"51,649"
Sentry Shoal;"-124,985";"49,907";"12";CHS and NRCan Multibeam Echo Sounder Bathymetry;Northern Strait of Georgia; ;Active;Environment Canada weather station, location of Hakai SeaFET pH sensor;Discovery Islands;Oceanography Sensors; ;7/4/2016 8:00 PM;;HAKAI;"-124,985";"49,907"
SHORE09;"-127,712";"51,965";"2";chart;Burke Doc Marker;SSWD;active;;Central Coast;Nearshore;;10/4/2020 8:00 PM;;HAKAI;"-127,712";"51,965"
SHORE10;"-127,888";"51,926";"5";chart;Burke Sagen;SSWD;active;;Central Coast;Nearshore;;10/4/2020 8:00 PM;;HAKAI;"-127,888";"51,926"
SHORE11;"-128,114";"51,658";"10";CHS NONNA10 Bathymetry;;SSWD;;;;;;;;Hakai;"-128,114";"51,658"
SHORE12;"-128,12";"51,653";"6";CHS NONNA10 Bathymetry;;SSWD;;;;;;;;Hakai;"-128,12";"51,653"
SHORE13;"-128,093";"51,648";"7";chart;;SSWD;;;;;;;;Hakai;"-128,093";"51,648"
SHORE16;"-128,059";"51,799";"20";chart;;SSWD;;;;;;;;Hakai;"-128,059";"51,799"
SHORE17;"-127,877";"51,708";"1";chart;;SSWD;;;;;;;;Hakai;"-127,877";"51,708"
SHORE18;"-127,882";"51,704";"9";chart;;SSWD;;;;;;;;Hakai;"-127,882";"51,704"
SHORE19;"-127,888";"51,709";"7";chart;;SSWD;;;;;;;;Hakai;"-127,888";"51,709"
SHORE20;"-127,775";"51,962";"10";chart;Burke Eagle Rock;SSWD;active;;Central Coast;Nearshore;;5/24/2021 8:00 PM;;HAKAI;"-127,775";"51,962"
SHORE21;"-127,741";"51,952";"5";chart;Burke Hvidsen;SSWD;active;;Central Coast;Nearshore;;10/4/2020 8:00 PM;;HAKAI;"-127,741";"51,952"
SHORE22;"-127,43";"51,77";"20";chart;Rivers Nelson Narrows;SSWD;active;;Central Coast;Nearshore;;5/30/2021 8:00 PM;;HAKAI;"-127,43";"51,77"
SHORE23;"-127,56";"51,54";"20";chart;Rivers Haystacks;SSWD;active;;Central Coast;Nearshore;;5/30/2021 8:00 PM;;HAKAI;"-127,56";"51,54"
SHORE24;"-128,156";"51,883";"1";chart;;SSWD;;;;;;;;Hakai;"-128,156";"51,883"
SHORE25;"-128,878";"51,878";"70";chart;;SSWD;;;;;;;;Hakai;"-128,878";"51,878"
SHORE26;"-128,162";"51,87";"0";chart;;SSWD;;;;;;;;Hakai;"-128,162";"51,87"
SIMMONDS;"-128,262";"51,959";"2";chart; ; ; ; ; ; ; ;;;HAKAI;"-128,262";"51,959"
SNI1;"-128,06";"51,838";"49";chart;;GSS2021;;;;;;;;Hakai;"-128,06";"51,838"
Southgate Sensor_DS;"-124,693";"50,87";;land;;;;;Quadra;Watersheds;;;;HAKAI;"-124,693";"50,87"
Southgate SGTE1;"-124,768";"50,89";;land;;FGS_B;;;Quadra;KWP;;;;HAKAI;"-124,768";"50,89"
Southgate SGTE2;"-124,754";"50,888";;land;;FGS_B;;;Quadra;KWP;;;;HAKAI;"-124,754";"50,888"
Southgate SGTE3;"-124,739";"50,886";;land;;FGS_B;;;Quadra;KWP;;;;HAKAI;"-124,739";"50,886"
SOUTHGATE SGTE4;"-124,644";"50,862";;land;;;;;Quadra;Watersheds;;;;HAKAI;"-124,644";"50,862"
SP;"-128,123";"51,676";"1";CHS NONNA10 Bathymetry;Choked Pass; ; ; ;Central Coast;Oceanography; ;;;HAKAI;"-128,122";"51,676"
SPYDER;"-128,265";"51,841";"2";chart; ; ; ; ; ; ; ;;;HAKAI;"-128,265";"51,841"
SSP;"-128,115";"51,679";"1";CHS NONNA10 Bathymetry;;GSS2021;;;;;;;;Hakai;"-128,115";"51,679"
STRYKER;"-128,365";"52,084";"0";chart; ; ; ; ; ; ; ;;;HAKAI;"-128,365";"52,084"
Teaquahan TEAQ1;"-124,819";"50,949";;land;;FGS_B;;;Quadra;KWP;;;;HAKAI;"-124,819";"50,949"
Teaquahan TEAQ2;"-124,82";"50,948";;land;;FGS_B;;;Quadra;KWP;;;;HAKAI;"-124,82";"50,948"
TEMP02;"-128,159";"51,87";"5";chart;;TEMP;;;;;;;;Hakai;"-128,159";"51,87"
TEMP04;"-128,053";"51,813";"5";chart;;TEMP;;;;;;;;Hakai;"-128,053";"51,813"
THOMPSON;"-128,369";"52,15";"2";chart; ; ; ; ; ; ; ;;;HAKAI;"-128,369";"52,15"
TO1;"-124,772";"50,303";"497";CHS and NRCan Multibeam Echo Sounder Bathymetry;;Achiever 2019;;;;Oceanography;;;;Hakai;"-124,772";"50,303"
TO2;"-124,735";"50,338";"502";CHS and NRCan Multibeam Echo Sounder Bathymetry;;Achiever 2019;;;;Oceanography;;;;Hakai;"-124,735";"50,338"
TO2A;"-124,709";"50,359";"498";CHS and NRCan Multibeam Echo Sounder Bathymetry;Toba Inlet;;;;Quadra;Oceanography;;;;HAKAI;"-124,709";"50,359"
TO3;"-124,632";"50,408";"471";CHS and NRCan Multibeam Echo Sounder Bathymetry;;Achiever 2019;;;;Oceanography;;;;Hakai;"-124,632";"50,408"
TO3A;"-124,653";"50,416";"462";CHS and NRCan Multibeam Echo Sounder Bathymetry;Toba Inlet;;;;Quadra;Oceanography;;;;HAKAI;"-124,653";"50,416"
TO4;"-124,527";"50,42";"390";CHS and NRCan Multibeam Echo Sounder Bathymetry;;Achiever 2019;;;;Oceanography;;;;Hakai;"-124,527";"50,42"
TO4A;"-124,515";"50,426";"369";CHS and NRCan Multibeam Echo Sounder Bathymetry;Toba Inlet;;;;Quadra;Oceanography;;;;HAKAI;"-124,515";"50,426"
TO5;"-124,4";"50,463";"201";CHS and NRCan Multibeam Echo Sounder Bathymetry;;Achiever 2019;;;;Oceanography;;;;Hakai;"-124,4";"50,463"
TOBA TOBA1;"-124,269";"50,522";;land;;;;;Quadra;Watersheds;;;;HAKAI;"-124,269";"50,522"
TRIQUET;"-128,254";"51,804";"2";chart; ; ; ; ; ; ; ;;;HAKAI;"-128,254";"51,804"
TSUNAMIHILL REFSTN;"-128,13";"51,652";;land;;RAIN_C;;;Calvert;;;;;HAKAI;"-128,13";"51,652"
UBC7;"-127,818";"51,5";"155";CHS NONNA10 Bathymetry;Fitz Hugh Sound;Rivers Inlet, Fitz Hugh Sound, West Coast Survey;Active; ;Central Coast;Oceanography; ;12/31/2012 7:00 PM;;HAKAI;"-127,818";"51,5"
UBC8;"-127,267";"51,674";"51";CHS NONNA10 Bathymetry;Rivers Inlet;Rivers Inlet, Ver. 2;Active; ;Central Coast;Oceanography; ;12/31/2012 7:00 PM;;HAKAI;"-127,267";"51,674"
UWT31;"-126,032";"49,236";"13";CHS and NRCan Multibeam Echo Sounder Bathymetry;Herbert Russell Channel Confluence;UWT_HERBERT;;;Clayoquot;Oceanography;;;;Hakai;"-126,032";"49,236"
UWT32;"-126,038";"49,26";"6";CHS and NRCan Multibeam Echo Sounder Bathymetry;Herbert Sill;UWT_HERBERT;;;Clayoquot;Oceanography;;;;Hakai;"-126,038";"49,26"
UWT33;"-126,035";"49,296";"52";CHS and NRCan Multibeam Echo Sounder Bathymetry;Herbert Mouth South;UWT_HERBERT;;;Clayoquot;Oceanography;;;;Hakai;"-126,035";"49,296"
UWT34;"-126,012";"49,313";"116";CHS and NRCan Multibeam Echo Sounder Bathymetry;Herbert Mouth;UWT_HERBERT;;;Clayoquot;Oceanography;;;;Hakai;"-126,012";"49,313"
UWT35;"-125,978";"49,328";"133";CHS and NRCan Multibeam Echo Sounder Bathymetry;Herbert;UWT_HERBERT;;;Clayoquot;Oceanography;;;;Hakai;"-125,978";"49,328"
UWT36;"-125,945";"49,361";"143";CHS and NRCan Multibeam Echo Sounder Bathymetry;Herbert;UWT_HERBERT;;;Clayoquot;Oceanography;;;;Hakai;"-125,945";"49,361"
UWT37;"-125,939";"49,393";"129";CHS and NRCan Multibeam Echo Sounder Bathymetry;Herbert;UWT_HERBERT;;;Clayoquot;Oceanography;;;;Hakai;"-125,939";"49,393"
UWT38;"-125,907";"49,409";"109";CHS NONNA10 Bathymetry;Herbert Head;UWT_HERBERT;;;Clayoquot;Oceanography;;;;Hakai;"-125,907";"49,409"
UWT39;"-126,068";"49,337";"102";CHS NONNA10 Bathymetry;Millar Channel South;UWT_HERBERT;;;Clayoquot;Oceanography;;;;Hakai;"-126,068";"49,337"
UWT40;"-125,788";"49,353";"76";CHS and NRCan Multibeam Echo Sounder Bathymetry;Bedwell Head;UWT_BEDWELL;;;Clayoquot;Oceanography;;;;Hakai;"-125,788";"49,353"
UWT41;"-125,805";"49,336";"71";CHS NONNA10 Bathymetry;Bedwell;UWT_BEDWELL;;;Clayoquot;Oceanography;;;;Hakai;"-125,805";"49,336"
UWT42;"-125,821";"49,27";"61";CHS and NRCan Multibeam Echo Sounder Bathymetry;Bedwell Mouth;UWT_BEDWELL;;;Clayoquot;Oceanography;;;;Hakai;"-125,821";"49,27"
UWT43;"-125,758";"49,238";"142";CHS and NRCan Multibeam Echo Sounder Bathymetry;Warn Bay;UWT_BEDWELL;;;Clayoquot;Oceanography;;;;Hakai;"-125,758";"49,238"
UWT44;"-125,763";"49,186";"76";CHS NONNA10 Bathymetry;Fortune Channel;UWT_BEDWELL;;;Clayoquot;Oceanography;;;;Hakai;"-125,763";"49,186"
UWT45;"-125,764";"49,126";"45";CHS NONNA10 Bathymetry;Tofino;UWT_TOFINO;;;Clayoquot;Oceanography;;;;Hakai;"-125,764";"49,126"
UWT46;"-125,717";"49,135";"59";CHS NONNA10 Bathymetry;Tofino;UWT_TOFINO;;;Clayoquot;Oceanography;;;;Hakai;"-125,717";"49,135"
UWT47;"-125,69";"49,165";"69";CHS NONNA10 Bathymetry;Tranquil Mouth;UWT_TOFINO;;;Clayoquot;Oceanography;;;;Hakai;"-125,69";"49,165"
UWT48;"-125,675";"49,196";"49";CHS NONNA10 Bathymetry;Tranquil Head;UWT_TOFINO;;;Clayoquot;Oceanography;;;;Hakai;"-125,675";"49,196"
UWT49;"-125,665";"49,161";"73";CHS NONNA10 Bathymetry;Tofino;UWT_TOFINO;;;Clayoquot;Oceanography;;;;Hakai;"-125,665";"49,161"
UWT50;"-125,649";"49,196";"122";CHS NONNA10 Bathymetry;Tofino;UWT_TOFINO;;;Clayoquot;Oceanography;;;;Hakai;"-125,649";"49,196"
UWT51;"-125,598";"49,228";"45";CHS and NRCan Multibeam Echo Sounder Bathymetry;Tofino Head;UWT_TOFINO;;;Clayoquot;Oceanography;;;;Hakai;"-125,598";"49,228"
UWT52;"-125,599";"49,225";"43";CHS and NRCan Multibeam Echo Sounder Bathymetry;Tofino Head;UWT_TOFINO;;;Clayoquot;Oceanography;;;;Hakai;"-125,599";"49,225"
UWT53;"-125,61";"49,209";"89";CHS and NRCan Multibeam Echo Sounder Bathymetry;Tofino;UWT_TOFINO;;;Clayoquot;Oceanography;;;;Hakai;"-125,61";"49,209"
UWT54;"-125,648";"49,182";"106";CHS NONNA10 Bathymetry;Tofino;UWT_TOFINO;;;Clayoquot;Oceanography;;;;Hakai;"-125,648";"49,182"
UWT55;"-125,693";"49,151";"67";CHS NONNA10 Bathymetry;Tofino;UWT_TOFINO;;;Clayoquot;Oceanography;;;;Hakai;"-125,693";"49,151"
UWT56;"-125,797";"49,119";"44";CHS NONNA10 Bathymetry;Tofino Browning Passage;UWT_TOFINO;;;Clayoquot;Oceanography;;;;Hakai;"-125,797";"49,119"
UWT57;"-125,846";"49,129";"18";CHS NONNA10 Bathymetry;Tofino Browning Passage;UWT_TOFINO;;;Clayoquot;Oceanography;;;;Hakai;"-125,846";"49,129"
UWT58;"-125,876";"49,142";"13";CHS NONNA10 Bathymetry;Tofino Browning Passage;UWT_TOFINO;;;Clayoquot;Oceanography;;;;Hakai;"-125,876";"49,142"
UWT59;"-125,915";"49,152";"21";CHS NONNA10 Bathymetry;Tofino Mouth Templar Channel;UWT_TOFINO;;;Clayoquot;Oceanography;;;;Hakai;"-125,915";"49,152"
UWT62;"-126,244";"49,382";"62";CHS NONNA10 Bathymetry;;UWT;;;;;;;;Hakai;"-126,244";"49,382"
UWT63;"-126,244";"49,4";"66";CHS NONNA10 Bathymetry;Sydney & Shelter Confluence;UST_SYDNEY;;;;Oceanography;;;;Hakai;"-126,244";"49,4"
UWT64;"-126,244";"49,427";"68";CHS NONNA10 Bathymetry;Sydney;UST_SYDNEY;;;;Oceanography;;;;Hakai;"-126,244";"49,427"
UWT65;"-126,26";"49,438";"76";CHS NONNA10 Bathymetry;Sydney;UST_SYDNEY;;;;Oceanography;;;;Hakai;"-126,26";"49,438"
UWT66;"-126,27";"49,452";"123";CHS NONNA10 Bathymetry;Sydney & Stewardson Confluence;UST_SYDNEY;;;;Oceanography;;;;Hakai;"-126,27";"49,452"
UWT69;"-126,275";"49,47";"133";CHS NONNA10 Bathymetry;Sydney;UST_SYDNEY;;;;Oceanography;;;;Hakai;"-126,275";"49,47"
UWT70;"-126,285";"49,488";"110";CHS NONNA10 Bathymetry;Sydney;UST_SYDNEY;;;;Oceanography;;;;Hakai;"-126,285";"49,488"
UWT71;"-126,293";"49,502";"81";CHS NONNA10 Bathymetry;Sydney Head;UST_SYDNEY;;;;Oceanography;;;;Hakai;"-126,293";"49,502"
UWT72;"-126,216";"49,399";"71";CHS NONNA10 Bathymetry;Shelter Mouth;UST_SYDNEY;;;;Oceanography;;;;Hakai;"-126,216";"49,399"
UWT73;"-126,186";"49,389";"80";CHS NONNA10 Bathymetry;Shelter;UST_SYDNEY;;;;Oceanography;;;;Hakai;"-126,186";"49,389"
UWT74;"-126,162";"49,394";"85";CHS NONNA10 Bathymetry;Shelter;UST_SYDNEY;;;;Oceanography;;;;Hakai;"-126,162";"49,394"
UWT75;"-126,136";"49,401";"128";CHS NONNA10 Bathymetry;Shelter Millar Confluence;UST_SYDNEY;;;;Oceanography;;;;Hakai;"-126,136";"49,401"
UWT81;"-126,086";"49,38";"154";CHS and NRCan Multibeam Echo Sounder Bathymetry;Millar Channel North;UWT_HERBERT;;;Clayoquot;Oceanography;;;;Hakai;"-126,086";"49,38"
UWT82;"-125,811";"49,298";"58";CHS NONNA10 Bathymetry;Bedwell;UWT_BEDWELL;;;Clayoquot;Oceanography;;;;Hakai;"-125,811";"49,298"
UWT85;"-125,876";"49,25";"54";CHS and NRCan Multibeam Echo Sounder Bathymetry;Cypress Bay;UWT_BEDWELL;;;Clayoquot;Oceanography;;;;Hakai;"-125,876";"49,25"
UWT86;"-125,941";"49,236";"26";CHS NONNA10 Bathymetry;Hecate Bay;UWT_BEDWELL;;;Clayoquot;Oceanography;;;;Hakai;"-125,941";"49,236"
VIKINGBUOY;"-128,239";"51,566";"120";CHS and NRCan Multibeam Echo Sounder Bathymetry;;;;Proposed future location of DFO Viking Buoy;;Oceanography Sensors;;;;HAKAI;"-128,239";"51,566"
WANNOCK WR01;"-127,235";"51,679";;land;;FGS_R;;;Calvert;KWP;;;;HAKAI;"-127,235";"51,679"
WANNOCK WR02;"-127,235";"51,679";;land;;FGS_R;;;Calvert;KWP;;;;HAKAI;"-127,235";"51,679"
WANNOCK WR03;"-127,231";"51,679";;land;;FGS_R;;;Calvert;KWP;;;;HAKAI;"-127,231";"51,679"
WBCH01;"-128,149";"51,654";"10";CHS NONNA10 Bathymetry;West Beach;Queen Charlotte Sound, Ver. 2;Active; ;Central Coast;Oceanography; ;12/31/2013 7:00 PM;;HAKAI;"-128,149";"51,654"
WBCH02;"-128,166";"51,652";"28";CHS NONNA10 Bathymetry;West Beach;Queen Charlotte Sound, Ver. 2;Active; ;Central Coast;Oceanography; ;12/31/2013 7:00 PM;;HAKAI;"-128,166";"51,652"
WEST BEA;"-128,151";"51,648";"7";CHS and NRCan Multibeam Echo Sounder Bathymetry; ; ; ; ;Central Coast;Oceanography; ;;;HAKAI;"-128,151";"51,648"
WESTBEACH;"-128,152";"51,649";"1";chart;;GSS;;;;;;;;Hakai;"-128,152";"51,649"
WHVik;"-128,236";"51,712";"141";CHS NONNA10 Bathymetry;;;;Proposed West Hakai buoy;Central Coast;Oceanography Sensors;;;;HAKAI;"-128,236";"51,712"
WR1;"-127,234";"51,679";;land;;;Inactive;Wannock River in Rivers Inlet  UTM: 9 U 622072 5726817;Central Coast;;;9/9/2016 3:00 AM;;HAKAI;"-127,234";"51,679"
YSI;"-128,12";"51,675";"5";CHS NONNA10 Bathymetry; ; ; ; ;Central Coast;Oceanography; ;;;HAKAI;"-128,12";"51,675"
